Longitude,Latitude,Name,Phone,State,City
-73.098,41.651,Black Rock State Park,860.283.8088,CT,Thomaston
-72.342,41.484,Devils Hopyard State Park,860.526.2336,CT,East Haddam
-71.811,41.534,Green Falls - Pachaug State Forest,860.376.4075,CT,
-72.556,41.265,Hammonasset State Park,203.245.1817,CT,Madison
-73.004,41.935,Haws Memorial - American Legion State Forest,860. 379.0922,CT,Barkhamsted
-71.926,41.602,Hopeville Pond State Park,860.376.2920,CT,Griswold
-73.377,41.823,Housatonic Meadows State Park,860.672.6772,CT,Sharon
-73.205,41.421,Kettletown State Park,203.264.5169,CT,Southbury
-73.384,41.709,Lake Waramaug State Park,860.868.0220,CT,Kent
-73.494,41.777,Macedonia Brook State Park,860.927.3238,CT,Kent
-71.985,41.859,Mashamoquet Brook State Park,860.928.6121,CT,Pomfret Center
-71.869,41.593,Mount Misery - Pachaug State Forest,860.376.4075,CT,Voluntown
-73.224,41.71,Point Folly - White Memorial,860.567.0089,CT,Bantam
-72.243,41.31,Rocky Neck State Park,860.739.5471,CT,Niantic
-72.093,41.651,Salt Rock State Park,860.822.0884,CT,Baltic
-71.894,41.954,West Thompson Lake,860.923.3121,CT,
-73.216,41.727,Windmill Hill - White Memorial,860.567.0089,CT,Litchfield
-71.971,41.852,Wolf Den - Mashamoquet Brook State Park,860.928.6121,CT,Pomfret Center
-75.117,38.78,Cape Henlopen State Park,302.645.8983,DE,Lewes
-75.066,38.606,Delaware Seashore State Park,302.539.7202,DE,Rehoboth Beach
-75.457,39.114,Dover AFB Military,302.677.3959,DE,Dover
-75.534,38.979,Killens Pond State Park,302.284.3412,DE,Felton
-75.718,39.548,Lums Pond State Park,302.368.6989,DE,Kirkwood
-75.6,38.645,Soroptimist Park, ,DE,Seaford
-75.476,38.53,Trap Pond State Park,302.875.2392,DE,Laurel
-72.533,42.608,Barton Cove,413.863.9300,MA,Gill
-73.292,42.205,Beartown State Forest,413.528.0904,MA,Monterey
-70.593,41.751,Bourne Scenic City Park,508.759.7873,MA,Bourne
-72.934,42.254,Chester - Blanford State Forest,413. 354.6347,MA,Chester
-73.076,42.734,Clarksburg State Park,413.664.8345,MA,Clarksburg
-72.791,42.456,DAR State Forest,413.268.7098,MA,Ashfield
-72.408,42.607,Erving State Forest,978.544.3939,MA,Erving
-70.706,42.161,Fourth Cliff Military,781.837.6785,MA,Marshfield
-72.969,42.053,Granville State Forest,413.357.6611,MA,Granville
-71.28,42.473,Hanscom AFB Military,781.377.4670,MA,Bedford
-71.091,42.611,Harold Parker State Forest,978.686.3391,MA,Andover
-73.092,42.684,Historic Valley,413.662.3198,MA,North Adams
-71.041,41.5,Horseneck Beach State Reservation,508.636.8816,MA,Westport
-72.083,42.648,Lake Dennison State Park,978.939.8962,MA,Winchendon
-70.985,41.87,Massasoit State Park,508.822.7405,MA,East Taunton
-72.941,42.642,Mohawk Trail State Forest,413.339.5504,MA,Charlemont
-73.188,42.632,Mt. Greylock State Reservation,413.499.4262,MA,Williamstown
-70.667,41.867,Myles Standish State Forest,508.866.2526,MA,Plymouth
-70.033,41.764,Nickerson State Forest Park,508.896.3491,MA,Brewster
-73.234,42.336,October Mountain State Forest,413.243.1778,MA,
-72.078,42.626,Otter River State Forest,978.939.8962,MA,Baldwinville
-71.758,42.655,Pearl Hill State Park,978.597.8802,MA,West Townsend
-73.32,42.504,Pittsfield State Forest,413.442.8992,MA,Hancock
-70.823,42.842,Salisbury Beach State Reservation,978.462.4482,MA,Salisbury
-73.047,42.647,Savoy Mountain State Forest,413.663.8469,MA,Florida
-70.506,41.778,Scusset Beach State Park,508.888.0859,MA,Sandwich
-70.514,41.756,Shawme Crowell State Forest,508.888.0351,MA,Sandwich
-73.05,42.145,Tolland State Forest,413.269.6002,MA,Otis
-72.21,42.65,Tully Lake,978.249.4957,MA,Royalston
-70.571,41.672,USCG Cape Cod RV,508.968.6461,MA,Buzzards Bay
-72.042,42.141,Wells State Park,508.347.9257,MA,Sturbridge
-72.554,42.19,Westover ARB Military,413.557.2192,MA,
-71.79,42.66,Willard Brook State Forest,978.597.8802,MA,Townsend
-72.986,42.554,Windsor State Forest,413.684.0948,MA,Williamsburg
-70.869,42.531,Winter Island Park,978.745.9430,MA,Salem
-70.846,42.2,Wompatuck State Park,781.749.7160,MA,Hingham
-76.159,39.485,Aberdeen Proving Ground RV Park,410.278.5789,MD,Aberdeen
-76.882,38.785,Andrews AFB Military,301.981.3279,MD,Clinton
-76.472,38.99,Annapolis Military,410.293.9200,MD,Annapolis
-75.144,38.229,Assateague State Park,410.641.2120,MD,
-75.162,38.208,Bayside - Assateague National Seashore,410.641.3030,MD,Berlin
-79.14,39.545,Big Run State Park,301.895.5453,MD,Grantsville
-76.514,38.618,Breezy Point Beach,410.535.0259,MD,Chesapeak Beac
-77.613,39.307,Brunswick City Campground,301.695.5177,MD,Brunswick
-76.731,39.095,Camp Meade RV Military,301.677.6196,MD,Fort Meade
-76.818,38.647,Cedarville State Forest,301.249.9220,MD,Brandywine
-79.31,39.516,Deep Creek Lake State Park,301.387.4111,MD,Swanton
-75.985,39.48,Elk Neck State Park,410.287.5333,MD,North East
-78.385,39.625,Fifteen Mile Creek - C and O Canal National Park,301.739.4200,MD,Pratt
-78.008,39.604,Fort Frederick State Park,301.842.2155,MD,Big Pool
-77.492,39.459,Gambrill State Park,301.271.7574,MD,Frederick
-76.384,38.289,Goose Creek Military,301.342.3648,MD,Patuxent River
-78.457,39.657,Green Ridge State Forest - Dispersed,301.478.3124,MD,Flintstone
-76.895,38.996,Greenbelt Park,301.344.3948,MD,Greenbelt
-77.617,39.536,Greenbrier State Park,301.791.4767,MD,Boonsboro
-76.745,39.244,Hilton - Patapsco Valley State Park,410.461.5005,MD,Catonsville
-76.787,39.295,Hollofield - Patapsco Valley State Park,410.461.5005,MD,Ellicott City
-77.466,39.619,Houck Area - Cunningham Falls State Park,301.271.7574,MD,Thurmont
-75.847,38.011,Janes Island State Park,410.968.1565,MD,Crisfield
-77.291,39.247,Little Bennett Regional Park,301.528.3430,MD,Clarksburg
-79.272,39.378,Lost Land Run  - Potomac State Forest,301.334.2038,MD,Oakland
-76.912,38.737,Louise F. Cosca Regional Park,301.868.1397,MD,Clinton
-77.436,39.582,Manor Area - Cunningham Falls State Park,301.271.7574,MD,Thurmont
-75.837,38.865,Martinak State Park,410.820.1668,MD,Denton
-77.969,39.608,McCoys Ferry - C and O Canal National Park,301.739.4200,MD,Williamsport
-75.491,38.128,Milburn Landing - Pocomoke State Park,410.632.2566,MD,Pocomoke City
-79.386,39.717,Mill Run - Youghiogheny River Lake,814.395.3166,MD,Friendsville
-79.129,39.631,New Germany State Park,301.895.5453,MD,Grantsville
-75.156,38.198,Oceanside - Assateague National Seashore,410.641.3030,MD,Berlin
-77.488,39.653,Owens Creek - Catoctin Mountain National Park,301.663.9388,MD,Sabillasville
-76.331,38.063,Point Lookout State Park,301.872.5688,MD,Scotland
-78.651,39.696,Rocky Gap State Park,301.722.1480,MD,Flintstone
-79.148,39.619,Savage River State Forest,301.895.5759,MD,Grantsville
-75.439,38.134,Shad  Landing - Pocomoke State Park,410.632.2566,MD,Snow Hill
-76.28,39.408,Skippers Point Military,410.671.4732,MD,Gunpowder
-77.181,38.554,Smallwood State Park,301. 743.7613,MD,Marbury
-76.467,38.34,Solomons Navy Military,410.286.5529,MD,Solomons Islan
-78.718,39.564,Spring Gap - C and O Canal National Park,301.739.4200,MD,Cumberland
-76.165,39.612,Susquehanna State Park,410.734.9035,MD,Havre de Grace
-79.422,39.499,Swallow Falls State Park,301.387.6938,MD,Oakland
-75.932,38.981,Tuckahoe State Park,410.820.1668,MD,Queen Anne
-79.269,39.346,Wallman/Laurel Run - Potomac State Forest,301.334.2038,MD,Oakland
-68.962,45.874,Abol - Baxter State Park,207. 723.5140,ME,Millinocket
-68.003,46.61,Aroostook State Park,207.768.8341,ME,Presque Isle
-71.022,44.268,Basin,603.528.8721/603.528.8721,ME,Gilead
-68.214,44.313,Blackwoods - Acadia National Park,207.288.3338,ME,Bar Harbor
-70.179,43.9,Bradbury Mountain State Park,207.688.4712,ME,Pownal
-69.047,44.23,Camden Hills State Park,207.236.3109,ME,Camden
-67.153,44.854,Cobscook Bay State Park,207.726.4412,ME,Dennysville
-71.013,44.265,Cold River,603.528.8721/603.528.8721,ME,Fryeburg
-70.824,44.31,Crocker Pond,603.466.2713/603.528.8721,ME,Bethel
-68.282,44.953,Great Pond Military,207.584.2000,ME,Great Pond
-70.984,44.352,Hastings,603.466.2713/603.528.8721,ME,Gilead
-69.997,45.887,Katahdin Stream - Baxter State Park, ,ME,Seboomook Lake
-69.348,44.398,Lake St. George State Park,207.589.4255,ME,Liberty
-68.298,44.456,Lamoine State Park,207.667.4778,ME,Trenton
-69.542,45.569,Lily Bay State Park,207.695.2700,ME,Greenville
-68.264,45.524,Mattawamkeag Wilderness Park,888.724.2465,ME,Lincoln
-67.859,44.485,McClellan City Park,207.546.2422,ME,Columbia Falls
-70.448,44.681,Mount Blue State Park,207.585.2347,ME,Weld
-69.078,45.976,Nesowadnehunk Field - Baxter State Park,207.723.5140,ME,Millinocket
-69.289,45.26,Peaks - Kenny State Park,207.564.2003,ME,Dover-Foxcroft
-70.72,44.939,Rangeley Lake State Park,207.864.3858,ME,Rangeley
-67.132,44.882,Reversing Falls Park, ,ME,Pembroke
-68.593,47.255,Riverside Park,207.834.3730,ME,Fort Kent
-68.859,45.92,Roaring Brook - Baxter State Park,207.723.5140,ME,Millinocket
-70.68,44.05,Salmon Point City Campground,207.647.5229,ME,Bridgton
-68.306,44.241,Seawall - Acadia National Park,207.244.3600,ME,Southwest Harb
-70.546,43.942,Sebago Lake State Park,207.693.6613,ME,Casco
-68.9,46.109,South Branch Pond - Baxter State Park,207.723.5140,ME,Millinocket
-70.982,44.036,Swans Falls Campground,207.935.3395,ME,Fryeburg
-68.854,46.167,Trout Brook Farm - Baxter State Park,207.723.5140,ME,Millinocket
-71.063,44.306,Wild River, ,ME,Gilead
-70.113,43.804,Winslow City Park,207.865.4198,ME,Freeport
-71.021,44.269,Basin,603.536.1315/603.528.8721,NH,Gilead
-71.331,43.115,Bear Brook State Park,603.485.9869,NH,Allenstown
-71.561,44.049,Big Rock,/603.528.8721,NH,Lincoln
-71.245,44.007,Blackberry Crossing,603.536.1315/603.528.8721,NH,Conway
-71.63,43.871,Campton,/603.528.8721,NH,Campton
-71.696,44.177,Cannon Mountain RV Park,603.823.8800,NH,Franconia
-71.884,43.651,Cardigan Campsites,603.466.2727,NH,Alexandria
-71.013,44.265,Cold River,603.536.1315/603.528.8721,NH,North Chatham
-71.328,44.944,Coleman State Park,603.271.3628,NH,Stewartstown
-71.232,44.003,Covered Bridge,603.536.1315/603.528.8721,NH,Conway
-71.191,45.191,Deer Mountain,603.538.6965,NH,Pittsburg
-71.219,44.333,Dolly Copp,603.466.2713/603.528.8721,NH,Gorham
-71.4,44.178,Dry River - Crawford Notch State Park,603.374.2272,NH,Harts Location
-71.355,43.574,Ellacoya State Beach and RV Park,603.293.7821,NH,Gilford
-71.887,42.958,Greenfield State Park,603.547.3497,NH,Greenfield
-71.365,43.546,Gunstock Area,800.GUNSTOCK,NH,Gilford
-70.816,42.899,Hampton Beach State Park,603.926.3784,NH,Hampton
-71.594,44.064,Hancock,/603.528.8721,NH,Lincoln
-71.556,44.25,Haystack Road,/603.528.8721,NH,Twin Mountain
-71.334,43.998,Jigger Johnson,603.536.1315/603.528.8721,NH,Conway
-71.685,44.139,Lafayette - Franconia Notch State Park,603.823.9513,NH,Franconia Notch
-71.302,45.06,Lake Francis State Park,603.538.6965,NH,Pittsburg
-71.224,44.572,Milan Hill State Park,603.466.3860,NH,Milan
-71.144,44.738,Mollidgewock State Park,603.482.3373,NH,Errol
-72.074,42.844,Monadnock State Park,603.532.8862,NH,Jaffrey
-71.231,44.4,Moose Brook State Park,603.466.3860,NH,Gorham
-72.063,43.321,Mount Sunapee,603.763.5561,NH,Newbury
-71.622,42.948,New Boston Military,603.471.2452,NH,New Boston
-71.371,43.998,Passaconaway,603.536.1315/603.528.8721,NH,Conway
-71.173,43.08,Pawtuckaway State Park,603.895.3031,NH,Nottingham
-72.116,43.234,Pillsbury State Park,603.863.2860,NH,Washington
-71.649,44.009,Russell Pond,/603.528.8721,NH,Lincoln
-72.261,43.72,Storrs Pond Rec Area,603.643.2134,NH,Hanover
-71.505,44.26,Sugarloaf 1,/603.528.8721,NH,Twin Mountain
-71.504,44.258,Sugarloaf 2,/603.528.8721,NH,Twin Mountain
-71.636,43.995,Tripoli Rd,/603.528.8721,NH,Campton
-71.05,44.704,Umbagog Lake,603.482.7795,NH,Cambridge
-71.509,43.942,Waterville,/603.528.8721,NH,Waterville Valley
-72.305,42.94,Wheelock Park Campground,603.357.9832,NH,Keene
-71.225,43.845,White Lake State Park,603.323.7350,NH,Tamworth
-71.214,43.954,White Ledge,603.536.1315/603.528.8721,NH,Conway
-71.065,44.305,Wild River,603.466.2713/603.528.8721,NH,Gilead
-71.794,44.075,Wildwood,/603.528.8721,NH,North Woodstock
-71.501,44.265,Zealand,/603.528.8721,NH,Twin Mountain
-74.131,40.162,Allaire State Park,732.938.2371,NJ,Farmingdale
-74.734,39.743,Atsion - Wharton State Forest,609.268.0444,NJ,Shamong
-74.434,39.624,Bass River State Forest,609.296.1114,NJ,Tuckerton
-74.849,39.243,Belleplain State Forest,609.861.2404,NJ,Woodbine
-74.558,39.37,Birch Grove,609.641.3778,NJ,Northfield
-74.522,39.872,Brendan Byrne State Forest,609.726.1191,NJ,Vincentown
-75.038,40.41,Bulls Island State Park,609.397.2949,NJ,Stockton
-74.266,40.446,Cheesequake State Park,732.566.2161,NJ,South Amboy
-74.157,40.264,Earle RV Military,732.866.2448,NJ,Colts Neck
-74.547,39.69,Godfrey Bridge - Wharton State Forest,609.561.0024,NJ,Chatsworth
-74.689,41.291,High Point State Park - Sawmill Area,973.875.4800,NJ,Sussex
-74.915,40.917,Jenny Jump State Forest,908.459.4366,NJ,Blairstown
-74.59,41.002,Mahlon Dickerson Reservation,973.697.3140,NJ,Lake Hopatcong
-75,41.027,Mohican Walk-In Campsites,603.466.2727,NJ,Blairstown
-74.762,41.227,Ocquittunk - Stokes State Forest,973.948.3820,NJ,Branchville
-75.139,39.509,Parvin State Park,856.358.8616,NJ,Pittsgrove Twp.
-74.552,40.001,Range 14 Camp Military - Ft Dix,609.562.6667,NJ,Browns Mills
-73.991,40.45,Sandy Hook - Gateway National Rec Area,718.354.4655,NJ,Highlands
-74.795,41.198,Shotwell - Stokes State Forest,973.948.3820,NJ,Sandyston
-74.939,40.663,Spruce Run Recreation Area,908.638.8572,NJ,Clinton
-74.81,40.872,Stephens State Park,908.852.3790,NJ,Hackettstown
-74.82,41.076,Swartswood State Park,973.383.5230,NJ,Newton
-74.298,40.197,Turkey Swamp,732.462.7286,NJ,Freehold
-74.887,40.696,Voorhees State Park,908.638.6969,NJ,Glen Gardner
-74.611,40.011,Willow Pond Camp Military - Ft Dix,609.562.6667,NJ,Fort Dix
-75.104,41.005,Worthington State Forest,908.841.9575,NJ,Columbia
-73.423,44.568,Ausable Point  - DEC,518.561.7080,NY,Peru
-76.807,42.485,Backbone Horse Camp,607.546.4470,NY,Burdett
-73.449,40.762,Battle Row,516.572.8690,NY,Old Bethpage
-75.069,42.118,Bear Spring Mountain - DEC,607.865.6989,NY,Walton
-74.07,41.229,Beaver Pond - Harriman State Park,845.947.2792,NY,Stony Point
-74.839,41.979,Beaverkill - DEC,845.439.4281,NY,Roscoe
-73.925,41.27,Blue Mountain Reservation,914.862.5275,NY,Peekskill
-76.799,42.484,Blueberry Patch,607.546.4470,NY,Burdett
-73.222,40.825,Blydenburgh Park,631.854.3712,NY,Smithtown
-75.68,42.522,Bowman Lake State Park,607.334.2718,NY,Oxford
-74.118,44.505,Buck Pond - DEC,518.891.3449,NY,Gabriels
-76.265,44.163,Burnham Point State Park,315.654.2324,NY,Cape Vincent
-76.521,42.416,Buttermilk Falls State Park,607.273.5761,NY,Ithaca
-78.846,42.037,Cain Hollow (Quaker Area) - Allegany State Park,716.354.2182,NY,Salamanca
-74.468,43.125,Caroga Lake - DEC,518.835.4241,NY,Johnstown
-72.943,40.87,Cathedral Pines County Park,631.852.5502,NY,Middle Island
-76.753,42.896,Cayuga Lake State Park,315.568.5163,NY,Seneca Falls
-76.197,44.204,Cedar Point State Park,315.654.2522,NY,Clayton
-72.226,41.028,Cedar Point Suffolk County Park,631.852.7620,NY,East Hampton
-75.818,42.215,Chenango Valley State Park,607.648.5251,NY,Chenango Forks
-73.41,42.622,Cherry Plain State Park,518.733.5400,NY,Cherry Plain
-73.831,41.461,Clarence Fahnestock State Park,845.225.7207,NY,Carmel
-76.86,42.384,Clute Memorial Park,607 535.4438,NY,Watkins Glen
-75.14,44.892,Coles Creek State Park,315.388.5636,NY,Waddington
-75.743,42.3,Cook County Park,607.656.8752,NY,Greene
-73.52,42.121,Copake Falls - Taconic State Park,518.329.3993,NY,Copake Falls
-74.821,44.197,Cranberry Lake  - DEC,315.848.2315,NY,Cranberry Lake
-73.896,41.178,Croton Point Park, ,NY,Croton-on-Huds
-73.425,44.025,Crown Point - DEC,518.597.3603,NY,Crown Point
-73.426,44.725,Cumberland Bay State Park,518.563.5240,NY,Plattsburg
-72.738,40.771,Cupsogue County Park,631.852.8111,NY,Westhampton
-78.433,42.902,Darien Lakes State Park,716.547.9242,NY,Darien Center
-75.417,43.292,Delta Lake State Park,315.337.4670,NY,Rome
-74.208,42.151,Devils Tombstone - DEC,845.688.7160,NY,Lanesville
-75.997,44.33,DeWolf Point State Park,315.482.2012,NY,Fineview
-73.793,43.748,Eagle Point - DEC,518.494.2220,NY,Pottersville
-75.223,42.327,East Sidney Dam Rec Area,607.829.6433,NY,Sidney
-75.477,44.63,Eel Weir State Park,315.393.1138,NY,Ogdensburg
-74.712,43.763,Eighth Lake - DEC,315.354.4120,NY,Inlet
-79.115,42.602,Evangola State Park,716.549.1802,NY,Irving
-76.689,43.343,Fair Haven Beach State Park,315.947.5205,NY,Fair Haven
-76.42,42.7,Fillmore Glen State Park,315.497.0130,NY,Moravia
-74.365,44.308,Fish Creek Pond - DEC,518.891.4560,NY,Tupper Lake
-73.889,40.582,Floyd Bennett Field - Gateway National Rec Area,718.354.4655,NY,Brooklyn
-74.525,43.905,Forked Lake - DEC,518.624.6646,NY,Long Lake
-74.059,40.605,Fort Wadsworth - Gateway National Rec Area,718.354.4655,NY,Staten Island
-78.995,43.274,Four Mile Creek State Park,716.745.3802,NY,Youngstown
-75.128,42.573,Gilbert Lake State Park,607.432.2114,NY,Laurens
-74.869,42.794,Glimmerglass State Park,607.547.8662,NY,Cooperstown
-74.592,43.817,Golden Beach - DEC,315.354.4230,NY,Piseco
-78.483,43.374,Golden Hill State Park,716.795.3885,NY,Barker
-75.995,44.279,Grass Point State Park,315.686.4472,NY,Alexandria Bay
-76.005,43.056,Green Lakes State Park,315.637.6111,NY,Fayetteville
-76.086,42.288,Greenwood County Park, ,NY,Binghamton
-77.946,43.36,Hamlin Beach State Park,716.964.2462,NY,Hamlin
-76.831,42.337,Havana Glen,607.535.9476,NY,Montour Falls
-73.694,43.455,Hearthstone Point - DEC,518.668.5193,NY,Lake George Vi
-76.226,42.091,Hickories Park,631.854.4949,NY,Owego
-74.922,44.496,Higley Flow State Park,315.262.2880,NY,Colton
-72.016,41.008,Hither Hills State Park,631.668.2554,NY,Montauk
-75.373,42.595,Hunts Pond,607.674.4017,NY,New Berlin
-72.629,40.927,Indian Island Park,631.852.3232,NY,Riverhead
-75.677,44.559,Jacques Cartier State Park,315.375.6371,NY,Morristown
-77.722,42.342,Kanakadea Park - Almond Lake,607.664.2460,NY,Hornell
-75.93,44.324,Keewaydin State Park,315.482.3331,NY,Alexandria Bay
-74.221,42.027,Kenneth L. Wilson - DEC,845.679.7020,NY,Mt.Tremper
-77.13,42.583,Keuka Lake State Park,315.536.3666,NY,Bluff Point
-75.855,44.377,Kring Point State Park,315.482.2444,NY,Redwood
-74.389,43.838,Lake Durant - DEC,518.352.7797,NY,Indian Lake
-74.463,43.988,Lake Eaton - DEC,518.624.2641,NY,Long Lake
-79.429,42.421,Lake Erie State Park,716.792.9214,NY,Brocton
-73.712,43.414,Lake George Battleground - DEC,518.668.3348,NY,Lake George Vi
-74.13,43.979,Lake Harris - DEC,518.582.2503,NY,Newcomb
-73.708,42.094,Lake Taghkanic State Park,518.851.3631,NY,Ancram
-78.244,43.366,Lakeside Beach State Park,585.682.4888,NY,Waterport
-78.045,42.584,Letchworth State Park,585.493.3600,NY,Castile
-74.394,43.651,Lewey Lake - DEC,518.648.5266,NY,Indian Lake
-74.796,43.718,Limekiln Lake - DEC,315.357.4401,NY,Inlet
-73.579,44.139,Lincoln Pond - DEC,518.942.5292,NY,New Russia
-74.735,42.036,Little Pond - DEC,845.439.5480,NY,Margaretville
-74.551,43.417,Little Sand Point - DEC,518.548.7585,NY,Piseco
-76.221,44.026,Long Point State Park,315.649.5258,NY,Three Mile Bay
-73.826,43.361,Luzerne - DEC,518.696.2031,NY,Lake Luzerne
-73.616,44.616,Macomb Reservation State Park,518.643.9952,NY,Schuyler Falls
-73.932,41.84,Margaret Norrie State Park,845.889.4646,NY,Staatsburg
-74.411,42.547,Max V Shaul State Park,518.827.4711,NY,Fultonham
-72.373,41.104,McCanns Campground,631.477.0043,NY,Greenport
-74.287,44.578,Meacham Lake - DEC,518.483.5116,NY,Malone
-74.077,44.299,Meadowbrook - DEC,518.891.4351,NY,
-74.399,43.493,Moffitt Beach - DEC,518.548.7102,NY,Speculator
-74.691,41.957,Mongaup Pond - DEC,845.439.4233,NY,DeBruce
-76.852,42.354,Montour Marina,607/535.9397,NY,Montour Falls
-73.707,43.227,Moreau Lake State Park,518.793.0511,NY,Gansevoort
-74.652,41.748,Morningside Park,845.434.5877,NY,South Fallsburg
-73.569,41.309,Mountain Lakes Park,914.864.7312,NY,North Salem
-74.518,41.699,Mountaindale Park,845.434.7337,NY,Mountain Dale
-76.734,42.044,Newtown Battlefield State Park,607. 732.6067,NY,Elmira
-74.982,43.688,Nicks Lake - DEC,315.369.3314,NY,Webb
-74.037,42.203,North/South Lake  - DEC,518.589.5058,NY,Haines Falls
-74.18,43.187,Northampton Beach - DEC,518.863.6000,NY,Northville
-76.109,43.218,Oneida Shores County Park,315.676.7366,NY,Brewereton
-77.407,42.71,Ontario County Park - Gannet Hill,585.374.6250,NY,Naples
-75.418,42.181,Oquaga Creek State Park,607.467.4160,NY,Bainbridge
-73.679,43.885,Paradox Lake - DEC,518.532.7451,NY,Paradox
-76.667,42.232,Park Station Rec Area,607.737.2843,NY,Erin
-75.344,43.403,Pixley Falls State Park,315.942.4713,NY,Boonville
-74.582,43.399,Point Comfort - DEC,518.548.7586,NY,Piseco
-73.503,44.404,Poke-O-Moonshine - DEC,518.834.9045,NY,Schroon Lake
-74.54,43.428,Poplar Point - DEC,518.548.8031,NY,Piseco
-73.571,43.838,Putnam Pond - DEC,518.585.7280,NY,Ticonderoga
-78.747,42.097,Red House - Allegany State Park,716.354.9121,NY,Salamanca
-75.75,44.035,Remington Park RV  Military - Fort Drum,315.773.7777,NY,Fort Drum
-76.546,42.398,Robert H. Treman State Park,607.273.3440,NY,Ithaca
-74.87,44.986,Robert Moses State Park,315.769.8663,NY,Massena
-73.488,43.789,Rogers Rock - DEC,518.585.6746,NY,Ticonderoga
-74.407,44.307,Rollins Pond - DEC,518.891.3239,NY,Tupper Lake
-74.027,41.378,Round Pond Military,845.938.2503,NY,Cornwall
-73.508,41.983,Rudd Pond - Taconic State Park,518.789.3059,NY,Millerton
-74.294,43.36,Sacandaga - DEC,518.924.4121,NY,Wells
-76.902,42.724,Sampson State Park,315.585.6392,NY,Romulus
-72.555,40.888,Sears Bellows,631.852.8290,NY,Hampton Bays
-76.204,43.557,Selkirk Shores State Park,315.298.5737,NY,Pulaski
-73.678,44.043,Sharp Bridge - DEC,518.532.7538,NY,North Hudson
-79.269,42.519,Sheridan Bay Park,716.366.5831,NY,Sheridan
-72.472,40.842,Shinnecock East County Park,631.852.8899,NY,Southampton
-76.886,42.492,Smith Memorial Park,607.546.9911,NY,Hector
-72.89,40.803,Southaven County Park,631.854.1414,NY,
-72.89,40.803,Southhaven County Park,631.854.1414,NY,
-76.196,43.765,Southwick Beach State Park,315.846.5338,NY,Henderson
-78.636,42.592,Sprague Brook Park,716.858.8355,NY,Glenwood
-74.678,42.995,St. Johnsville Campsite and Marina,518/568.7406,NY,St Johnsville
-77.697,42.526,Stony Brook State Park,585.335.8111,NY,Dansville
-76.607,42.54,Taughannock Falls State Park,607.387.6739,NY,Trumansburg
-73.824,44.494,Taylor Pond - DEC,518.647.5250,NY,Au Sable Forks
-71.901,41.056,Theodore Roosevelt County Park,631.852.7879,NY,Montauk
-74.046,42.653,Thompsons Lake State Park,518.872.1674,NY,East Berne
-75.963,42.398,Upper Lisle,607.692.4612,NY,Whitney Point
-75.725,43.178,Verona Beach State Park,315.762.4463,NY,Verona Beach
-73.584,41.255,Ward Pound Ridge Reservation,914.864.7317,NY,Katonah
-76.881,42.37,Watkins Glen State Park,607.535.4511,NY,Watkins Glen
-77.46,43.258,Webster Park,585.269.4544,NY,Webster
-76.019,44.316,Wellesley Island State Park,315.482.2722,NY,Fineview
-76.114,43.897,Westcott Beach State Park,315.646.2239,NY,Henderson
-75.462,43.702,Whetstone Gulf State Park,315.376.6630,NY,Lowville
-73.724,41.953,Wilcox Memorial Park,845.758.6100,NY,Milan
-72.805,40.963,Wildwood State Park,631.929.4314,NY,Wading River
-73.861,44.35,Wilmington Notch - DEC,518.946.7172,NY,Wilmington
-74.273,41.537,Winding Hills Park,845.457.4900,NY,Montgomery
-74.37,42.033,Woodland Valley - DEC,845.688.7647,NY,Phoenicia
-78.78,40.342,Adams Croyle,814.495.7281,PA,Summerhill
-77.652,41.036,Bald Eagle State Park (Letterman Campground),654.655.2725,PA,Howard
-79.112,41.525,Beaver Meadows Rec Area,814.927.6628/814.723.5150,PA,Marienville
-78.059,40.915,Black Moshannon State Park,654.242.5665,PA,Philipsburg
-78.579,40.295,Blue Knob State Park,854.279.3578,PA,Imler
-79.257,41.839,Buckaloons Rec Area,814.362.4613/814.723.5150,PA,Warren
-79.434,40.441,Bush,724. 668.8999,PA,Saltsburg
-75.23,41.432,Caffrey Rec Area - PPL,570.226.4608,PA,Lakeville
-77.477,39.908,Caledonia State Park,717.352.2161,PA,Fayetteville
-78.287,40.481,Canoe Creek State Park,814.695.6807,PA,Hollidaysburg
-79.178,41.746,Chapman State Park,654.722.500,PA,Clarendon
-77.821,41.663,Cherry Springs State Park,654.425.5050,PA,Coudersport
-79.077,41.322,Clear Creek State Park,654.752.2265,PA,Sigel
-76.908,39.783,Codorus State Park,717.657.2656,PA,Hanover
-80.084,41.679,Colonel Crawford County Park,814.763.4477,PA,Meadville
-77.413,40.283,Colonel Denning State Park,717.776.5272,PA,Newville
-77.466,41.701,Colton Point State Park,570.724.2561,PA,Wellsboro
-79.22,41.365,Cook Forest State Park,614.744.6407,PA,Cooksburg
-77.921,39.999,Cowans Gap State Park,717.485.3948,PA,Fort Loudon
-79.511,40.711,Crooked Creek Recreation Area, ,PA,Ford City
-78.533,40.94,Curwensville Lake,800.326.9051,PA,Curwensville
-78.959,41.832,Dewdrop Rec Area,814.362.4613/814.723.5150,PA,Warren
-74.873,41.211,Dingmans - Delaware Water Gap National Rec Area,570.828.1551,PA,Dingman's Ferr
-78.843,40.569,Duman Lake County Park,814.472.8514,PA,Nicktown
-78.595,41.564,East Branch Lake, ,PA,Wilcox
-77.58,40.273,Fowlers Hollow State Park,717.776.5272,PA,Newville
-75.895,41.347,Frances Slocum State Park,570.858.2525,PA,Wyoming
-75.797,40.196,French Creek State Park,650.562.5650,PA,Elverson
-76.91,40.054,Gifford Pinchot State Park,717.432.5011,PA,Lewisberry
-77.762,40.646,Greenwood Furnace State Park,814.667.1800,PA,Huntingdon
-79.259,41.69,Hearts Content Rec Area,814.362.4613/814.723.5150,PA,Warren
-75.84,40.03,Hibernia County Park,610.383.3812,PA,Coatesville
-75.696,41.026,Hickory Run State Park,570.444.405,PA,White Haven
-77.186,41.806,Hills Creek State Park,570.724.4246,PA,Wellsboro
-77.629,41.358,Hyner Run State Park,570.923.6000,PA,North Bend
-75.279,41.368,Ironwood Point Rec Area - PPL,570.857.0880,PA,Greentown
-77.179,41.889,Ives Run,570.835.0110,PA,Tioga
-80.507,41.518,Jamestown - Pymatuning State Park,724.932.3142,PA,Jamestown
-79.258,41.541,Kellettville Rec Area  Tionesta Lake,814.755.3512,PA,Kelletville
-79.494,39.885,Kentuck - Ohiopyle State Park,724.325.9555,PA,Ohiopyle
-77.931,41.377,Kettle Creek State Park,570.522.6054,PA,Renovo
-79.383,40.372,Keystone State Park,724.965.2505,PA,Derry
-78.904,41.785,Kiasutha Rec Area,814.362.4613/814.723.5150,PA,Kane
-79.23,40.06,Kooser State Park,814.445.8673,PA,Somerset
-75.708,41.565,Lackawanna State Park,570.645.2225,PA,Dalton
-75.267,40.476,Lake Towhee County Park,215.757.0571,PA,Applebachsvill
-76.485,41.81,Larnard Hornbrook County Park, ,PA,Towanda
-79.218,40.009,Laurel Hill State Park,954.445.7725,PA,Somerset
-75.319,41.366,Ledgedale Rec Area,570.689.2181,PA,Lake Ariel
-77.45,41.698,Leonard Harrison State Park,570.724.2005,PA,Wellsboro
-80.462,41.657,Linesville - Pymatuning State Park,724.932.3142,PA,Jamestown
-77.19,40.454,Little Buffalo State Park,717.567.9255,PA,Newport
-77.354,41.353,Little Pine State Park,570.752.6050,PA,Waterville
-76.12,40.785,Locust Lake State Park,570.487.2404,PA,Barnesville
-79.082,41.4,Loleta Rec Area,814.927.6628/814.723.5150,PA,Marienville
-78.899,40.294,Lorain Borough Park,814.266.5600,PA,Lorain
-77.778,41.723,Lyman Run State Park,814.435.5010,PA,Galeton
-80.116,39.726,Mason - Dixon Historical Park,304.291.7257,PA,Mount Morris
-75.801,40.846,Mauch Chunk Lake County Park,570.325.3669,PA,Jim Thorpe
-76.297,40.028,Mill Creek Campground - Central Park,717.299.8215,PA,Lancaster
-79.225,40.903,Milton Loop,814.257.0131,PA,Dayton
-79.154,41.621,Minister Creek  and Trailhead,814.362.4613/814.723.5150,PA,Sheffield
-76.048,41.255,Moon Lake County Park,570.477.5467,PA,Hunlock Creek
-76.279,39.85,Muddy Run Rec Park - PPL,717.284.4325,PA,Holtwood
-78.83,40.466,Nanty Glo Municipal Park,814.659.2396,PA,Nanty Glo
-77.715,41.536,Ole Bull State Park,654.425.5050,PA,Cross Fork
-76.383,39.877,Otter Creek - PPL,717.862.3628,PA,Airville
-79.367,39.804,Outflow - Youghiogheny River Lake,814.395.3242,PA,Confluence
-78.509,41.202,Parker Dam State Park,814.765.0630,PA,Penfield
-77.891,41.697,Patterson State Park,654.425.2450,PA,Galeton
-77.701,40.728,Penn Roosevelt State Park,814.667.1800,PA,Huntingdon
-76.345,39.898,Pequea Creek - PPL,717.284.4587,PA,Pequea
-77.276,40.036,Pine Grove Furnace State Park,717. 486.7174,PA,Gardners
-77.419,40.833,Poe Paddy State Park,717.667.3622,PA,Milroy
-77.468,40.822,Poe Valley State Park,854.349.2400,PA,Milroy
-78.559,40.674,Prince Gallitzin State Park,814.674.1007,PA,Patton
-75.21,41.32,Promised Land State Park,570.676.2426,PA,Greentown
-78.965,40.17,Quemahoning Family Rec Area,814.233.9510,PA,Jennerstown
-80.428,40.507,Raccoon Creek State Park,724.896.5003,PA,Hookstown
-77.243,41.11,Ravensburg State Park,570.966.1455,PA,Mifflinburg
-77.192,40.992,RB Winter State Park,970.590.5495,PA,Mifflinburg
-78.888,41.778,Red Bridge Rec Area,814.362.4613/814.723.5150,PA,Kane
-78.793,41.49,Red Mill,814.927.6628/814.723.5150,PA,Ridgway
-79.292,41.015,Redbank Valley Municipal Park,814.365.5924,PA,Redbank
-77.476,40.723,Reeds Gap State Park,717.667.3622,PA,Milroy
-76.296,41.336,Ricketts Glen State Park,570.477.5675,PA,Benton
-80.44,39.889,Ryerson Station State Park,724.429.4254,PA,Wind Ridge
-78.531,41.108,S.B. Elliott State Park,654.765.520,PA,Penfield
-75.871,41.91,Salt Springs State Park,570.945.3239,PA,Dalton
-78.076,40.374,Seven Points,814.658.3405,PA,Hesston
-78.624,40.051,Shawnee State Park,854.733.4258,PA,Schellsburg
-80.43,41.298,Shenango,724.646.1124,PA,Sharpville
-78.031,41.42,Sinnemahoning State Park,614.647.6401,PA,Austin
-78.181,41.596,Sizerville State Park,814.486.5605,PA,Emporium
-76.409,40.357,Stoevers Dam Park,717.228.4470,PA,Lebanon
-76.698,41.646,Sunfish Pond County Park,570.364.5900,PA,Leroy
-78.05,40.388,Susquehannock - Raystown Lake,814.658.6806,PA,Hesston
-75.068,40.506,Tinicum County Park,215.757.0571,PA,Erwinna
-79.442,41.479,Tionesta Rec Area - Tionesta Lake,814.755.3512,PA,Tionesta
-75.397,41.207,Tobyhanna State Park,570.894.8336,PA,Tobyhanna
-75.079,40.441,Tohickon Valley County Park,215.297.0754,PA,Point Pleasant
-77.191,41.979,Tompkins River,570.827.2109,PA,Tioga
-78.876,41.943,Tracy Ridge Rec Area,814.362.4613/814.723.5150,PA,Bradford
-78.129,40.311,Trough Creek State Park,814.858.3947,PA,James Creek
-79.415,39.782,Tub Run Rec Area - Youghiogheny River Lake,814.395.3242,PA,Confluence
-80.491,41.641,Tuttle - Pymatuning State Park,724.932.3142,PA,Jamestown
-78.756,41.614,Twin Lakes Rec Area,814.927.6628/814.723.5150,PA,Wilcox
-79.768,41.476,Two Mile Run County Park,814.676.6116,PA,Oil City
-75.723,40.166,Warwick County Park,610.469.1916,PA,Pottstown
-78.918,41.989,Willow Bay Rec Area,814.362.4613/814.723.5150,PA,Bradford
-75.182,41.449,Wilsonville Rec Area - PPL,570.226.4382,PA,Hawley
-76.57,41.47,Worlds End State Park,570.244.2257,PA,Forksville
-71.7,41.37,Burlingame State Park,401.322.7994,RI,Charlestown
-71.295,41.568,Carr Point Military - Newport NS,401.841.3116,RI,
-71.637,41.358,Charlestown Breachway State Park,401.322.8910,RI,Charlestown
-71.692,41.343,East Beach - Ninigret State Conservation Area,401. 322.0450,RI,Charlestown
-71.488,41.38,Fishermens Memorial State Park,401.789.8374,RI,Narragansett
-71.399,41.489,Fort Getty Camping and Recreation Area, ,RI,Newport
-71.755,41.92,George Washington State Area,401.568.2013,RI,Chepachet
-71.275,41.589,Melville Ponds,401.682.2424,RI,Portsmouth
-71.252,41.487,Middletown City Campground,401.846.6273,RI,Middeltown
-82.528,36.868,Bark Camp,276.328.2931/540.265.5100,VA,Coeburn
-78.274,37.533,Bear Creek Lake State Park,804.492.3606,VA,Cumberland
-81.682,36.667,Beartree,276.783.5196/540.265.5100,VA,Damascus
-76.581,37.776,Belle Isle State Park,804.462.5030,VA,Lancaster
-76.431,37.092,Bethel Military,757.766.7627,VA,Hampton
-78.439,38.527,Big Meadows - Shenandoah National Park,540.999.3231,VA,Stanley
-79.884,38.069,Blowing Springs,540.839.2521/540.265.5100,VA,Covington
-79.974,37.985,Bolar Mountain,540.839.2521/540.265.5100,VA,Covington
-82.295,37.29,Breaks InterState Park,540.865.4413,VA,Haysi
-78.631,36.662,Buffalo Landing - Kerr Reservoir, ,VA,Clarksville
-77.476,38.801,Bull Run Regional Park,703.631.0550,VA,Centreville
-77.302,38.76,Burke Lake Park,703.323.6600,VA,Fairfax Station
-78.518,38.731,Camp Roosevelt,540.839.2521/540.265.5100,VA,Luray
-82.679,37.102,Cane Patch,276.328.2931/540.265.5100,VA,Pound
-76.007,36.927,Cape Henry RV Military,757.422.8818,VA,Virginia Beach
-79.534,37.574,Cave Mountain Lake,540.291.2188/540.265.5100,VA,Natural Bridge Station
-82.922,36.802,Cave Springs,276.328.2931/540.265.5100,VA,Dryden
-77.334,38.091,Champs RV Military - A P Hill,804.633.8244,VA,Woodford
-76.873,37.265,Chickahominy Riverfront Park,757-258-5020,VA,Williamsburg
-76.748,37.14,Chippokes Plantation State Park,757.294.3182,VA,Surry
-80.624,37.062,Claytor Lake State Park,540.643.2500,VA,Dublin
-81.225,36.763,Comers Rock,276.783.5196/540.265.5100,VA,Speedwell
-82.407,37.157,Cranesnest  - John W. Flannagan Reservoir,540.835.9544,VA,Clintwood
-79.802,37.897,Douthat State Park,540.862.8100,VA,Millboro
-78.331,38.925,Elizabeth Furnace,540.984.4101/540.265.5100,VA,Front Royal
-80.108,36.798,Fairy Stone State Park,540.930.2424,VA,Stuart
-76.052,36.918,First Landing State Park,757.412.2300,VA,Virginia Beach
-77.145,38.697,Fort Belvoir Travel and RV Camp,703.805.1488,VA,Fort Belvoir
-76.595,37.161,Fort Eustis Military,757.878.2610,VA,Newport News
-80.873,37.044,Gatewood Park,540.994.8696,VA,Pulaski
-80.821,37.374,Gentrys Landing,540.726.7509,VA,Narrows
-79.368,37.731,Glen Maury Park,540.261.7321,VA,Buena Vista
-79.883,36.897,Goose Dam,540.483.2100,VA,Sydnorsville
-80.059,36.804,Goose Point - Philpott Lake,276.629.2703,VA,Martinsville
-76.334,37.073,Gosnolds Hope Park,757.850.5116,VA,Hampton
-82.357,37.432,Grapevine - Fishtrap Lake,606.835.4564,VA,Phyllis
-81.485,36.639,Grayson Highlands State Park,540.579.7092,VA,Mouth Of Wilson
-81.542,36.688,Grindstone,276.783.5196/540.265.5100,VA,Troutdale
-79.822,38.099,Hidden Valley,540.839.2521/540.265.5100,VA,Warm Springs
-82.622,36.89,High Knob,276.328.2931/540.265.5100,VA,Norton
-78.639,37.396,Holliday Lake State Park,434.248.6308,VA,Appomattox
-79.135,38.46,Hone Quarry,/540.265.5100,VA,Harrisonburg
-80.076,36.834,Horseshoe Point - Philpott Lake,540.365.7385,VA,Martinsville
-81.525,36.871,Hungry Mother State Park,540.781.7400,VA,Marion
-81.491,36.723,Hurricane,276.783.5196/540.265.5100,VA,Sugar Grove
-78.434,36.574,Ivy Hill Rec Area - Kerr Reservoir,804.738.6143,VA,Townsville NC
-78.798,37.624,James River State Park,434.933.4355,VA,Wingina
-80.065,36.851,Jamison Mill Park - Philpott Lake,540.629.1847,VA,Henry
-76.594,37.282,Kings Creek - Cheatham Annex Military,757.887.7418,VA,Williamsburg
-75.975,37.174,Kiptopeke State Park,757.331.2267,VA,Cape Charles
-77.824,38.115,Lake Anna State Park,540.854.5503,VA,Spotsylvania
-77.321,38.963,Lake Fairfax,703.471.5415,VA,Reston
-79.61,37.798,Lake Robertson,540.463.4164,VA,Collierstown- Rockbridge County
-78.477,38.436,Lewis Mountain - Shenandoah National Park,540.999.3273,VA,Stanardsville
-76.161,36.909,Little Creek RV Military,757.462.7282,VA,Virginia Beach
-78.444,38.867,Little Fort OHV,540.984.4101/540.265.5100,VA,Fort Valley
-78.669,38.246,Loft Mountain - Shenandoah National Park,434.823.4675,VA,Crozet
-78.551,36.577,Longwood Rec Area - Kerr Reservoir,434.374.2711,VA,Clarksville
-82.375,37.233,Lower Twin Branch - John W. Flannagan Reservoir,540.835.9544,VA,Haysi
-77.459,38.525,Lunga Park Military - Quantico MCB,703.784.5270,VA,Stafford
-78.294,38.751,Mathews Arm - Shenandoah National Park,540.999.3132,VA,Rileyville
-79.922,38.013,Mcclintic Point,540.839.2521/540.265.5100,VA,Warm Springs
-79.97,37.934,Morris Hill,540.962.2214/540.265.5100,VA,Hot Springs
-79.088,38.352,Natural Chimneys Regional Park,888.430.2267,VA,Mt.Solon
-82.735,36.702,Natural Tunnel State Park,540.940.2674,VA,Duffield
-76.551,37.187,Newport News City Park,757.888.3333,VA,Newport News
-78.311,36.595,North Bend Park - Kerr Reservoir,434.738.0059,VA,Boydton
-79.586,37.542,North Creek,540.291.2188/540.265.5100,VA,
-79.207,38.339,North River,/540.265.5100,VA,Staunton
-76.153,36.582,Northwest River Park,757.421.3145,VA,Chesapeake
-77.417,38.6,Oak Ridge - Prince William Forest Park,703.221.7181,VA,Manassas
-78.53,36.628,Occoneechee State Park,804.374.2210,VA,Clarksville
-76.026,36.796,Ocean Pines RV Military - Oceana NAS,757.417.7140,VA,Virginia Beach
-79.265,37.748,Oronoco,540.291.2188/540.265.5100,VA,Oronoco
-79.339,37.574,Otter Creek - Blue Ridge Parkway,828.298.0398,VA,Monroe
-79.602,37.442,Peaks of Otter - Blue Ridge Parkway,540.586.7321,VA,Bedford
-77.572,37.366,Pocahontas State Park,804.796.4255,VA,Chesterfield
-77.175,38.671,Pohick Bay Regional Park,703.339.6104,VA,Lorton
-82.453,37.195,Pound River - John W. Flannagan Reservoir,540.835.9544,VA,Clintwood
-77.352,38.603,Prince William Forest RV Campground,703.221.2474,VA,Dumfries
-81.426,36.746,Raccoon Branch,276.783.5196/540.265.5100,VA,Sugar Grove
-81.07,36.836,Raven Cliff,276.783.5196/540.265.5100,VA,Cripple Creek
-77.446,37.413,Richmond  RV Camp Military,804.279.1094,VA,
-79.952,37.226,Roanoke Mountain - Blue Ridge Parkway,828.298.0398,VA,Roanoke
-80.345,36.833,Rocky Knob - Blue Ridge Parkway,828.298.0398,VA,Floyd
-78.442,36.655,Rudds Creek - Kerr Reservoir,434.738.6827,VA,Boydton
-81.285,36.865,Rural Retreat Lake,276.686.4331,VA,Wytheville
-80.1,36.851,Ryans Branch - Philpott Lake,540.629.1847,VA,Ferrum
-80.036,36.811,Salthouse Branch - Philpott Lake,276.629.2703,VA,Henry
-75.956,36.772,Sea Mist RV Military - Dam Neck Annex,757.492.7545,VA,Virginia Beach
-78.307,38.855,Shenandoah River - Guest State Park,540.622.6840,VA,Front Royal
-79.01,37.92,Sherando Lake - Family Campground,540.839.2521/540.265.5100,VA,Lyndhurst
-79.595,37.09,Smith Mountain Lake,540.291.2188,VA,Huddleston
-78.668,36.699,Staunton River State Park,804.572.4623,VA,Scottsburg
-80.219,37.601,Steel Bridge,540.864.5195/540.265.5100,VA,
-81.181,37.01,Stony Fork,276.783.5196/540.265.5100,VA,Wytheville
-82.111,36.646,Sugar Hollow City Park,276.645.7379,VA,Bristol
-76.301,37.015,The Colonies Military,757.788.4305,VA,Hampton
-80.077,37.605,The Pines,540.864.5195/540.265.5100,VA,New Castle
-79.211,38.366,Todd Lake,/540.265.5100,VA,West Augusta
-78.272,37.206,Twin Lakes State Park,804.392.3435,VA,Burkeville
-80.886,37.198,Walnut Flats,540.552.4641/540.265.5100,VA,Holly Brook
-76.868,38.165,Westmoreland State Park,804.493.8821,VA,Montross
-80.492,37.43,White Rocks,540.552.4641/540.265.5100,VA,Simmonsville
-83.631,36.602,Wilderness Road - Cumberland Gap National Park,606.248.2817,VA,Ewing
-72.632,44.052,Allis State Park,802.276.3175,VT,Randolph
-72.269,44.288,Big Deer State Park,802.584.3822,VT,Groton
-73.231,43.659,Bomoseen State Park,802.265.4242,VT,Fair Haven
-73.072,43.906,Branbury State Park,802.247.5925,VT,Salisbury
-71.857,44.796,Brighton State Park,802.723.4360,VT,Island Pond
-73.205,44.772,Burton Island,802.524.6353,VT,St Albans Bay
-73.358,44.181,Button Bay State Park,802.475.2377,VT,Vergennes
-72.699,43.551,Calvin Coolidge State Park,802.672.3612,VT,Plymouth
-72.873,44.958,Carmi State Park,802.933.8383,VT,Enosburg Falls
-72.911,43.825,Chittenden Brook,802.767.4261/802.747.6700,VT,Rochester
-73.411,44.055,DAR State Park,802.759.2354,VT,Addison
-72.511,44.72,Eden Rec Area,802.635.2255,VT,Lowell
-72.54,44.536,Elmore State Park,802.888.2982,VT,Lake Elmore
-73.009,43.278,Emerald Lake State Park,802.362.1655,VT,East Dorset
-72.567,42.824,Fort Dummer State Park,802.254.2610,VT,Brattleboro
-72.81,43.674,Gifford Woods State Park,802.775.5354,VT,Killington
-73.295,44.688,Grand Isle State Park,802.372.4300,VT,Grand Isle
-72.821,43.351,Greendale,802.362.2307/802.747.6700,VT,Weston
-72.952,43.046,Grout Pond,802.362.2307/802.747.6700,VT,Stratton
-73.217,43.692,Half Moon Pond State Park,802.273.2848,VT,Hubbardton
-72.892,43.253,Hapgood Pond,802.362.2307/802.747.6700,VT,Manchester
-72.765,43.112,Jamaica State Park,802.874.4600,VT,Jamaica
-72.768,44.39,Little River State Park,802.244.7103,VT,Waterbury
-71.646,44.636,Maidstone State Park,802.676.3930,VT,Guildhall
-72.813,42.851,Molly Stark State Park,802.464.5460,VT,Wilmington
-73.027,43.919,Moosalamoo,802.388.4362/802.747.6700,VT,Ripton
-72.406,43.438,Mt. Ascutney State Park,802.674.2060,VT,Windsor
-73.221,44.277,Mt. Philo State Park,802.425.2390,VT,Charlotte
-72.289,44.32,New Discovery State Park,802.426.3042,VT,Marshfield
-73.234,44.492,North Beach,800.571.1198,VT,Burlington
-72.21,44.947,Prouty Beach Campground,802.334.7951,VT,Newport
-72.401,43.637,Quechee State Park,802.295.2990,VT,White River Jct
-73.019,42.899,Red Mill Brook,802.362.2307/802.747.6700,VT,Bennington
-72.254,44.246,Ricker Pond State Park,802.584.3821,VT,Groton
-72.614,43.733,Silver Lake State Park,802.234.9451,VT,Bethel
-72.788,44.559,Smugglers Notch State Park,802.253.4014,VT,Stowe
-73.205,43.48,St. Catherine State Park,802.287.9158,VT,Poultney
-72.273,44.28,Stillwater State Park,802.584.3822,VT,Groton
-72.691,43.041,Townshend State Park,802.365.7500,VT,Townsend
-72.839,44.53,Underhill State Park,802.899.3022,VT,Underhill Center
-72.408,43.391,Wilgus State Park,802.674.5422,VT,Ascutney
-72.81,43.163,Winhall Brook,802.824.4570,VT,Jamaica
-73.039,42.89,Woodford State Park,802.447.7169,VT,Bennington
-81.071,37.855,Army Camp - New River National Scenic River,304.465.0508,WV,Layland
-80.065,39.04,Audra State Park,304.457.1162,WV,Belington
-80.949,38.005,Babcock State Park,304.438.3004,WV,Danese
-80.575,38.635,Bakers Run,304.765.5631,WV,Sutton
-80.908,38.218,Battle Run,304.872.3412,WV,Summerville
-79.679,38.93,Bear Heaven,304.478.3251/304.636.1800,WV,Elkins
-80.094,38.101,Beaver Creek - Watoga State Park,304.799.4087,WV,White Sulphur Springs
-81.197,37.785,Beckley Exhibition Coal Mine Campground,304.256.1747,WV,Beckley
-80.678,38.667,Bee Run,304.765.2816,WV,Sutton
-82.345,38.308,Beech Fork State Park,304.522.0303,WV,Barboursville
-80.876,37.573,Bertha - Bluestone WMA,304.466.3398,WV,Hinton
-79.238,38.89,Big Bend,304.478.3251/304.636.1800,WV,Cabins
-80.524,38.296,Big Rock,304.846.2695/304.636.1800,WV,Richwood
-79.853,38.27,Bird Run,304.799.4334/304.636.1800,WV,Dunmore
-80.49,38.338,Bishop Knob,304.846.2695/304.636.1800,WV,Cowen
-79.495,39.112,Blackwater Falls State Park,304.259.5216,WV,Davis
-80.269,37.92,Blue Bend,304.799.4334/304.636.1800,WV,White Sulphur Springs
-81.129,37.516,Blue Jay - Camp Creek State Park,304.425.9481,WV,Camp Creek
-80.25,37.925,Blue Meadow, ,WV,White Sulphur Springs
-80.936,37.618,Bluestone State Park,304.466.2805,WV,White Oak
-79.2,38.595,Brandywine,/540.265.5100,WV,Brandywine
-80.908,37.539,Bull Falls - Bluestone WMA,304.466.3398,WV,Pipestem
-80.562,38.784,Bulltown,304.452.8006,WV,Burnsville
-82.387,37.981,Cabwaylingo State Forest,304.385.4255,WV,Wilsondale
-79.108,38.747,Camp Run,/540.265.5100,WV,Milam
-79.462,39.027,Canaan Valley Resort State Park,304.866.4121,WV,Davis
-80.846,37.495,Cedar Branch - Bluestone WMA,304.466.3398,WV,Oakvale
-80.862,38.882,Cedar Creek State Park,304.462.7158,WV,Cedarville
-79.77,39.678,Chestnut Ridge Regional Park,304.594.1773,WV,Bruceton Mills
-82.04,38.742,Chief Cornstalk WMA,304.675.4380,WV,Southside
-82.008,37.894,Chief Logan State Park,304.792.7125,WV,Logan
-80.851,39.424,Conaway Run State Lake,304.420.4550,WV,Middlebourne
-79.794,39.642,Coopers Rock State Forest,304.594.1561,WV,Bruceton Mills
-80.442,38.325,Cranberry,304.846.2695/304.636.1800,WV,Dyer
-80.215,38.288,Day Run,304.799.4334/304.636.1800,WV,Marlinton
-82.299,38.07,East Fork,304.849.5000,WV,East Lynn
-80.547,38.678,Gerald R. Freeman,304.765.7756,WV,Sutton
-80.028,39.318,Grafton City Park,304.265.1412,WV,Grafton
-81.072,37.853,Grandview/Glade - New River National Scenic River,304.465.0508,WV,Beaver
-80.354,37.753,Greenbrier State Forest,304.536.1944,WV,Caldwell
-81.744,37.614,Guyandotte,304.664.3229,WV,Gilbert
-80.194,38.312,Handley WMA, ,WV,Marlinton
-78.499,39.116,Hawk,540.984.4101/540.265.5100,WV,Intermont
-80.366,38.667,Holly River State Park,304.493.6353,WV,Hacker Valley
-79.602,39.18,Horseshoe,304.478.3251/304.636.1800,WV,Parsons
-80.82,37.53,Indian Mills - Bluestone WMA,304.466.3398,WV,Forest Hill
-79.705,38.579,Island,304.456.3335/304.636.1800,WV,Bartow
-81.659,38.247,Kanawha State Forest,304.558.3500,WV,Charleston
-80.808,37.513,Keatley - Bluestone WMA,304.466.3398,WV,Forest Hill
-81.098,38.869,Kittie Wilson,304.354.0032,WV,Grantsville
-80.072,38.655,Kumbrabow State Forest,304.335.2219,WV,Valley Head
-81.272,37.788,Lake Stephens Campground,304.934.5323,WV,Beckley
-79.692,38.74,Laurel Fork,304.456.3335/304.636.1800,WV,Glady
-80.636,39.493,Lewis Wetzel WMA, ,WV,Jacksonburg
-81.134,37.505,Mash Fork - Camp Creek State Park,304.425.9481,WV,Camp Creek
-80.005,38.012,Meadow Creek  - Lake Sherwood,304.799.4334/304.636.1800,WV,Eastern
-80.355,37.618,Moncove Lake State Park,304.772.3450,WV,Gap Mills
-81.307,39.248,Mountwood County Park,304.679.3611,WV,Walker
-80.858,37.531,Mouth of Indian Creek - Bluestone WMA,304.466.3398,WV,Forest Hill
-81.11,39.223,North Bend State Park,304.643.2391,WV,
-81.876,37.424,Panther State Forest,304.938.2252,WV,Panther
-81.882,37.457,Panther WMA,364.938.2252,WV,Panther
-80.007,38.009,Pine Run  - Lake Sherwood,304.799.4334/304.636.1800,WV,Eastern
-80.995,37.533,Pipestem Resort State Park,304.466.1800,WV,Lerona
-80.017,39.262,Pleasant Creek WMA, ,WV,Philippi
-81.208,37.947,Plum Orchard Lake WMA,304.469.9905,WV,Scarbro
-79.968,38.102,Pocahontas,304.799.4334/304.636.1800,WV,Marlinton
-79.316,39.032,Red Creek,304.478.3251/304.636.1800,WV,Davis
-80.623,38.845,Riffle Run,304.853.2371,WV,Burnsville
-80.182,38.113,Riverside - Watoga State Park,304.799.4087,WV,Marlinton
-79.128,39.446,Robert W. Craig - Jennings Randolph Lake,304.355.2346,WV,Elk Garden
-79.386,38.827,Seneca Shadows,304.478.3251/304.636.1800,WV,Seneca Rocks
-79.922,38.307,Seneca State Forest,304.799.6213,WV,Dunmore
-80.868,37.474,Shanklins Ferry - Bluestone WMA,304.466.3398,WV,Oakvale
-78.664,39.205,Short Mountain WMA, ,WV,Augusta
-78.155,39.508,Sleepy Creek WMA, ,WV,Hedgesville
-79.588,38.707,Spruce Knob Lake,304.478.3251/304.636.1800,WV,Whitmer
-81.826,38.389,St. Albans Roadside Park,304.722.4625,WV,St. Albans
-81.065,37.937,Stone Cliff - New River National Scenic River,304.465.0508,WV,Oak Hill
-80.498,38.942,Stonewall Jackson State Park,304.269.0523,WV,Walkersville
-79.774,38.917,Stuart,304.478.3251/304.636.1800,WV,Elkins
-80.445,38.249,Summit Lake,304.846.2695/304.636.1800,WV,Richwood
-80.231,38.342,Tea Creek,304.799.4334/304.636.1800,WV,Marlinton
-79.872,39.104,Teter Creek WMA, ,WV,Meadowville
-80.578,40.542,Tomlinson Run State Park,304.564.3651,WV,New Cumberland
-78.734,38.953,Trout Pond,540.984.4101/540.265.5100,WV,Lost City
-81.428,37.622,Twin Falls Resort State Park,304.294.4000,WV,Mullens
-79.994,39.308,Tygart Lake State Park,304.265.6148,WV,Grafton
-80.975,37.846,War Ridge - New River National Scenic River,304.465.0508,WV,Meadow Bridge
-80.012,38.007,West Shore - Lake Sherwood,304.799.4334/304.636.1800,WV,Eastern
-78.689,38.925,Wolf Gap,540.984.4101/540.265.5100,WV,Wardensville