Longitude,Latitude,Name,Phone,State,City
-85.214,32.977,Amity,334.499.2404,AL,Lanett
-85.963,33.621,Anniston Army Depot RV Military,941.962.7417,AL,Anniston
-87.924,34.427,Bear Creek Lakes,256.332.4392,AL,Russellville
-87.966,34.448,Bear Creek Lakes,256.332.4392,AL,Hodges
-87.422,31.806,Bells Landing,334.682.4244,AL,Camden
-87.877,32.552,Belmont Park,334.289.3540,AL,Belmont
-85.56,33.72,Big Oak Gap Hunter Camp,256.463.2272/334.832.4470,AL,Heflin
-88.196,31.738,Bladon Springs State Park,251.754.9207,AL,Bladon Springs
-87.902,30.714,Blakeley State Park,251.626.5581,AL,Spanish Fort
-87.38,33.437,Blue Creek,205)553.9373,AL,Windham Spring
-85.507,31.661,Blue Springs State Park,334.397.4875,AL,Clio
-85.014,32.186,Bluff Creek,334.000.0000,AL,Pittsview
-86.948,33.04,Brierfield Ironworks Historical Park,205.665.1856,AL,Montevallo
-87.272,34.298,Brushy Lake,205.489.5111/334.832.4470,AL,Moulton
-86.051,34.472,Bucks Pocket State Park,256.659.2000,AL,Grove Oak
-87.349,33.45,Burchfield Branch Park,205.497.9828,AL,Adger
-85.218,32.957,Burnt Village, ,AL,Lanett
-86.23,34.572,Cathedral Caverns State Park,256.728.8193,AL,Woodville
-85.031,31.003,Chattahoochee Park, ,AL,Gordon
-85.808,33.477,Cheaha State Park,800.610.5801,AL,Delta
-85.48,32.554,Chewacla State Park,334.887.5621,AL,Auburn
-88.108,30.779,Chickasabogue Park, ,AL,Mobile
-87.78,32.363,Chickasaw State Park,334.295.8230,AL,Gallion
-87.274,32.141,Chilatchee Creek,334.573.2562,AL,Alberta
-88.319,31.064,Citronelle Lakeview RV Park,251.866.9647,AL,Citronelle
-87.26,34.02,Clear Creek,205.489.5111/334.832.4470,AL,Jasper
-88.27,33.084,Cochrane,205.373.8806,AL,Aliceville
-88.085,34.854,Colbert County Rose Trail Park,256.360.2764,AL,Cherokee
-85.558,33.785,Coleman Lake Rec Area,256.463.2272/334.832.4470,AL,Jacksonville
-87.32,34.1,Corinth,205.489.5111/334.832.4470,AL,Double Springs
-87.556,31.615,Damsite West Bank,334.682.4244,AL,Gosport
-88.079,30.25,Dauphin Island City Park,251.861.2742,AL,Dauphin Island
-85.618,34.501,De Soto State Park,256.845.5075,AL,Fort Payne
-87.435,33.257,Deerlick,205.759.1591,AL,Tuscaloosa
-85.807,34.577,Dekalb County Public Lake,256.657.1300,AL,Sylvania
-86.558,34.575,Ditto Landing City Campground,256.883.9420,AL,Huntsville
-87.389,32.116,East Bank/Millers Ferry,334.682.4191,AL,Camden
-86.684,34.588,Easter Posey MWR Military - Redstone Arsenal,256.876.4868,AL,Valhermoso Springs
-87.966,34.448,Elliot Branch - Bear Creek  Auth,256.332.4392,AL,Hodges
-87.115,32.164,Elm Bluff - William Dannelly Reservoir,334.682.4244,AL,Camden
-85.716,31.409,Engineer Beach RV Military - Fort Rucker,334.255.4234,AL,Ozark
-86.318,30.998,Florala State Park,334.858.6425,AL,Florala
-87.879,32.634,Forkland/McConnico Creek,334.289.5530,AL,Demopolis
-86.252,32.508,Fort Toulouse/Jackson Park,334.567.3002,AL,Montgomery
-87.867,32.515,Foscue,334.289.5535,AL,Demopolis
-86.281,31.346,Frank Jackson State Park,334.493.6988,AL,Opp
-86.083,34.586,Goose Pond Colony,256.259.2884,AL,Scottsboro
-87.65,30.268,Gulf State Park,251.948.6353,AL,Gulf Shores
-86.482,32.36,Gunter Hill,334.872.9554,AL,Montgomery
-87.469,31.725,Haines Island,334.682.4244,AL,Camden
-85.113,31.644,Hardridge Creek,334.585.5945,AL,Ft Gaines GA
-87.43,33.254,Holt Lake,205.553.9373,AL,Cottondale
-86.853,33.338,Hoover RV Park,205.739.7400,AL,Hoover
-87.966,34.382,Horseshoe Bend - Bear Creek Lakes,256.332.4392,AL,Hodges
-87.297,34.119,Houston,205.489.5111/334.832.4470,AL,Houston
-85.373,31.192,Houston County Center,334.792.5730,AL,Dothan
-87.55,31.622,Isaac Creek,251.282.4254,AL,Camden
-86.017,34.639,Jackson County Park,256.574.4719,AL,Scottsboro
-87.807,32.81,Jennings Ferry,205.372.1217,AL,Akron
-87.38,34.793,Joe Wheeler State Park,256.247.5466,AL,Rogersville
-86.785,32.399,Jones Bluff, ,AL,
-85.874,33.461,Lake Chinnabee,256.362.2909/334.832.4470,AL,Oxford
-86.203,34.401,Lake Guntersville State Park,256.571.5444,AL,Guntersville
-87.677,33.296,Lake Lurleen State Park,205.339.1558,AL,Coker
-85.824,32.778,Lake Martin Military,256.825.6251,AL,Dadeville
-85.114,31.988,LakePoint State Park,334.687.8011,AL,Eufaula
-88.317,31.07,Lakeview RV City Park,334.866.9647,AL,Citronelle; Fr
-88.16,31.856,Lenoir Landing - Coffeeville Lake,251.754.9338,AL,Toxey
-87.744,32.587,Lock 5,334.289.3540,AL,Cedarville
-87.837,32.785,Lock 7, ,AL,Eutaw
-87.783,32.893,Lock 8, ,AL,Akron
-87.158,34.7,Mallard Creek,256-386-2560,AL,Decatur
-86.284,34.382,Marshall County Park, ,AL,Guntersville
-86.37,32.371,Maxwell/Gunter AFB Military,334.953.5161,AL,
-87.346,34.338,Mcdougle Hunter Camp,205.489.5111/334.832.4470,AL,Russellville
-87.681,34.784,McFarland Park,256.760.6416,AL,Florence
-87.931,30.67,Meaher State Park,251.626.5529,AL,Spanish Fort
-87.978,30.907,Mobile County Marina,251.574.2266,AL,Creola
-86.512,34.744,Monte Sano State Park,256. 534.375,AL,Huntsville
-86.022,34.042,Noccalula Falls Campground,256.543.7412,AL,Gadsden
-86.718,33.353,Oak Mountain State Park,205.620.2520,AL,Pelham
-88.032,31.574,Old Lock 1 - Coffeeville Lake,251.754.9338,AL,Coffeeville
-85.117,31.276,Omussee Creek County Rec Area, ,AL,
-86.55,31.09,Open Pond Recreation Area,334.222.2555/334.832.4470,AL,Lockhart
-86.991,32.598,Paul M Grist State Park,334.872.5846,AL,Selma
-87.44,32.884,Payne Lake East Side,205.926.9765/334.832.4470,AL,Duncanville
-87.446,32.881,Payne Lake Spillway,205.926.9765/334.832.4470,AL,Duncanville
-87.444,32.889,Payne Lake West Side,205.926.9765/334.832.4470,AL,Duncanville
-88.304,33.235,Pickensville,205.373.6328,AL,Carrollton
-85.604,33.725,Pine Glen,256.463.2272/334.832.4470,AL,Heflin
-87.987,34.392,Piney Point, ,AL,Hodges
-86.938,34.574,Point Mallard City Campground, ,AL,Decatur
-86.77,32.338,Prairie Creek,334.418.4919,AL,Lowndesboro
-86.64,34.693,Redstone Arsenal RV Military,256.876.4868,AL,Huntsville
-86.865,33.876,Rickwood Caverns State Park,205.647.9692,AL,Warrior
-87.249,32.057,Roland Cooper State Park,334.682.4838,AL,Camden
-87.844,32.555,Runaway Branch,334.289.3540,AL,Demopolis
-88.144,31.746,Service,251.754.9338,AL,
-86.442,34.895,Sharon Johnston Park,256.379.2868,AL,New Market
-86.678,31.903,Sherling Lake City Park,334.382.3638,AL,Greenville.
-87.573,31.665,Silver Creek,334.682.4244,AL,Gosport
-87.01,32.327,Six Mile Creek,334.872.9554,AL,Selma
-87.918,34.519,Slick Rock - Bear Creek Auth, ,AL,Russellville
-87.797,34.622,Small Point - Cane Creek Canyon, ,AL,Tuscumbia
-86.948,34.081,Smith Lake County Park,256.739.2916,AL,Cullman
-85.302,32.592,Spring Villa Campground,334.705.5552,AL,Opelika
-88.04,31.561,St. Stephens Historical Park,251.246.6790,AL,St. Stephens
-85.832,34.853,Stevenson Municipal Park - Guntersville Reservoir,256.437.3000,AL,Stevenson
-88.185,32.872,Sumter Rec Area,205.373.8705,AL,Livingston
-87.068,33.251,Tannehill Ironworks Historical State Park,205.477.5711,AL,McCalla
-85.842,33.444,Turnipseed Hunter Camp,256.362.2909/334.832.4470,AL,Oxford
-87.629,34.809,Veterans Memorial Park, ,AL,Florence
-85.147,31.777,White Oak Creek,334.687.3101,AL,Eufaula
-87.907,34.417,Williams Hollow,256.332.4392,AL,Spruce Pine
-87.63,34.788,Wilson Dam - Lower Rockpile,800.882.5263,AL,Muscle Shoals-
-85.925,32.854,Wind Creek State Park,256.329.0845,AL,Alexander City
-93.879,34.373,Albert Pike,870.356.4186/501.321.5202,AR,Langley
-93.861,33.62,Allens Ferry at Little River,870.777.6164,AR,Fulton
-93.245,34.259,Alpine Ridge - De Gray Lake,870.246.5501,AR,Arkadelphia
-93.192,34.274,Arlie Moore - De Gray Lake,870.246.5501,AR,Arkadelphia
-93.801,34.245,Arrowhead Point, ,AR,Kirby
-93.822,35.468,Aux Arc,479.667.1100,AR,Ozark
-93.383,34.637,Avant - Lake Ouachita, ,AR,Jessieville
-94.013,34.391,Bard Springs,870.356.4186/501.321.5202,AR,Athens
-92.249,36.019,Barkshed,870.269.3228/479.964.7200,AR,Mountain View
-92.944,35.524,Bayou Bluff,870.269.3228/479.964.7200,AR,Jerusalem
-93.668,34.237,Bear Creek, ,AR,Kirby
-93.936,33.706,Beards Bluff - Millwood Lake,870.898.3343,AR,Ashdown
-93.944,33.698,Beards Lake - Millwood Lake,870.898.3343,AR,Ashdown
-93.767,36.474,Beaver Town Park, ,AR,Beaver
-90.697,34.711,Beech Point,870.295.5278/479.964.7200,AR,Marianna
-93.564,36.36,Berryville RV Park,870.423.3704,AR,Berryville
-92.237,36.386,Bidwell Point - Norfolk Lake,870.467.5375,AR,Mountain Home
-93.812,34.685,Big Brushy,479.394.5595/501.321.5202,AR,Pencil Bluff
-94.243,34.222,Big Coon Creek - Gillham Lake,870.584.4161,AR,Wickes
-93.414,34.606,Big Fir, ,AR,Mount Ida
-92.177,35.974,Blanchard Springs,870.269.3228/479.964.7200,AR,Fifty Six
-94.093,34.196,Blue Ridge - Dierks Lake,870.286.2346,AR,Dierks
-93.916,35.14,Booneville Municipal Park,479.675.3811,AR,Booneville
-93.263,34.58,Brady Mountain - Lake Ouachita,501.767.2108,AR,Hot Springs
-92.808,35.49,Brock Creek,870.269.3228/479.964.7200,AR,Jerusalem
-92.794,36.488,Buck Creek - Bull Shoals Lake,417.785.4313,AR,Protem
-93.731,34.179,Buckhorn - Lake Greeson, ,AR,Murfreesboro
-93.342,34.613,Buckville - Lake Ouachita, ,AR,Avant
-92.557,36.073,Buffalo Point - Buffalo National River,870.449.4311,AR,Yellville
-92.591,36.356,Bull Shoals State Park,870.445.3629,AR,Bull Shoals
-92.314,34.797,Burns Park,501.771.0702,AR,
-93.181,34.27,Caddo Drive - De Gray Lake,870.246.5501,AR,Arkadelphia
-93.646,35.176,Cameron Bluff, ,AR,Paris
-92.285,34.831,Camp Robinson RV Military,501.212.5100,AR,
-93.503,35.388,Cane Creek - Lake Dardanelle, ,AR,Scranton
-91.833,33.933,Cane Creek State park,870.628.4714,AR,Star City
-93.239,34.962,Carter Cove,479.272.4983,AR,Plainview
-93.042,35.984,Carver - Buffalo National River,870.439.2502,AR,Hasty
-93.286,34.663,Cedar Fourche - Lake Ouachita, ,AR,
-93.08,34.535,Cedar Glades Park,501.627.2826,AR,Hot Springs
-94.049,35.286,Charleston Lake, ,AR,Charleston
-93.383,34.517,Charlton,870.356.4186/501.321.5202,AR,Crystal Springs
-92.787,35.128,Cherokee, ,AR,Morrilton
-92.076,35.555,Cherokee - Greers Ferry Lake,501.362.2416,AR,Greers Ferry
-91.225,33.281,Chicot County RV Park,870.265.3500,AR,Lake Village
-92.382,35.536,Choctaw - Greers Ferry Lake,501.745.8320,AR,Heber Springs
-93.946,35.463,Citadel Bluff, ,AR,Cecil
-94.167,35.437,Clear Creek,501.632.4882,AR,Alma
-94.223,34.318,Cossatot Falls - Cossatot River State Park,870.385.2201,AR,Wickes
-94.235,34.215,Cossatot Reefs - Gillham Lake,870.386.7261,AR,Gillham
-93.966,33.791,Cottonshed Landing - Millwood Lake,870.898.3343,AR,Mineral Springs
-93.185,34.963,County Line,479.272.4945,AR,Plainview
-92.156,35.477,Cove Creek - Greers Ferry Lake,501.362.2416,AR,Heber Springs
-93.622,35.223,Cove Lake  Complex,479.963.3076/479.964.7200,AR,Paris
-93.669,34.175,Cowhide Cove - Lake Greeson,870.285.2151,AR,Kirby
-90.7,35.777,Craighead Forest Park,870.933.4604,AR,Jonesboro
-92.32,36.406,Cranfield - Norfolk Lake,870.492.4191,AR,Mountain Home
-93.676,34.041,Crater of Diamonds State Park,870.285.3113,AR,Murfreesboro
-93.287,36.484,Cricket Creek,870.426.3331,AR,Omaha
-92.095,33.144,Crossett RV Park,870.364.6136,AR,Crossett
-90.664,36.044,Crowleys Ridge State Park,870. 573.6751,AR,Paragould
-93.639,34.479,Crystal,870.356.4186/501.321.5202,AR,Norman
-93.357,34.542,Crystal Springs - Lake Ouachita,501.767.2108,AR,Hot Springs
-93.74,34.233,Daisy State Park,870.398.4487,AR,Kirby
-93.712,34.145,Dam Area - Lake Greeson,870.285.2151,AR,Murfreesboro
-92.596,36.382,Dam Site - Bull Shoals Lake,870.445.7166,AR,Bull Shoals
-92.009,35.527,Dam Site - Greers Ferry Lake,501.362.5233,AR,Heber Springs
-93.848,36.433,Dam Site Lake  - Beaver Lake,479.636.1210,AR,Eureka
-93.848,36.419,Dam Site River - Beaver Lake,479.253.9865,AR,Eureka
-93.146,34.247,DeGray Lake State Park,501 865.2801,AR,Bismarck
-93.275,35.297,Delaware Park, ,AR,Dardanelle
-93.489,34.547,Denby Point - Lake Ouachita,501.767.2108,AR,Mount Ida
-94.25,35.782,Devils Den State Park,479.761.3325,AR,West Fork
-92.177,35.584,Devils Fork - Greers Ferry Lake,501.825.8618,AR,Greers Ferry
-92.262,34.752,Downtown Riverside RV Park,501.340.5312,AR,
-93.633,34.644,Dragover,479.394.5595/501.321.5202,AR,Pencil Bluff
-93.435,35.341,Dublin Park, ,AR,Scranton
-93.185,34.256,Edgewood - De Gray Lake,870.246.5501,AR,Arkadelphia
-93.189,36.054,Erbie - Buffalo National River,870.439.2502,AR,Jasper
-93.609,33.66,Fair City RV Park,870.777.6701,AR,Hope
-92.295,35.571,Fairfield Bay RV Campground,501.884.6029,AR,Fairfield Bay
-93.094,35.738,Fairview,870.446.5122/479.964.7200,AR,Jasper
-94.306,35.312,Fort Chaffee RV Military,479.484.2252,AR,Fort Smith
-94.006,33.471,Four States Fairgrounds RV,870.773.2941,AR,Texarkana
-93.66,34.627,Fulton Branch,870.356.4186/501.321.5202,AR,Mt. Ida
-92.221,36.421,Gamaliel - Norfolk Lake,870.467.5680,AR,Gamaliel
-92.267,36.288,Georges Cove, ,AR,Mountain Home
-92.125,33.06,Grand Marais County Park,870.943.2930,AR,Felsenthal
-93.036,34.525,Gulpha Gorge - Hot Springs National Park,501.620.6715,AR,Hot Springs
-92.212,35.994,Gunner Pool,870.269.3228/479.964.7200,AR,Fifty Six
-91.483,36.314,Hardy Camper Park,870-856-2356,AR,Hardy
-93.255,35.677,Haw Creek Falls,870.269.3228/479.964.7200,AR,Pelsor
-92.076,35.501,Heber Springs - Greers Ferry Lake,501.250.0485,AR,Heber Springs
-92.233,36.372,Henderson - Norfolk Lake,870.488.5282,AR,Mountain Home
-93.77,33.498,Hervey Access Camping,870.774.1501,AR,Hervey
-94.031,36.241,Hickory Creek - Beaver Lake,479.750.2943,AR,Springdale
-92.774,36.491,Highway 125 - Bull Shoals Lake,870.436.5711,AR,Yellville
-93.541,34.626,Highway 27 - Lake Ouachita, ,AR,Story
-92.15,35.61,Hill Creek - Greers Ferry Lake,870.948.2419,AR,Greers Ferry
-93.641,35.568,Horsehead Lake,479.754.2864/479.964.7200,AR,Clarksville
-94.024,36.287,Horseshoe Bend - Beaver Lake,479.925.2561,AR,Rogers
-94.094,34.14,Horseshoe Bend - Dierks Lake,870.286.2346,AR,Lockesburg
-93.891,36.422,Indian Creek - Beaver Lake,479.636.1210,AR,Gateway
-93.126,34.227,Iron Mountain - De Gray Lake,870.246.5501,AR,Arkadelphia
-93.073,34.761,Iron Springs,501.984.5313/501.321.5202,AR,Jessieville
-93.373,34.686,Irons Fork - Lake Ouachita, ,AR,Story
-93.845,35.035,Jack Creek,479.637.4174/501.321.5202,AR,Booneville
-91.316,35.637,Jacksonport State Park,870.523.2143,AR,Newport
-94.102,34.155,Jefferson Ridge - Dierks Lake,870.286.2346,AR,Dierks
-91.994,35.511,John F Kennedy - Greers Ferry Lake,501.250.0481,AR,Heber Springs
-93.443,34.582,Joplin - Lake Ouachita,501.767.2108,AR,Mount Ida
-92.194,36.269,Jordan - Norfolk Lake,870.499.7223,AR,Salesville
-93.696,34.233,Kirby Landing - Lake Greeson,870.285.2151,AR,Kirby
-93.863,35.016,Knoppers Ford,479.637.4174/501.321.5202,AR,Booneville
-92.919,34.437,Lake Catherine State Park,501.844.4176,AR,Hot Springs
-91.153,36.068,Lake Charles State Park,870.878.6595,AR,Powhatan
-91.197,33.37,Lake Chicot State Park,870.265.5480,AR,Lake Village
-93.213,35.249,Lake Dardanelle State Park,479.967.5516,AR,Russellville
-90.716,35.972,Lake Frierson State Park,501.767.9366,AR,Jonesboro
-94.159,35.649,Lake Ft. Smith State Park,479.369.2469,AR,Mountainburg
-93.76,36.435,Lake Leatherwood City Park,479.253.7921,AR,Eureka Springs
-93.168,34.61,Lake Ouachita State Park,501.767.9366,AR,Mountain Pine
-90.688,35.534,Lake Poinsett State Park,870.578.2064,AR,Harrisburg
-92.82,34.868,Lake Sylvia,501.984.5313/501.321.5202,AR,Perryville
-94.37,36.092,Lake Wedington Rec. Area,479.667.2191/479.964.7200,AR,Fayettville
-92.549,36.373,Lakeview - Bull Shoals Lake,870.431.8116,AR,Mountain Home
-93.707,34.187,Laurel Creek - Lake Greeson, ,AR,Kirby
-92.922,36.473,Lead Hill - Bull Shoals Lake,870.422.7555,AR,Lead Hill
-94.379,35.447,Lee Creek Public Use Area, ,AR,Van Buren
-93.229,34.667,Lena Landing - Lake Ouachita,501.767.2101,AR,Hot Springs
-94.248,34.232,Little Coon Creek - Gillham Lake,870.584.4161,AR,Wickes
-93.473,34.63,Little Fir - Lake Ouachita,501.767.2101,AR,Mount Ida
-94.269,34.87,Little Pines,479.637.4174/501.321.5202,AR,Waldron
-92.163,34.899,Little Rock AFB Military,501.987.3365,AR,
-93.182,33.349,Logoly State Park,870.695.3561,AR,McNeil
-90.696,34.715,Lone Pine,870.295.5278/479.964.7200,AR,Marianna
-93.159,35.549,Long Pool,870.269.3228/479.964.7200,AR,Dover
-93.896,36.41,Lost Bridge North - Beaver Lake,479.359.3312,AR,Rogers
-93.903,36.397,Lost Bridge South - Beaver Lake,479.359.3755,AR,Rogers
-93.388,36.002,Lost Valley - Buffalo National River,870.439.2502,AR,Ponca
-93.807,35.155,Magazine Municipal RV Park,479.969.8555,AR,Magazine
-90.688,34.705,Maple Flat,870.295.5278/479.964.7200,AR,Jeffersonville
-92.438,34.831,Maumelle,501.868.9477,AR,Little Rock
-91.266,34.032,Merrisach Lake Park - Merrisach Lake,870.548.2291,AR,Dumas
-92.218,35.582,Mill Creek - Greers Ferry Lake,501.362.2416,AR,Bee Branch
-93.996,34.731,Mill Creek Family Camp,501.362.2416,AR,Y City
-94,33.681,Millwood State Park,870.898.2800,AR,Ashdown
-92.347,33.301,Moro Bay State Park,870.463.8555,AR,Jersey
-93.619,35.174,Mount Magazine State Park,479.963.8502,AR,Havana
-93.247,35.219,Mount Nebo State Park,479.229.3655,AR,Dardanelle
-92.198,35.563,Narrows - Greers Ferry Lake,501.825.7602,AR,Greers Ferry
-93.863,33.949,Nashville City Park,870.845.7405,AR,Nashville
-91.31,33.988,Notrebes Bend,870.548.2291,AR,Gillett
-94.388,34.1,Oak Grove,870.584.4161,AR,DeQueen
-92.628,36.444,Oakland - Bull Shoals Lake,870.431.5744,AR,Mountain Home
-91.057,36.156,Old Davidsonville State Park,870.892.4708,AR,Pocahontas
-92.018,35.538,Old Highway 25 - Greers Ferry Lake,501.250.0483,AR,Heber Springs
-92.462,33.3,Old Lock and Dam 8, ,AR,El Dorado
-93.157,35.247,Old Post Road - Lake Dardanelle,479.968.7962,AR,Dardanelle
-93.653,35.101,Outlet Area - Blue Mountain Lake,479.947.2101,AR,Waveland
-93.205,34.239,Ozan Point - De Gray Lake,870.246.5501,AR,Bismarck
-93.16,36.063,Ozark - Buffalo National River,870.439.2502,AR,Jasper
-92.647,36.438,Ozark Isle - Bull Shoals Lake,870.431.5744,AR,Oakland
-93.448,35.671,Ozone,479.754.2864/479.964.7200,AR,Clarksville
-92.259,36.377,Panther Bay - Norfolk Lake,870.492.4544,AR,Mountain Home
-94.006,33.783,Paraloma Landing - Millwood Lake,870.898.3343,AR,Mineral Springs
-93.735,34.157,Parker Creek - Lake Greeson,870.285.2151,AR,Murfreesboro
-91.359,33.99,Pendleton Bend,870.548.2291,AR,Dumas
-92.951,35.115,Petit Jean State Park,501.727.5441,AR,Morrilton
-93.729,34.169,Pikeville - Lake Greeson, ,AR,Murfreesboro
-92.099,34.295,Pine Bluff Aresenal Military,870.540.3778,AR,White Hall
-94.4,34.103,Pine Ridge,870.642.6111,AR,DeQueen
-93.317,35.398,Piney Bay - Lake Dardanelle,479.885.3029,AR,Russelville
-90.971,36.254,Pocahontas City Park,870.892.8896,AR,Pocahontas
-93.29,34.282,Point Cedar - De Gray Lake,870.246.5501,AR,Bismarck
-92.772,35.145,Point Remove Park, ,AR,Morrilton
-92.565,36.39,Point Return City Park,870.445.4775,AR,Bull Shoals
-94.053,36.355,Prairie Creek - Beaver Lake,479.925.3957,AR,Rogers
-93.165,34.957,Quarry Cove,501.272.4233,AR,Plainview
-92.242,36.255,Quarry Cove - Norfolk Lake,479.272.4233,AR,
-94.372,34.686,Queen Wilhelmina State Park,479.394.2863,AR,Mena
-93.338,34.617,Rabbit Tail - Lake Ouachita, ,AR,Avant
-90.285,36.257,Rector City Park, ,AR,Rector
-93.786,35.682,Redding,479.754.2864/479.964.7200,AR,Ozark
-92.934,35.797,Richland Creek,870.446.5122/479.964.7200,AR,Pelsor
-91.737,34.165,Rising Star,870.534.0451,AR,Grady
-93.625,34.64,River Bluff,870.356.4186/501.321.5202,AR,Mount Ida
-94.071,35.444,River Ridge - Ozark Lake,479.968.5008,AR,Cecil
-93.158,34.951,River Road,479.272.4835,AR,Ola
-93.963,33.692,River Run East - Millwood Lake,870.898.3343,AR,Ashdown
-93.967,33.691,River Run West - Millwood Lake,870.898.3343,AR,Ashdown
-91.314,34.693,Riverfront RV Park,870.747.5414,AR,Clarendon
-93.173,35.247,Riverview - Lake Dardanelle, ,AR,Dardanelle
-92.241,36.354,Robinson Point - Norfolk Lake,870.492.6853,AR,Mountain Home
-93.759,34.209,Rock Creek - Lake Greeson,870.285.2151,AR,Kirby
-93.934,36.342,Rocky Branch - Beaver Lake,501.925.2526,AR,Rogers
-93.697,34.612,Rocky Shoals,870.356.4186/501.321.5202,AR,Mount Ida
-92.548,36.125,Rush Landing - Buffalo National River,870.439.2502,AR,Yellville
-94.236,34.322,Sand Bar Bridge - Cossatot River State Park,870.385.2201,AR,Umpire
-91.985,34.256,Saracen Trace RV Park,870.534.0711,AR,Pine Bluff
-93.92,33.739,Saratoga Landing - Millwood Lake,870.898.3343,AR,Saratoga
-93.759,34.236,Self Creek - Lake Greeson,870.285.2151,AR,Daisy
-92.785,35.124,Sequoya Park, ,AR,Morrilton
-94.024,34.37,Shady Lake,479.394.5595/501.321.5202,AR,Athens
-92.151,35.54,Shiloh - Greers Ferry Lake,501.825.8619,AR,Greers Ferry
-93.831,34.608,Shirley Creek,479.394.5595/501.321.5202,AR,Oden
-93.43,35.309,Shoal Bay - Lake Dardanelle,479.938.7335,AR,Dardanelle
-93.96,35.641,Shores Lake,479.667.2191/479.964.7200,AR,Mulberry
-93.27,34.287,Shouse Ford - De Gray Lake,870.246.5501,AR,Bismarck
-93.687,34.874,South Fourche,501.984.5313/501.321.5202,AR,Bluffton
-93.479,35.424,Spadra - Lake Dardanelle,501.754.6438,AR,Clarksville
-94.298,35.343,Spring Hill,479.452.4598,AR,Van Buren
-93.425,35.15,Spring Lake,479.963.3076/479.964.7200,AR,Belleville
-93.825,34.239,Star of the West, ,AR,Kirby
-93.878,36.392,Starkey - Beaver Lake,479.636.1210,AR,Eureka Springs
-93.336,36.039,Steel Creek - Buffalo National River,870.439.2502,AR,Ponca
-93.192,34.568,Stephens - Lake Ouachita,501.767.2101,AR,Hot Springs
-90.613,34.6,Storm Creek Lake,870.295.5278/479.964.7200,AR,West Helena
-92.272,35.543,Sugar Loaf - Greers Ferry Lake,501.654.2267,AR,Choctaw
-93.012,35.169,Sweeden Island - Lake Dardanelle,501.968.5008,AR,Atkins
-92.114,34.462,Tar Camp,501.397.5101,AR,Redfield
-92.544,35.078,Toad Suck Ferry,501.759.2005,AR,Conway
-93.47,34.569,Tompkins Bend - Lake Ouachita,501.767.2108,AR,Mount Ida
-91.836,34.212,Trulock - Arkansas River,870.534.0451,AR,Pine Bluff
-93.008,36.475,Tucker Hollow - Bull Shoals Lake,870.436.5622,AR,Lead Hill
-93.511,34.55,Twin Creek - Lake Ouachita,501.767.2101,AR,Mount Ida
-92.761,35.987,Tyler Bend - Buffalo National River,870.439.2502,AR,St Joe
-90.727,35.171,Village Creek State Park,870.238.9406,AR,Wynne
-94.063,35.486,Vine Prairie,501.997.8122,AR,Mulberry
-94.016,36.219,War Eagle - Beaver Lake,479.636.1210,AR,Springdale
-93.531,34.65,Washita - Lake Ouachita, ,AR,Story
-93.658,35.107,Waveland - Blue Mountain Lake,479.947.2102,AR,Waveland
-94.059,33.761,White Cliffs - Millwood Lake,870.898.3343,AR,Mineral Springs
-93.117,33.689,White Oak Lake State Park,870.685.2748,AR,Bluff City
-93.957,35.691,White Rock,479.667.2191/479.964.7200,AR,Mulberry
-91.309,33.979,Wilbur D Mills,870.548.2291,AR,Dumas
-92.138,34.701,Willow Beach,501.961.1332,AR,Scott
-93.733,36.155,Withrow Springs State Park,479.559.2593,AR,Huntsville
-93.633,35.674,Wolf Pen,479.754.2864/479.964.7200,AR,Oark
-92.175,36.295,Woods Pt, ,AR,Mountain Home
-92.285,35.281,Woolly Hollow State Park,501.679.2098,AR,Greenbrier
-82.146,27.781,Alafia River State Park,813.672.5320,FL,Lithia
-81.578,29.079,Alexander Springs,352.669.3153/850.523.8500,FL,Altoona
-81.286,29.881,Anastasia State Park,904.461.2033,FL,Saint Augustin
-81.447,27.705,Arbuckle - Lake Wales Ridge SF,863.635.7801,FL,Frostproof
-81.36,27.688,Avon Park AF Range  Military,863.452.4254,FL,Avon Park
-81.274,24.66,Bahia Honda State Park,305.872.2353,FL,Big Pine Key
-81.267,26.226,Bear Island - Big Cypress WMA, ,FL,Immokalee
-80.708,26.7,Belle Glade Marina Campground,561.996.6322,FL,Belle Glade
-81.784,28.985,Big Bass,352.669.3153/850.523.8500,FL,Umatilla
-87.404,30.322,Big Lagoon State Park,850.492.1595,FL,Pensacola
-81.756,29.051,Big Scrub,352.669.3153/850.523.8500,FL,Umatilla
-86.883,30.708,Blackwater River State Park,850.983.5363,FL,Milton
-87.416,30.385,Blue Angel Naval Military - Pensacola NAS,850.453.9435,FL,Pensacola
-81.334,28.952,Blue Spring State Park,850.492.1595,FL,Orange City
-81.652,29.098,Buck Lake,352.669.3153/850.523.8500,FL,Altoona
-81.434,29.423,Bull Creek County Campground,386.313.4020,FL,Bunnell
-81.23,25.891,Burns Lake - Big Cypress National Preserve,239.695.1201,FL,Ochopee
-84.988,30.277,Camel Lake,850.643.2282/850.523.8500,FL,Bristol
-81.989,29.954,Camp Blanding RV Military, ,FL,Starke
-80.321,26.004,CB Smith Park, ,FL,Pembroke Pines
-82.576,28.715,Chassahowitzka,352.382.2200,FL,Homosassa
-84.853,30.701,Chattahoochee City Park,850.663.8000,FL,Chattahoochee
-81.505,28.625,Clarcona Horse Park,407.886.6255,FL,Apopka
-81.551,28.979,Clearwater Lake,352.669.3153/850.523.8500,FL,Paisley
-84.482,30.454,Coe Landing,850.350.9560,FL,Tallahassee
-81.59,25.992,Collier - Seminole State Park,239.394.3397,FL,Naples
-82.487,27.827,Coons Creek Military - MacDill AFB, ,FL,Tampa
-85.073,30.052,Cotton Landing,850.643.2282,FL,Sumatra
-82.206,28.565,Crooked River - Withlacoochee State Forest,352.754.6896,FL,Ridge Manor
-80.983,24.743,Curry Hammock State Park,305.289.2690,FL,Marathon
-82.211,28.571,Cypress Glen - Withlacoochee State Forest,352.754.6896,FL,Ridge Manor
-85.2,30.142,Dead Lakes State Rec Area,850.639.2702,FL,Wewahitchka
-86.499,30.411,Destin Army Infantry Center Military,850.837.6423,FL,Destin
-80.504,27.817,Donald MacDonald Campgrounds,772.589.0087,FL,Sebastian
-84.742,29.722,Dr. Julian G. Bruce State Park,850.927.2111,FL,Appalachicola
-82.466,27.739,E G Simmons County Park,813.671.7655,FL,Ruskin
-80.16,26.172,Easterlin Park,954.357.5190,FL,
-82.16,27.928,Edward Medard,813.757.3802,FL,Plant City
-86.53,30.46,Eglin AFB Military,850.883.1243,FL,
-85.528,30.73,Falling Waters State Park,850.638.6130,FL,Chipley
-81.673,29.103,Farles Prairie,352.669.3153/850.523.8500,FL,Altoona
-81.267,29.67,Faver - Dykes State Park,904.794.0997,FL,St. Augustine
-81.319,26.938,Fisheating Creek Campground,863.675.5999,FL,Palmdale
-80.943,25.137,Flamingo - Everglades National Park,239.695.0124,FL,
-85.212,30.808,Florida Caverns State Park,850.482.9598,FL,Marianna
-81.918,29.269,Fore Lake,352.625.2520/850.523.8500,FL,Silver Springs
-81.434,30.668,Fort Clinch State Park,904.277.7274,FL,Fernandina Bea
-82.733,27.614,Fort Desoto County Park,727.893.9185,FL,Tierra Verde
-87.274,30.323,Fort Pickens - Gulf Islands National Seashore,850.934.2622,FL,Pensacola Beach
-86.432,30.497,Fred Gannon Rocky Bayou State Park,850.833.9144,FL,Niceville
-81.109,29.438,Gamble Rogers State Park,386.517.2086,FL,Flagler Beach
-83.093,30.439,Gibson,386.792.3098,FL,Jasper
-81.961,29.847,Gold Head Branch State Park,352.473.4701,FL,Keystone Heights
-81.927,29.29,Gores Landing County Park,352.671.8560,FL,Silver Springs
-82.94,29.78,Gornto Springs County Park,352.498.1239,FL,Bell
-86.157,30.329,Grayton Beach State Park,850.231.4210,FL,Santa Rosa Beach
-84.572,30.42,Hall Landing,850.350.9560,FL,Tallahassee
-81.404,30.372,Hanna City Park,904.249.4700,FL,Jacksonville
-82.951,29.674,Hart Springs,352.463.3444,FL,Fanning Springs
-80.961,28.607,Hatbill County Park,321.264.5037,FL,Christmas
-86.447,30.385,Henderson Beach State Park,850.837.7550,FL,Destin
-85.014,29.989,Hickory  Landing,850.643.2282/850.523.8500,FL,Sumatra
-84.497,30.462,High Bluff Landing - Lake Talquin State Forest,850.487.3766,FL,Tallahassee
-81.515,27.471,Highlands Hammock State Park,863.386.6094,FL,Sebring
-82.224,28.145,Hillsborough River State Park,813.987.6771,FL,Thonotosassa
-82.95,29.558,Hinton Landing County Park,352.498.1239,FL,Old Town
-84.654,30.082,Hitchcock Lake,850.643.2282,FL,Carrabelle
-82.239,28.619,Hog Island - Withlacoochee State Forest,352.754.6896,FL,Bushnell
-82.381,28.803,Holder Mine - Withlacoochee State Forest,352.754.6896,FL,Inverness
-81.361,28.973,Hontoon Island State Park,386.736.5309,FL,DeLand
-81.692,29.277,Hopkins Prairie,352.625.2520/850.523.8500,FL,Ocala
-83.293,29.44,Horseshoe Beach County Park, ,FL,Horseshoe Beach
-81.421,30.409,Huguenot City Park,904.251.3335,FL,Mayport
-86.697,30.409,Hurlburt Field Military,850.884.6939,FL,Hurlburt Field
-80.97,27.06,Indian Prairie Canal RA,863.946.0771,FL,Okeechobee
-81.682,30.22,Jacksonville NAS RV Military,904.542.5898,FL,Jacksonville
-80.595,28.406,Jetty Park,321.783.7111,FL,Cape Canaveral
-80.41,25.127,John Pennekamp - Coral Reef State Park,305.451.1202,FL,Key Largo
-80.101,27.003,Jonathan Dickinson State Park,772.546.2771,FL,Stuart
-81.71,29.182,Juniper Springs,352.625.2520/850.523.8500,FL,
-86.645,30.894,Karick Lake Lower - Blackwater River State Forest,850.957.6140,FL,Milton
-86.641,30.896,Karick Lake Upper  - Blackwater River State Forest,850.957.6140,FL,Milton
-81.502,28.757,Kelly,407.889.4179,FL,Apopka
-81.869,29.519,Kenwood Rec Area, ,FL,Interlachen
-81.023,27.539,Kissimmee Prairie State Park,863.462.5360,FL,Okeechobee
-81.815,26.431,Koreshan Historic State Park,239.992.0311,FL,Estero
-81.418,27.721,Lake Arbuckle Co Park,941.534.4340,FL,Frostproof
-81.786,29.431,Lake Delancy,352.625.2520/850.523.8500,FL,Fort Gates
-81.637,29.012,Lake Dorr,352.669.3153/850.523.8500,FL,Altoona
-81.866,29.252,Lake Eaton,352.625.2520/850.523.8500,FL,Silver Springs
-81.903,28.858,Lake Griffin State Rec Area,352.360.6760,FL,Fruitland Park
-81.38,27.969,Lake Kissimmee State Park,863.696.1112,FL,Lake Wales
-81.721,28.456,Lake Louisa State Park,352.394.3969,FL,Clermont
-82.349,27.475,Lake Manatee State Park,941.741.3028,FL,Bradenton
-81.322,28.841,Lake Monroe,386.668.3825,FL,Debary
-87.294,30.97,Lake Stone,850.256.5555,FL,Century
-80.405,25.602,Larry and Penny Thompson Park,305.232.1049,FL,Miami
-82.228,27.865,Lithia Springs,813.744.5572,FL,
-82.381,27.658,Little Manatee River State Park,813.671.5005,FL,Wimauma
-81.416,30.46,Little Talbot Island State Park,904.251.2320,FL,
-80.824,24.817,Long Key State Park,305.664.4815,FL,Layton
-80.647,25.417,Long Pine Key - Everglades National Park,800.436.7275,FL,
-80.47,27.872,Long Point,321.952.4532,FL,Melbourne Beach
-84.644,30.096,Mack,850.926.3561/850.523.8500,FL,Sopchoppy
-81.551,28.634,Magnolia County Park,850.235.1581,FL,Apopka
-80.615,28.238,Manatee Cove Military - Patrick AFB,321.494.4787,FL,
-80.783,28.504,Manatee Hammock Park,321.264.5083,FL,Titusville
-82.966,29.496,Manatee Springs State Park,352.493.6072,FL,Chiefland
-81.106,24.71,Marathon Military,305.535.4565,FL,Marathon
-80.36,26.127,Markham Park,954.389.2000,FL,Sunrise
-86.418,30.455,Mid Bay Shores Military,334.953.3509,FL,
-81.961,29.847,Mike Roess Gold Head State Park,352.473.4701,FL,Keystone Heights
-81.114,25.869,Monument Lake - Big Cypress National Preserve,239.695.1201,FL,Ochopee
-81.189,28.381,Moss/Split Oak,407.273.2327,FL,Orlando
-81.139,28.789,Mullet Lake County Park,407.788.0609,FL,Geneva
-82.355,28.756,Mutual Mine - Withlacoochee State Forest,352.754.6896,FL,Inverness
-82.315,27.24,Myakka River State Park,941.361.6511,FL,Sarasota
-84.499,30.051,Myron B. Hodge City Park, ,FL,Sopchoppy
-85.008,30.975,Neals Landing Park, ,FL,Sneads
-84.176,30.199,Newport County Park,850.925.4530,FL,
-87.314,30.343,Oak Grove Military - Pensacola NAS,850.452.2535,FL,Pensacola
-82.44,30.248,Ocean Pond,386.752.2577/850.523.8500,FL,Olustee
-84.503,30,Ochlockonee River State Park,850.962.2771,FL,Sopchoppy
-80.868,27.151,Okee-Tantie Campground and Marina,863.763.2622,FL,Okeechobee
-82.609,29.92,Oleno State Park,386.454.1853,FL,High Springs
-81.309,26.788,Ortona South,863.675.8400,FL,Labelle
-82.477,27.17,Oscar Scherer State Park,941.483.5956,FL,Osprey
-81.404,30.338,Osprey Cove Military - Mayport NS,904.270.7808,FL,Atlantic Beach
-82.941,29.642,Otter Springs County Park,352.463.0800,FL,Trenton
-80.668,26.824,Pahokee State Park, ,FL,Pahokee
-85.754,30.182,Panama City CSS Military,850.234.4402,FL,Panama City
-84.945,30.87,Parramore Landing,386.749.2721,FL,Sneads
-82.298,29.519,Paynes Prairie State Park,352.466.3397,FL,Micanopy
-81.401,30.394,Pelican Roost RV Military - Mayport NS,904.270.7808,FL,Jacksonville
-80.283,27.111,Phipps County Park,772.287.6565,FL,Stuart
-85.882,30.429,Pine Log State Forest,850.535.2888,FL,Ebro
-81.24,29.654,Princess Place Preserve,386.313.4020,FL,Palm Coast
-80.153,26.306,Quiet Waters Park,954.360.1315,FL,Deerfield Beach
-82.487,27.827,Raccoon Creek Military - MacDill AFB,813.840.6919,FL,Tampa
-82.422,29.088,Rainbow Springs State Park,352.465.8550,FL,Dunnellon
-85.613,30.095,Raptor Ranch - Tyndall AFB Military,850.283.2798,FL,Tyndall Afb
-82.201,28.573,River Jct - Withlacoochee State Forest,352.754.6896,FL,Ridge Manor
-86.433,30.496,Rocky Bayou State Park,850.833.9144,FL,Niceville
-81.801,29.521,Rodman Recreation Area,386. 326.2846,FL,Palatka
-82.295,29.042,Ross Prairie,352.732.2606,FL,
-81.886,28.056,Saddle Creek County Park,863.534.4340,FL,Lakeland
-81.732,29.357,Salt Springs,352.625.2520/850.523.8500,FL,Ocala
-82.094,29.106,Santos Rec Area State Park,352.369.2693,FL,Ocala
-80.306,27.382,Savannas Recreational Park,800.789.5776,FL,Fort Pierce
-80.446,27.856,Sebastian Inlet State Park,321.984.4852,FL,Vero Beach
-81.727,29.329,Shanty Pond Recreation Area,352.625.2520/850.523.8500,FL,Palatka
-83.063,29.209,Shell Mound County Park,352.543.6153,FL,Cedar Key
-83.202,29.398,Shired Creek County Park, ,FL,Cross City
-81.77,24.584,Sigsbee RV Military - Key West NAS,305.293.4432,FL,Key West
-84.407,30.406,Silver Lake, ,FL,Tallahassee
-82.218,28.576,Silver Lake  - Withlacoochee State Forest,352.754.6896,FL,Ridge Manor
-82.051,29.201,Silver River State Park,352.236.7148,FL,Ocala
-80.733,26.681,South Bay RV County Park,877.992.9915,FL,South Bay
-85.743,30.135,St. Andrews State Park,850.233.5140,FL,Panama City
-84.742,29.722,St. George Island State Park,850.927.2111,FL,Appalachicola
-85.395,29.75,St. Joseph Peninsula State Park,850.227.1327,FL,Port St Joe
-80.284,27.111,St. Lucie Lock,772.287.1382,FL,Stuart
-82.76,30.33,Stephen Foster State Park,386.397.2733,FL,White Springs
-83.166,30.378,Suwannee River State Park,386.362.2746,FL,Live Oak
-80.171,26.039,T.Y. Park, ,FL,Hollywood
-84.937,30.739,Three Rivers State Park,850.482.9006,FL,Sneads
-82.418,28.73,Tillis Hill  - Withlacoochee State Forest,352.754.6896,FL,Lecanto
-81.085,29.342,Tomoka State Park,386.676.4050,FL,Ormond Beach
-80.171,26.039,Topeekeegee Yugnee County Park,954.985.1980,FL,Hollywood
-86.3,30.375,Topsail Hill Preserve State Park,850.267.0299,FL,Santa Rosa Beach
-84.951,30.57,Torreya State Park,850.643.2674,FL,Bristol
-81.657,28.768,Trimble County Park, ,FL,Tangerine
-81.481,28.506,Turkey Lake City Park,407.299.5581,FL,Orlando
-81.693,26.724,W. P. Franklin,239.694.8770,FL,Alva
-81.463,28.709,Wekiwa Springs State Park,407.884 2008,FL,Orlando
-84.675,30.165,Whitehead,850.643.2282/850.523.8500,FL,Sumatra
-80.663,28.165,Wickham Park,321.255.4307,FL,Melbourne
-84.52,30.447,Williams Landing,850.350.9560,FL,Tallahassee
-82.12,28.343,Withlacoochee River Park,352.567.0264,FL,Dade City
-85.005,30.001,Wright Lake,850.643.2282/850.523.8500,FL,Bristol
-82.897,33.558,A.H. Stephens State Park,706.456.2602,GA,Crawfordville
-81.607,31.427,Altamaha County Park, ,GA,Brunswick
-84.251,34.554,Amicalola Falls State Park,800.864.7275,GA,Dawsonville
-84.134,32.196,Andersonville City Campground,229.924.2558,GA,
-83.737,34.778,Andrews Cove,809.782.3320/770.297.3000,GA,Helen
-83.801,32.82,Arrowhead County Park, ,GA,Macon
-84.087,34.21,Bald Ridge Creek,770.889.1591,GA,Cumming
-81.615,31.481,Barrington County Park,912.437.6657,GA,
-83.008,31.775,Ben Hill Landing County Park,229.426.5033,GA,Jacksonville
-82.513,33.615,Big Hart - Strom Thurmond Lake,706.595.8613,GA,Thomson
-83.402,34.918,Black Rock Mountain State Park,706.746.2141,GA,Mountain City
-85.095,32.729,Blanton Creek Park,706.643.7737,GA,Hamilton
-85.109,32.743,Blanton Creek Park,706.643.7737,GA,Fortson
-81.546,31.154,Blythe Island Regional Park,912.279.2812,GA,Brunswick
-82.589,33.979,Bobby Brown State Park,706. 213.2046,GA,Elberton
-83.892,34.689,Boggs Creek,809.782.3320/770.297.3000,GA,Cleveland
-83.952,34.339,Bolding Mill,770.534.6960,GA,
-82.627,33.973,Broad River - Strom Thurmond Lake,706.359.2053,GA,
-85.083,33.207,Brush Creek County Park,706.675.2267,GA,Franklin
-82.263,33.701,Bussey Point Wilderness Area, ,GA,Lincolnton
-83.618,32.835,Central City Park - State Fairgrounds,478.751.9280,GA,Macon
-84.048,34.248,Charleston County Park,843.795.7275,GA,Cumming
-84.972,33.426,Chattahoochee Bend State Park,770.254.7271,GA,Newnan
-83.97,34.184,Chestnut Ridge,770.967.6710,GA,Flowery Branch
-84.683,34.105,Clark Creek North - Allatoona Lake,678-721-6700,GA,Cartersville
-84.683,34.101,Clark Creek South - Allatoona Lake,678.721.6700,GA,Cartersville
-82.443,33.665,Clay Hill - Strom Thurmond Lake,706.359.7495,GA,
-83.776,32.829,Claystone County Park, ,GA,Macon
-85.49,34.816,Cloudland Canyon State Park,706.657.4050,GA,Rising Fawn
-84.704,33.546,Cochran Mill County Park, ,GA,Palmetto
-85.085,31.308,Coheelee Creek County Park, ,GA,Ft Gaines
-84.068,34.763,Cooper Creek,706.632.3031/770.297.3000,GA,Suches
-85.256,34.198,Coosa River County Park,706.234.5001,GA,Rome
-85.062,31.675,Cotton Hill,229.768.3061,GA,Fort Gaines
-84.639,34.982,Cottonwood Patch,706.638.1085/770.297.3000,GA,Epworth
-81.562,30.841,Crooked River State Park,912.882.5256,GA,St. Marys
-83.726,33.019,Dames Ferry County Park,478.994.7945,GA,Juliette
-84.14,34.74,Deep Hole,706.632.3031/770.297.3000,GA,Suches
-83.912,34.71,Desoto Falls,706.745.6928/770.297.3000,GA,Cleveland
-84.522,33.922,Dobbins Lakeside Military,678.655.4870,GA,Marietta
-83.975,34.674,Dockery Lake,706.745.6928/770.297.3000,GA,Suches
-84.622,34.61,Doll Mountain,706.276.4413,GA,Oakman
-83.929,34.312,Duckett Mill,770.532.9802,GA,
-81.55,30.772,Eagle Hammock RV Military - Kings Bay NSB,912.673.1161,GA,St. Marys
-84.594,30.901,Earl May Boat Basin,229.248.2010,GA,Bainbridge
-84.851,30.718,Eastbank - Lake Seminole,229.662.9273,GA,
-82.403,33.854,Elijah Clark State Park,706.359.3458,GA,Lincolnton
-84.815,32.839,F.D. Roosevelt State Park,706.663.4858,GA,Pine Mountain
-84.667,30.788,Faceville Landing - Lake Seminole, ,GA,Bainbridge
-82.371,31.94,Falling Rocks County Park,912.367.7731,GA,Baxley
-85.043,32.09,Florence Marina State Park,229.838.6870,GA,Omaha
-81.212,31.886,Fort McAllister State Park,912.727.2339,GA,Savannah
-84.694,34.761,Fort Mountain State Park,706.695.2621,GA,Chatsworth
-83.734,33.985,Fort Yargo State Park,770.867.3489,GA,Winder
-84.149,34.703,Frank Gross,706.632.3031/770.297.3000,GA,Blue Ridge
-84.72,34.172,Gatewood County Park,770.387.5163,GA,Cartersville
-82.756,31.509,General Coffee State Park,912.384.7082,GA,Douglas
-82.125,32.545,George L Smith State Park,478.763.2759,GA,Twin City
-83.774,34.967,Georgia Mountain Fair Campground,706.896.4191,GA,Hiawassee
-83.912,31.968,Georgia Veterans State Park,229.276.2371,GA,Cordele
-82.128,32.085,Gordonia-Alatamaha State Park,912.557.7744,GA,Reidsville
-83.239,30.657,Grassy Pond Military,229.559.5840,GA,Lake Park
-84.662,30.847,Hales Landing - Lake Seminole, ,GA,Bainbridge
-82.778,33.207,Hamburg State Park,478.552.2393,GA,Mitchell
-83.602,33.66,Hard Labor Creek State Park,706.557.3001,GA,Rutledge
-84.624,34.603,Harris Branch, ,GA,Oakman
-82.911,34.377,Hart State Park,706.376.8756,GA,Hartwell
-82.539,33.937,Hesters Ferry - Strom Thurmond Lake,706.359.2746,GA,Tignall
-84.672,34.894,Hickory Gap,706.638.1085/770.297.3000,GA,Crandall
-85.073,34.516,Hidden Creek, ,GA,Calhoun
-84.021,33.179,High Falls State Park,478.993.3053,GA,Jackson
-81.562,31.913,Holbrook Pond Military - Fort Stewart,912.435.8213,GA,Hinesville
-85.192,33.003,Holiday,706.884.6818,GA,West Point
-83.92,33.245,Indian Springs State Park,770.504.2277,GA,Jackson
-84.517,34.863,Jacks River Fields,706.638.1085/770.297.3000,GA,Epworth
-85.337,34.44,James H Sloppy Floyd State Park,706.857.0826,GA,Summerville
-83.844,33.989,James Shackleford County Park, ,GA,Auburn
-81.413,31.106,Jekyll Island County Park,912.635.3021,GA,Jekyll Island
-85.167,33.602,John Tanner State Park,770.830.2222,GA,Carrollton
-84.948,31.468,Kolomoki Mounds State Park,229.724.2150,GA,Blakely
-84.716,34.098,Lake Allatoona Military - Fort McPherson, ,GA,Cartersville
-83.78,34.955,Lake Chatuga,706.745.6928,GA,Hiawassee
-84.65,34.861,Lake Conasauga,706.638.1085/770.297.3000,GA,Crandall
-84.65,34.857,Lake Conasauga Overflow,706.638.1085/770.297.3000,GA,Chatsworth
-82.255,33.37,Lake Leitner Military,706.791.3317,GA,Harlem
-83.495,34.494,Lake Russell,809.782.3320/770.297.3000,GA,Mount Airy
-83.395,33.208,Lake Sinclair,706.485.3180/770.297.3000,GA,Eatonton
-83.97,34.739,Lake Winfield Scott,706.745.6928/770.297.3000,GA,Suches
-83.343,34.68,Lake Yonah County Park,706.782.4014,GA,Toccoa
-82.214,31.144,Laura S. Walker State Park,912.287.4900,GA,Waycross
-83.808,34.353,Laurel Park - Lake Lanier,770.535.8280,GA,Gainesville
-83.168,33.352,Lawrence Shoals,706.485.5494,GA,Eatonton
-82.885,32.092,Little Ocmulgee State Park,229.868.7474,GA,McRae
-81.185,31.988,Lotts Island Army Airfield RV Military - Hunter AAF,912.315.9554,GA,Savannah
-83.783,34.751,Low Gap Creek,809.782.3320/770.297.3000,GA,Helen
-84.689,34.181,Macedonia, ,GA,Carterville
-81.958,32.874,Magnolia Springs State Park,478.982.1660,GA,Millen
-84.034,31.553,Marine Albany RV Military,229.639.5246,GA,Albany
-84.952,33.447,McIntosh Reserve Park,770.830.5879,GA,Whitesburg
-84.722,34.192,McKaskey Creek - Allatoona Lake,678.721.6700,GA,Cartersville
-84.693,34.115,McKinney - Allatoona Lake,678.721.6700,GA,Cartersville
-82.867,34.417,Miltown,888.893.0678,GA,Hartwell
-82.385,33.643,Mistletoe State Park,706.541.0321,GA,Appling
-83.589,34.845,Moccasin Creek State Park,706.947.3194,GA,Clayton
-84.244,34.869,Morganton Point,706.632.3031/770.297.3000,GA,Morganton
-84.072,34.762,Mulky,706.632.3031/770.297.3000,GA,Morganton
-83.826,33.448,Newton Factory Shoals Rec Area,770.787.6309,GA,Covington
-83.291,33.721,Oconee River,706.485.3180/770.297.3000,GA,Watkinsville
-83.2,33.293,Oconee Springs County Park,706.485.8423,GA,Eatonton
-83.949,34.222,Old Federal,770.967.6757,GA,Flowery Branch
-84.713,34.09,Old Hwy 41 - Allatoona Lake,678.721.6700,GA,Acworth
-83.21,33.394,Old Salem,706.467.2850,GA,Greensboro
-84.138,31.617,Parks at Chehaw,229.430.5275,GA,Albany
-83.267,33.515,Parks Ferry,706.453.4505,GA,Greensboro
-83.259,31.701,Paulk City Park,229.426.5033,GA,Fitzgerald
-84.619,34.121,Payne - Allatoona Lake,678.721.6700,GA,Cartersville
-82.967,34.471,Paynes Creek,888.893.0678,GA,Hartwell
-82.261,33.66,Petersburg - Strom Thurmond Lake,706.541.9464,GA,Appling
-85.083,34.586,Pocket,706.638.1085/770.297.3000,GA,Armuchee
-82.315,33.689,Pointes West Military - Fort Gordon,706.541.1057,GA,Appling
-84.098,34.948,Poteete Creek,706.439.6103,GA,Blairsville
-85.156,33.024,Pyne Road Park,706.884.1414,GA,LaGrange
-85.156,32.922,R Shaefer Heard,706.645.2404,GA,West Point
-83.474,34.754,Rabun Beach,706.782.3322/770.297.3000,GA,Clarkesville
-82.476,33.629,Raysville - Strom Thurmond Lake,706.595.6759,GA,Thomson
-84.713,34.148,Red Top Mountain State Park,770.975.4226,GA,Cartersville
-83.54,31.161,Reed Bingham State Park,229.896.3551,GA,Adel
-82.767,34.181,Richard B. Russell State Park,706.213.2045,GA,Elberton
-82.264,33.677,Ridge Road - Strom Thurmond Lake, ,GA,Appling
-84.6,34.65,Ridgeway, ,GA,Ellijay
-83.904,34.288,River Forks County Park,770.531.3952,GA,Gainesville
-84.857,30.739,River Junction - Lake Seminole, ,GA,Chattahoochee- FL
-84.911,32.245,Riverbend County Park,706.989.9911,GA,Cusseta
-80.852,32.022,Rivers End City Park,912.786.5518,GA,Tybee Island
-84.759,34.531,Salacoa Creek Park,706.629.3490,GA,Ranger
-83.558,34.961,Sandy Bottoms Rec. Area,706.782.3322/770.297.3000,GA,Clayton
-83.264,34.928,Sarahs Creek,706.782.3322/770.297.3000,GA,Clayton
-84.077,34.18,Sawnee,770.887.0592,GA,Cumming
-81.549,30.721,Sea Camp - Cumberland Island Natl Seashore,(912) 882-4335,GA,St. Mary's
-83.501,34.753,Seed Campground,706.754.7979,GA,Lakemont
-84.879,30.805,Seminole State Park,229.861.3137,GA,Donalsonville
-84.037,34.21,Shady Grove,770.887.2067,GA,Cumming
-84.014,34.166,Shoal Creek,770.945.9541,GA,Buford
-81.053,31.948,Skidaway Island State Park,912.598.2300,GA,Savannah
-84.742,31.172,Spring Creek City Park,229.758.9929,GA,Colquitt
-82.822,34.441,Springfield,706.856.0300,GA,
-85.219,33.015,Stateline,706.882.5439,GA,
-82.361,30.827,Stephen C. Foster State Park,912.637.5274,GA,Fargo
-84.144,33.807,Stone Mountain Park Campground,770.498.5710,GA,Stone Mountain
-84.585,34.191,Sweetwater - Allatoona Lake,678.721.6700,GA,Cartersville
-83.4,34.74,Tallulah Gorge State Park,706.754.7970,GA,Tallulah Falls
-83.545,34.928,Tallulah River,706.782.3322/770.297.3000,GA,Clayton
-85.262,33.734,Tally Valley County Park,770.574.2076,GA,Tallapoosa
-83.553,34.954,Tate Branch,706.782.3322/770.297.3000,GA,Clayton
-84.138,31.617,The Parks at Chehaw City,229.430.5277.,GA,Albany
-83.358,34.594,Toccoa Falls College RV Park, ,GA,Toccoa Falls
-82.507,31.948,Towns Bluff County Park,912.379.9303,GA,Hazlehurst
-82.005,30.831,Traders Hill County Park,912.496.3412,GA,Folkston
-83.082,34.502,Tugaloo State Park,706.356.4362,GA,Lavonia
-84.959,32.306,Uchee Creek Military,706.545.4053,GA,Fort Mitchell
-83.722,34.724,Unicoi State Park,706.878.2201,GA,Helen
-83.784,34.79,Upper Chattahoochee River,809.782.3320/770.297.3000,GA,Helen
-84.679,34.203,Upper Stamp Creek - Allatoona Lake,678.721.6700,GA,Cartersville
-85.143,33.811,VFW County Park,770.646.8234,GA,Buchanan
-84.617,34.151,Victoria - Allatoona Lake,678.721.6700,GA,Cartersville
-83.159,34.299,Victoria Bryant State Park,706.245.6270,GA,Royston
-83.918,34.768,Vogel State Park,706.745.2628,GA,Blairsville
-83.963,34.335,War Hill, ,GA,Dawsonville
-83.567,32.593,Warner Robins AFB Military, ,GA,
-82.842,34.344,Watsadlers,888.893.0678,GA,Hartwell
-83.075,34.026,Watson Mill Bridge State Park,706.783.5349,GA,Comer
-85.183,33.022,Whitetail Ridge,706.884.8972,GA,LaGrange
-84.064,32.349,Whitewater Creek County Park,770.646.8234,GA,Oglethorpe
-83.619,34.828,Wildcat 1,706.782.3322/770.297.3000,GA,Clayton
-83.626,34.832,Wildcat 2,706.782.3322/770.297.3000,GA,Clayton
-82.289,33.639,Wildwood County Park,706.541.3984,GA,Appling
-82.414,33.646,Winfield - Strom Thurmond Lake,706.541.0147,GA,Appling
-84.641,34.627,Woodring Branch,706.276.6050,GA,Oakman
-84.721,34.09,World Famous Lake Military - Atlanta NAS, ,GA,Cartersville
-84.547,36.764,Alum Ford - Big South Fork Area,931.879.4869,KY,
-86.454,37.624,Axtel - Rough River Lake,270.257.2584,KY,Harned
-87.982,36.751,Bacon Creek - DFWR, ,KY,Cadiz
-86.096,36.889,Baileys Point - Barren River Lake,270.622.6959,KY,Bowling Green
-88.204,36.908,Barge Island - DFWR, ,KY,Benton
-86.062,36.854,Barren River Lake State Park,800.325.0057,KY,Lucas
-86.132,36.895,Barren River Tailwater,270)622.7732,KY,Scottsville
-86.027,36.93,Beaver Creek - Glasgow, ,KY,Bowling Green
-84.317,37.029,Bee Rock Rec Area,606.864.4163/859.745.3100,KY,Somerset
-84.748,38.889,Big Bone Lick State Park,859.384.3522,KY,Union
-89.035,37.181,Big Turner Lake 1 - Ballard WMA, ,KY,Barlow
-88.154,36.922,Birmingham Ferry/Smith Bay - LBL,270.924.2000/270.924.2000,KY,Eddyville
-84.519,36.677,Blue Heron - Big South Fork Area,423.286.7275,KY,Stearns
-83.994,38.43,Blue Licks State Park,800.443.7008,KY,Carlisle
-84.876,38.499,Boat Ramp - Elmer Davis Lake - DFWR, ,KY,Owenton
-84.621,38.706,Boltz Lake Ramp - DFWR, ,KY,Williamstown
-82.298,37.293,Breaks Interstate Park,800.982.5122,KY,
-83.012,38.203,Bruin Creek - DFWR, ,KY,Sandy Hook
-83.47,37.345,Buckhorn  Dam Rec Area - Buckhorn Lake,606.398.7220,KY,Buckhorn
-84.64,38.799,Bullock Pen Lake Ramp - DFWR, ,KY,Williamstown
-86.026,37.904,Camp Carlson Military - Fort Knox,502.624.4836,KY,Brandenburg
-88.21,36.996,Canal - Lake Barkley, ,KY,Grand Rivers
-83.003,37.231,Carr Creek State Park,606.642.4050,KY,Sassafras
-83.118,38.372,Carter Caves State Park,800.325.0059,KY,Olive Hill
-86.499,37.569,Cave Creek - Rough River Lake,270.879.4304,KY,Falls Of Rough
-83.779,37.12,Clay County Campground,606.598.3449,KY,Manchester
-83.464,38.059,Clay Lick - DFWR, ,KY,Morehead
-83.586,38.046,Clear Creek Rec Area,606.784.6428/859.745.3100,KY,Salt Lick
-89.11,36.766,Columbus - Belmont State Park,270.677.2327,KY,Arlington
-88.048,36.962,Cravens Bay - LBL Lake Access,270.924.2000/270.924.2000,KY,Eddyville
-84.329,36.845,Cumberland Falls State Park,800.325.0063,KY,Williamsburg
-84.835,36.966,Cumberland Point - Lake Cumberland,606.871.7886,KY,Nancy
-85.284,36.654,Dale Hollow State Park,800.325.2282,KY,Burkesville
-87.455,36.656,Destiny Parks Military - Fort Campbell,270.798.2175,KY,Fort Campbell
-87.964,36.795,Devils Elbow Recreation Area,270.924.5878,KY,Cadiz
-86.131,37.319,Dog Creek - Nolin River Lake,270.524.5454,KY,Cub Run
-88.023,37.005,Eddy Creek Access - DFWR, ,KY,Eddyville
-88.017,36.855,Energy Lake - LBL,270.924.2000/270.924.2000,KY,Cadiz
-88.197,37.023,Eureka - Lake Barkley,270.388.9459,KY,Grand Rivers
-84.826,36.951,Fall Creek,606.348.6042,KY,Somerset
-88.106,36.775,Fenton - LBL Lake Access,270.924.2000/270.924.2000,KY,Murray
-88.108,36.774,Fenton Lake Access - DFWR, ,KY,Cadiz
-84.703,37.068,Fishing Creek - Lake Cumberland,606.679.5174,KY,Somerset
-88.834,37.116,Fishing Pier - West Kentucky WMA, ,KY,Paducah
-84.267,37.9,Fort Boonesborough State Park,859.527.3131,KY,Winchester
-83.616,38.388,Fox Valley Rec Area,606.845.0833,KY,Flemingsburg
-87.904,36.557,Gatlin Point - LBL,270.924.2000/270.924.2000,KY,
-84.602,36.975,General Burnside State Park,606.561.4104,KY,Burnside
-85.144,38.667,General Butler State Park,866.462.8853,KY,Carrollton
-82.653,37.685,German Bridge - Dewey Lake,606.789.4521,KY,Prestonsburg
-88.281,37.018,Gilbertsville Ramp - DFWR, ,KY,Benton
-82.342,37.438,Grapevine - Fishtrap Lake,606.835.4564,KY,Pikeville
-83.015,38.212,Grayson Lake State Park,606.474.5107,KY,Olive Hill
-84.727,36.629,Great Meadows,606.376.5323/859.745.3100,KY,Stearns
-85.337,37.272,Green River Lake State Park,270.465.8255,KY,Campbellsville
-82.89,38.487,Greenbo Lake State Park,800.325.0083,KY,Greenup
-84.217,36.94,Grove Rec Area,606.864.4163/859.745.3100,KY,Corbin
-85.145,38.211,Guist Creek Lake County Park,502.647.5359,KY,Shelbyville
-85.131,36.871,Halcombs Landing - DFWR, ,KY,Jamestown
-88.182,36.944,Hillman Ferry - LBL,270.924.2000/270.924.2000,KY,Grand Rivers
-84.267,36.982,Holly Bay Rec Area,606.864.4163/859.745.3100,KY,London
-85.267,37.215,Holmes Bend - Green River Lake,270.465.4463,KY,Columbia
-86.237,37.202,Houchins Ferry  - Mammoth Cave National Park,270.758.2180,KY,Brownsville
-87.975,36.92,Hurricane Creek - Lake Barkley,270.522.8821,KY,Grand Rivers
-82.729,37.697,Jenny Wiley State Park,800.325.0142,KY,Prestonsburg
-87.552,37.874,John J. Audubon State Park,270.826.2247,KY,Henderson
-88.052,36.681,Jones Creek - Lake Access,270.924.2000/270.924.2000,KY,Murray
-85.148,36.88,Kendall Rec Area - Lake Cumberland,270.343.4660,KY,Jamestown
-88.148,36.762,Kenlake State Park,800.325.0143,KY,Hardin
-88.282,37.012,Kentucky Dam Village State Park,800.325.0146,KY,Gilbertsville
-84.514,38.141,Kentucky Horse Park Campground,859.259.4257,KY,Lexington
-84.278,38.721,Kincaid Lake State Park,859.654.3531,KY,Falmouth
-83.633,37.784,Koomer Ridge Rec Area,606.784.6428/859.745.3100,KY,Pine Ridge
-87.915,36.848,Lake Barkley State Park,800.325.1708,KY,Cadiz
-85.062,36.91,Lake Cumberland State Park,800.325.1709,KY,Jamestown
-85.279,38.435,Lake Jericho Recreation Area,502.743.5205,KY,Smithfield
-87.04,37.074,Lake Malone State Park,270.657.2111,KY,Belton
-87.856,37.615,Lake Mauzy - Higgins-Henry WMA, ,KY,Boxville
-85.221,38.231,Lake Shelby Campground,502.633.5069,KY,Shelbyville
-86.459,37.607,Laurel Branch - Rough River Lake,270.257.8839,KY,Mcdaniels
-84.043,37.079,Levi Jackson Wilderness Road State Park,606.878.8000,KY,London
-82.948,37.237,Littcarr - Carr Creek Lake,606.642.3052,KY,Sassafras
-84.617,37.587,Logan-Hubble County Park,859.792.3531,KY,Lancaster
-86.097,37.184,Mammoth Cave - Mammoth Cave National Park,270.758.2424,KY,Mammoth Cave
-83.731,38.642,Maysville River Park Marina,606.564.2520,KY,Maysville
-87.894,36.871,Meschan Bridge Ramp - DFWR, ,KY,Cadiz
-87.847,37.577,Moffitt Rec Area,270.333.4845,KY,Morganfield
-86.234,37.319,Moutardier - Nolin River Lake,270.286.4230,KY,Leitchfield
-85.451,37.805,My Old Kentucky Home State Park,502.348.3502,KY,Bardstown
-86.066,36.902,Narrows Boat Ramp - DFWR, ,KY,Glasgow
-83.681,37.78,Natural Bridge State Park,800.325.1710,KY,Slade
-88.2,36.988,Nickell Branch,270.924.2000/270.924.2000,KY,Eddyville
-86.204,37.295,Nolin River State Park,270.286.4240,KY,Mammoth Cave
-83.38,38.062,North Fork - DFWR, ,KY,Morehead
-86.436,37.631,North Fork - Rough River Lake,270.257.8139,KY,Mcdaniels
-82.859,37.833,Paintsville Lake State Park,606.297.8486,KY,Staffordsville
-83.395,38.048,Paragon,606.784.6428/859.745.3100,KY,Clearfield
-87.668,37.139,Pennyrile Forest State Park,800.325.1711,KY,Dawson Springs
-85.322,37.246,Pikes Ridge - Green River Lake,270.465.6488,KY,Campbellsville
-83.702,36.742,Pine Mountain State Park,606. 337.3066,KY,Pineville
-88.036,36.487,Piney  - LBL, ,KY,
-88.169,36.937,Pisgah Bay - DFWR, ,KY,Eddyville
-82.909,36.963,Portal 31 RV Park,606.848.1530,KY,Lynch
-88.797,37.138,Ramp - West Kentucky WMA, ,KY,Paducah
-88.074,36.713,Redd Hollow - LBL,270.924.2000/270.924.2000,KY,Canton
-84.331,37.385,Renfro Valley Boat Dock, ,KY,Renfro Valley
-84.348,36.962,Rockcastle,606.864.4163/859.745.3100,KY,London
-86.504,37.619,Rough River State Park,800.325.1713,KY,Falls Of Rough
-88.049,36.67,Rushing Creek - LBL,270.924.2000,KY,
-85.169,36.827,Ryans Camp Ramp - DFWR, ,KY,Albany
-84.073,37.385,S - Tree Rec Area,606.864.4163/859.745.3100,KY,Mckee
-85.94,37.999,Salt River Rec Area,502.922.4065,KY,West Point
-84.403,36.771,Sandhill RV Camp,606.376.9333,KY,Whitley City
-88.146,36.897,Smith Bay - LBL,270.924.2000/270.924.2000,KY,Benton
-85.301,37.288,Smith Ridge - Green River Lake,270.789.2743,KY,Campbellsville
-88.126,36.856,Sugar Bay - LBL,270.924.2000/270.924.2000,KY,Benton
-86.128,36.886,Tailwater Below Dam  - Barren River Lake,270.622.7732,KY,Glasgow
-88.023,36.881,Taylor Bay - LBL,270.924.2000/270.924.2000,KY,Cadiz
-85.23,38.034,Taylorsville Lake State Park,502.477.8713,KY,Mt. Eden
-86.053,36.893,The Narrows - Barren River Lake,270.646.3094,KY,Lucas
-83.367,37.271,Trace Branch - Buckhorn Lake,606.672.3670,KY,Confluence
-83.917,37.466,Turkey Foot Rec Area,606.864.4163/859.745.3100,KY,McKee
-83.491,38.096,Twin Knobs Rec Area,606.784.6428/859.745.3100,KY,Clearfield
-88.198,36.965,Twin Lakes - LBL,270.924.2000/270.924.2000,KY,Eddyville
-87.965,37.541,Union County Fair,270.333.4107,KY,Sturgis
-86.791,37.905,Vastwood Co Park,270.927.8778,KY,Hawesville
-84.64,37.016,Waitsboro - Lake Cumberland,606.561.5513,KY,Somerset
-86.074,36.811,Walnut Creek Marina,270.622.5858,KY,Scottsville
-86.131,37.344,Wax - Nolin River Lake,270.242.7578,KY,Munfordville
-88.141,36.612,Wildcat - KY DFWR, ,KY,Murray
-83.43,37.141,Willie Begley Memorial RV Park, ,KY,Hyden
-85.269,37.288,Wilson Creek Access - DFWR, ,KY,Yuma
-84.177,37.186,Wood Creek Lake Ramp - DFWR, ,KY,Bernstadt
-82.684,38.089,Yatesville Lake State Park,606.673.1492,KY,Louisa
-86.508,37.981,Yellowbank Creek - Yellowbank WMA, ,KY,Hardinsburg
-83.484,38.071,Zilpo Rec Area,606.784.6428/859.745.3100,KY,Salt Lick
-92.163,29.978,Abbeville RV Park,337.898.4042,LA,Abbeville
-91.988,30.254,Acadiana Park,337.291.8388,LA,Lafayette
-93.721,30.362,Alligator Parish Park,337.721.3540,LA,Starks
-92.513,31.702,Bankston Camp Complex,318.793.9427/318.471.7160,LA,Williana
-93.619,32.511,Barksdale AFB Military,318.456.2679,LA,Barksdale Afb
-90.155,29.9,Bayou Segnette State Park,504.736.7140,LA,Westwego
-93.306,32.676,Beaver Dam,318.927.2061/318.471.7160,LA,Minden
-93.007,32.905,Bucktail Camp Complex,318.927.2061/318.471.7160,LA,Summerfield
-91.85,32.91,Chemin - A - Haut State Park,318.283.0812,LA,Bastrop
-92.288,30.79,Chicot State Park,337.363.2403,LA,Ville Platte
-92.907,32.084,Cloud Crossing Complex,318.628.4664/318.471.7160,LA,Goldonna
-92.727,31.528,Colfax Rec Area Campground,318.627.2640,LA,Colfax
-93.785,31.768,Converse Bay Rec Area - Toledo Bend Lake,318.256.4112,LA,Zwolle
-92.744,32.905,Corney Lake Complex,318.927.2061/318.471.7160,LA,Bernice
-92.725,31.328,Cotile Rec Area,318.793.8995,LA,Boyce
-93.05,31.519,Coyote Camp Complex,318.472.1840/318.471.7160,LA,Bellwood
-92.486,30.83,Crooked Creek Rec Area,337.599.2661,LA,Ville Platte
-93.026,31.542,Custis Camp Complex,318.472.1840/318.471.7160,LA,Montrose
-91.853,29.734,Cypremort Point State Park,337.867.4510,LA,
-93.677,31.421,Cypress Bend State Rec Area,318.256.4112,LA,Many
-93.677,32.682,Cypress Black Bayou Rec Area,318.965.0007,LA,Benton
-93.193,31.492,Dogwood  Complex,318.472.1840/318.471.7160,LA,Natchitoches
-93.973,32.727,Earl Williamson Park,318.995.7139,LA,Oil City
-93.014,30.999,Enduro Complex,318.793.9427/318.471.7160,LA,Leesville
-92.611,31.233,Evangeline Camp Complex,318.793.9427/318.471.7160,LA,Alexandria
-90.14,30.409,Fairview Riverside State Park,985.845.3318,LA,Madisonville
-91.208,30.387,Farr Park,225.769.7805,LA,Baton Rouge
-90.023,30.345,Fontainebleau State Park,985.624.4443,LA,Mandeville
-93.463,33.002,Frank Anthony RV Park,318.539.5681,LA,Springhill
-93.108,31.009,Fullerton Complex,318.793.9427/318.471.7160,LA,Pitkin
-89.956,29.258,Grand Isle State Park,985.787.2559,LA,Grand Isle
-92.779,31.899,Gum Springs Complex,318.628.4664/318.471.7160,LA,Winn
-93.518,33.005,Highway 157 Primitive,318.949.1804,LA,Springhill
-92.514,31.738,Highway 472 Camp,318.793.9427/318.471.7160,LA,Packton
-93.425,31.369,Hodges Gardens State Park,318.586.4020,LA,Florien
-93.295,30.348,Holbrook Parish Park,337.721.3540,LA,Sulphur
-93.108,31.009,Hunter Camp Complex,318.793.9427/318.471.7160,LA,Leesville
-92.47,31.114,Indian Creek Recreation Area,318.487.5058,LA,Woodworth
-93.346,30.066,Intracoastal Parish Park,337.721.3540,LA,Sulphur
-93.493,32.831,Ivan Lake,318.949.1804,LA,
-92.52,32.25,Jimmie Davis State Park,318.249.2595,LA,Chatham
-92.824,30.227,John Blank Sportsman Park, ,LA,Welsh
-91.293,29.672,Kemper Williams Parish Park,985.395.2298,LA,Morgan City
-92.632,31.258,Kincaid Complex,318.793.9427/318.471.7160,LA,Gardner
-93.093,31.445,Kisatchie Bayou Complex,318.472.1840/318.471.7160,LA,Provencal
-93.376,32.443,Lake Bistineau State Park,318.745.3503,LA,Doyline
-91.2,31.961,Lake Bruin State Park,318.766.3530,LA,St. Joseph
-92.923,32.713,Lake Claiborne State Park,318.927.2976,LA,Homer
-92.491,32.783,Lake DArbonne State Park,318.368.2086,LA,Farmerville
-91.188,29.72,Lake End City Park,985.380.4623,LA,Morgan City
-91.188,29.72,Lake End Park,985.380.4623,LA,Morgan City
-91.188,29.72,Lake End Park, ,LA,Morgan City
-91.608,30.062,Lake Fausse Pointe State Park,337.229.4764,LA,
-90.954,30.194,Lamar Dixon Expo RV Center, ,LA,Gonzales
-92.602,32.59,Lincoln Parish Park,318.251.5156,LA,Ruston
-92.568,31.097,Loran Site Complex,318.793.9427/318.471.7160,LA,Forest Hill
-92.908,30.129,Lorrain Parish Park,337.721.3540,LA,Bell City
-93.132,31.486,Lotus Camp,318.472.1840/318.471.7160,LA,Bellwood
-90.02,29.821,New Orleans Reserve Military,504.678.9230,LA,Belle Chasse
-93.731,31.592,North Toledo Bend State Park,318.645.4715,LA,Zwolle
-93.06,31.516,Oak Camp Complex,318.472.1840/318.471.7160,LA,Natchitoches
-91.395,32.857,Oak Grove City Park, ,LA,Oak Grove
-93.896,31.898,Oak Ridge,318.256.4112,LA,Logansport
-93.896,31.898,Oak Ridge State Rec Area - Toledo Bend Lake,318.256.4112,LA,Logansport
-92.081,30.533,Opelousas City RV Park,337.948.2560,LA,Opelousas
-92.152,29.869,Palmetto Island State Park,337.893.3930,LA,Abbeville
-92.571,31.718,Pearson Camp Complex,318.793.9427/318.471.7160,LA,Alexandria
-93.578,31.244,Pleasure Point State Rec Area - Toledo Bend Lake,318.256.4112,LA,Florien
-91.494,32.483,Poverty Point Reservoir State Park,318.878.7536,LA,Delhi
-92.503,31.296,Rapides Coliseum,318.442.9581,LA,Alexandria
-92.274,30.25,Rayne RV Park Gossen Memorial Park, ,LA,Rayne
-93.144,31.498,Red Bluff Camp Complex,318.472.1840/318.471.7160,LA,Bellwood
-92.602,31.703,Saddle Bayou Camp Complex,318.793.9427/318.471.7160,LA,Alexandria
-93.244,30.301,Sam Houston Jones State Park,337.855.2665,LA,Lake Charles
-93.698,31.57,San Miguel Park State Rec Area,318.645.6748,LA,Zwolle
-93.513,32.7,South Abutment East,318.949.1804,LA,
-93.573,31.211,South Toledo Bend State Park,337.286.9075,LA,Anacoco
-89.901,29.864,St. Bernard State Park,504.682.2101,LA,Braithwaite
-92.445,31.51,Stuart Complex,318.793.9427/318.471.7160,LA,Alexandria
-93.522,33.019,Teague Lake Primitive,318.949.1804,LA,Springhill
-90.628,30.391,Tickfaw State Park,225.294.5020,LA,Springfield
-93.576,31.266,Toledo Bend Military,888.718.9088,LA,Florien
-92.951,32.893,Turkey Trot Complex,318.927.2061/318.471.7160,LA,Summerfield
-93.307,32.671,Turtle Slide,318.927.2061/318.471.7160,LA,Minden
-92.346,31.38,Twin Lakes Military - Camp Beauregard,318.641.3355,LA,Pineville
-92.68,31.244,Valentine Lake North Shore,318.793.9427/318.471.7160,LA,Gardner
-92.687,31.24,Valentine Lake South Shore,318.793.9427/318.471.7160,LA,Gardner
-93.112,30.303,White Oak Park,337.721.3540,LA,Lake Charles
-89.06,30.69,Airey Lake, ,MS,Saucier
-88.71,32.032,Archusa Creek Waterpark,601.776.6956,MS,Quitman
-90.09,31.576,Atwood Water Park,601.587.0045,MS,Monticello
-88.34,34.589,Bay Springs Lake,662.728.1134,MS,New Site
-89.81,34.419,Beach Point - Sardis Lake,662.563.4531,MS,Sardis
-89.13,30.569,Big Biloxi Rec Area,601.928.5291/601.965.1700,MS,Saucier
-89.315,31.667,Big Creek Waterpark,601.763.8555,MS,Soso
-88.533,33.847,Blue Bluff,662.369.2832,MS,Aberdeen
-90.811,32.821,Blue Lake, ,MS,Holly Bluff
-90.279,31.162,Bogue Chitto Water Park,601.684.9568,MS,Mccomb
-89.698,33.921,Bryant - Grenada Lake,662.226.5911,MS,Grenada
-89.402,30.266,Buccaneer State Park,228.467.3822,MS,Waveland
-89.1,32.844,Burnside Lake Water Park, ,MS,Philadelphia
-89.736,34.178,Bynum Creek - Enid Lake,662.563.4571,MS,Enid
-89.34,34.731,Chewalla Lake,601.236.6550/601.965.1700,MS,Holly Springs
-89.823,34.166,Chickasaw Hill - Enid Lake,662.563.4571,MS,Enid
-89.632,33.831,Choctaw - Grenada Lake,662.226.5911,MS,Gore Springs
-89.146,33.275,Choctaw Lake Rec Area,601.285.3264/601.965.1700,MS,Ackerman
-88.704,32.104,Clarkco State Park,601.776.6651,MS,Meridian
-89.702,34.429,Clear Creek - Sardis Lake,662.563.4531,MS,Oxford
-90.985,31.425,Clear Spgs Rec Area,601.384.5876/601.965.1700,MS,Meadville
-89.779,32.588,Coal Bluff Park,601.654.7726,MS,Ludlow
-88.549,34.91,Crossroads Arena,662.287.7779,MS,Corinth
-89.004,30.968,Cypress Creek Landing,601.928.5291/601.965.1700,MS,Wiggins
-88.796,30.397,Davis Bayou - Gulf Islands National Seashore,228.875.2358,MS,Ocean Springs
-88.94,34.047,Davis Lake Rec Area,601.285.3264/601.965.1700,MS,
-88.471,33.601,Dewayne Hayes,662.434.6939,MS,Columbus
-89.896,31.979,DLo Water Park,601.847.4310,MS,DLo
-89.726,31.75,Dry Creek Water Park,601.797.4619,MS,Mt.Olive
-90.113,34.774,Dub Patton - Arkabutla Lake,662.562.6261,MS,Hernando
-88.822,32.229,Dunns Falls Water Park,601.655.8550,MS,Enterprise
-89.813,34.419,Elmers Hill - Sardis Lake,662.563.4531,MS,Sardis
-88.678,34.26,Elvis Presley Lake,662.840.5172,MS,Tupelo
-88.972,30.92,Fairley Bridge Landing,601.928.5291/601.965.1700,MS,Wiggins
-89.135,30.874,Flint Creek Waterpark,601.928.3051,MS,Wiggins
-89.798,34.137,Fords Well Horse Camp- Enid Lake,662.563.4571,MS,Enid
-89.888,34.132,George P Cossar State Park,662.623.7356,MS,Oakland
-88.809,32.521,Gin Creek - Okatibbee Lake,601.626.8068,MS,Meridian
-89.929,32.505,Goshen Springs,601.829.2751,MS,Brandon
-89.485,34.532,Graham Lake - Sardis Lake,662.563.4531,MS,Abbeville
-91.05,32.028,Grand Gulf Military Park,601.437.5911,MS,Port Gibson
-91.052,33.847,Great River Road State Park,662.759.6762,MS,Rosedale
-88.858,30.391,Gulf Marine State Park, ,MS,Biloxi
-89.627,33.902,Gums Crossing - Grenada Lake,662.226.5911,MS,Grenada
-89.759,34.454,Hays Crossing - Sardis Lake,662.563.4531,MS,Sardis
-90.075,34.738,Hernando Point - Arkabutla Lake,662.562.6261,MS,Hernando
-89.92,33.027,Holmes County State Park,662.653.3351,MS,Durant
-89.021,34.236,Howard Stafford Park and Lake,662.489.5792,MS,Pontotoc
-89.729,33.803,Hugh White State Park,662.226.4934,MS,Grenada
-89.575,34.496,Hurricane Landing - Sardis Lake,662.563.4531,MS,Sardis
-88.167,34.931,J. P. Coleman State Park,662.423.6515,MS,Iuka
-89.05,30.995,Janice Rec.Area,601.928.5291/601.965.1700,MS,Brooklyn
-89.262,33.416,Jeff Busby - Natchez Trace Pkwy,800.305.7417,MS,Ackerman
-89.811,34.412,John W Kyle State Park,662.487.1345,MS,Sardis
-88.956,30.408,Keesler AFB Military,228.377.9050,MS,Biloxi
-90.105,34.73,Kellys Crossing - Arkabutla Lake,662.562.6261,MS,Arkabutla
-88.72,32.803,Kemper County Lake,601.743.5505,MS,DeKalb
-89.025,31.712,Lake Boque Homa,601.425.2148,MS,Laurel
-90.957,33.865,Lake Charlie Capps,662.759.6444,MS,Rosedale
-89.034,32.1,Lake Claude Bennett,601.727.3561,MS,Rose Hill
-89.734,31.182,Lake Columbia,601.736.1861,MS,Columbia
-88.672,34.389,Lake Lamar Bruce,662.869.2009,MS,Saltillo
-90.341,31.673,Lake Lincoln State Park,601.643.9044,MS,Wesson
-88.303,33.427,Lake Lowndes State Park,662.328.2110,MS,Columbus
-90.16,31.574,Lake Mary Crawford,601.587.7853,MS,Monticello
-89.649,31.572,Lake Mike Conner,601.765.4024,MS,Collins
-88.565,33.946,Lake Monroe,662.256.9637,MS,Aberdeen
-88.905,31.133,Lake Perry,601.784.6119,MS,Beaumont
-89.592,31.832,Lake Ross Barnett,601.733.2611,MS,Mize
-88.528,32.422,Lake Tom Bailey,601.632.4679,MS,Toomsuba
-89.209,31.208,Lake Walker Military - Camp Shelby,601.558.2397,MS,Hattiesburg
-89.728,32.631,Leake County Water Park,601.654.9359,MS,Lena
-90.15,32.331,Lefleurs Bluff State Park,601.987.3923,MS,Jackson
-89.047,33.154,Legion State Park,662.773.8323,MS,Louisville
-90.936,33.161,Leroy Percy State Park,662.827.5436,MS,Hollandale
-89.488,31.083,Little Black Creek Waterpark,601.794.2957,MS,Purvis
-90.817,32.696,Little Sunflower River, ,MS,Onward
-89.843,34.126,Long Branch - Enid Lake,662.563.4571,MS,Oakland
-89.743,32.622,Low Head Dam,601.654.9359,MS,Ludlow
-89.792,34.401,Lower Lake - Sardis Lake,662.563.4531,MS,Sardis
-89.364,32.205,Marathon Lake,601.469.3811/601.965.1700,MS,Forest
-88.722,31.657,Maynor Creek Waterpark,601.735.4365,MS,Waynesboro
-89.479,30.392,McLeod Water Park,228.467.1894,MS,Kiln
-90.324,32.514,Mississippi Petrified Forest,601.879.8189,MS,Flora
-88.874,33.359,Mississippi State Univ. - John W Starr Memorial Rv park,662.325.4720,MS,Mississippi State
-89.118,31.055,Moodys Landing,601.928.5291/601.965.1700,MS,Brooklyn
-88.511,33.8,Morgans Landing,662.369.7805,MS,Aberdeen
-91.202,31.602,Natchez State Park,601.442.2658,MS,Natchez
-89.104,32.815,Neshoba County Coliseum,601.656.3775,MS,Philadelphia
-89.011,32.71,Neshoba County Lake,601.656.7376,MS,Philadelphia
-90.76,32.869,North  Rec   Composite,601.873.6256/601.965.1700,MS,Rolling Fork
-89.78,33.844,North Abutment - Grenada Lake,662.226.5911,MS,Grenada
-89.605,33.831,North Graysport - Grenada Lake,662.226.5911,MS,Grenada
-89.804,34.409,Oak Grove, ,MS,Sardis
-88.779,32.5,Okatibbee Lake Waterpark,601.737.2370,MS,Meridian
-89.682,31.846,Okatoma Water Park,601.849.5209,MS,Magee
-88.933,33.506,Oktibbeha County Lake,662.323.3350,MS,Starkville
-89.764,33.8,Old Fort - Grenada Lake,662.226.5911,MS,Grenada
-90.115,34.771,Outlet Channel  - Arkabutla Lake,662.562.6261,MS,Enid
-89.732,34.421,Pats Bluff - Sardis Lake,662.563.4531,MS,Batesville
-89.23,31.135,Paul B Johnson State Park,601.582.7721,MS,Hattiesburg
-90.497,31.192,Percy Quin State Park,601.684.3938,MS,Mccomb
-89.903,34.136,Persimmon Hill - Enid Lake,662.563.4571,MS,Enid
-88.328,34.569,Piney Grove,662.728.1134,MS,New Site
-90.099,34.779,Pleasant Hill - Arkabutla Lake,662.562.6261,MS,Hernando
-89.854,34.162,Plum Point - Enid Lake,662.563.4571,MS,Enid
-89.839,34.137,Point Pleasant - Enid Lake,662.563.4571,MS,Enid
-89.348,34.438,Puskus Lake,601.236.6550/601.965.1700,MS,Oxford
-90.809,32.089,Rocky Springs - Natchez Trace Pkwy,662.680.4025,MS,Port Gibson
-89.666,32.319,Roosevelt State Park,601.732.6316,MS,Morton
-88.626,30.373,Shepard State Park,228.497.2244,MS,Gautier
-89.104,30.382,Shields RV Military - Gulfport NCB,228.871.5435,MS,Gulfport
-89.562,32.367,Shockaloe Base Camp I,601.469.3811/601.965.1700,MS,Forest
-89.79,31.913,Simpson County Lake,601.849.4886,MS,Mendenhall
-89.689,33.878,Skuna/Turkey Creek - Grenada Lake,662.226.5911,MS,Coffeeville
-89.792,34.401,Sleepy Bend, ,MS,Batesville
-90.793,32.713,South Recreation Composite,601.873.6256/601.965.1700,MS,Rolling Fork
-89.659,34.506,Teckville - Sardis Lake,662.563.4531,MS,Como
-90.04,32.386,Timberlake - Ross Barnett Reservoir,601.992.9100,MS,Brandon
-88.952,34.796,Tippah County Lake,662.837.9850,MS,Ripley
-88.193,34.614,Tishomingo State Park,662.438.6914,MS,Tishomingo
-88.62,34.229,Tombigbee State Park,662.842.7669,MS,Tupelo
-88.497,33.608,Town Creek,662.494.4885,MS,West Point
-88.887,34.26,Trace State Park,662.489.2958,MS,Belden
-89.153,32.402,Turkey Creek Water Park,601.635.3314,MS,Decatur
-88.703,31.339,Turkey Fork Rec.Area,601.428.0594/601.965.1700,MS,Richton
-88.813,32.495,Twiltley Branch - Okatibbee Lake,601.626.8068,MS,Collinsville
-89.787,30.572,Walkiah Bluff Water Park,601.403.2300,MS,Picayune
-89.462,34.665,Wall Doxey State Park,662.252.4231,MS,Holly Springs
-89.896,34.167,Wallace Creek - Enid Lake,662.563.4571,MS,Enid
-91.126,33.349,Warfield Point Park,662.335.7275,MS,Greenville
-89.762,34.143,Water Valley Landing - Enid Lake,662.563.4571,MS,Enid
-88.422,33.948,Weaver Creek,662.257.1005,MS,Amory
-88.572,34.662,West Side City Park, ,MS,Booneville
-89.282,33.562,Whites Creek Lake County Campground,662.258.2291,MS,Eupora
-88.416,34.29,Whitten Park/Fulton,662.862.7070,MS,Fulton
-89.581,34.55,Wyatt Crossing - Sardis Lake,662.563.4531,MS,Waterford
-80.072,35.439,Arrowhead,910.576.6391/828.257.4200,NC,Uwharrie
-80.076,35.448,Badin Lake,910.576.6391/828.257.4200,NC,New London
-83.175,35.566,Balsam Mountain - Great Smoky Mountains,423.436.1200,NC,Waynesville
-81.245,36.12,Bandits Roost - W. Kerr Scott Reservoir,336.921.3190,NC,Wilkesboro
-83.949,35.42,Bear Creek Hunt Camp,828.479.6431/828.257.4200,NC,Robbinsville
-83.11,35.753,Big Creek - Great Smoky Mountains,865.436.1200,NC,Asheville
-82.221,35.753,Black Mountain,/828.257.4200,NC,Black Mountain
-83.23,35.012,Blue Valley Camp,/828.257.4200,NC,Highlands
-81.616,36.007,Boone Fork,828.652.2144/828.257.4200,NC,Lenoir
-78.365,36.459,Bullocksville State Rec Area - Kerr Lake,252.438.7791,NC,Manson
-77.799,34.981,Cabin Lake County Park,910.298.3648,NC,Pink Hill
-83.752,35.433,Cable Cove,828.479.6431/828.257.4200,NC,Fontana Villag
-80.686,34.844,Cane Creek Park,704.843.5909,NC,Waxhaw
-75.544,35.239,Cape Point - Cape Hatteras National Seashore,252.473.2111,NC,Buxton
-77.904,34.045,Carolina Beach State Park,910.458.8206,NC,Carolina Beach
-82.205,35.804,Carolina Hemlocks,/828.257.4200,NC,Burnsville
-83.087,35.632,Cataloochee - Great Smoky Mountains,423.436.1200,NC,Asheville
-77.082,34.692,Cedar Point,252.638.5628/828.257.4200,NC,Cape Carteret
-79.353,34.903,Chalk Banks - Lumber River State Park,910.628.4564,NC,Wagram
-83.872,35.369,Cheoah Point,828.479.6431/828.257.4200,NC,Robbinsville
-76.91,34.9,Cherry Point MCCS Military,252.466.2197,NC,Havelock
-83.797,35.007,Clay Co Park,828.389.3532,NC,Hayesville
-77.899,35.234,Cliffs of the Neuse State Park,919.778.6234,NC,Seven Springs
-77.437,35.367,Contentnea Creekside City Park,252.524.5168,NC,Grifton
-78.316,36.527,County Line State Rec Area - Kerr Lake,252.438.7791,NC,Manson
-82.146,35.815,Crabtree Meadows - Blue Ridge Parkway,828.298.0398,NC,Burnsville
-78.993,35.743,Crosswinds State Rec Area - Jordan Lake,919.362.0586,NC,Apex
-82.197,35.69,Curtis Creek,828.652.2144/828.257.4200,NC,Old Fort
-80.354,35.632,Dan Nicholas Park,704.636.0154,NC,Salisbury
-82.729,35.283,Davidson River,828.877.3265/828.257.4200,NC,Pisgah Forest
-83.436,35.461,Deep Creek - Great Smoky Mountains,865.436.1200,NC,Bryson City
-80.086,35.403,Deep Water Trailt Horse Camp,910.576.6391/828.257.4200,NC,Troy
-81.184,36.422,Doughton Park  - Blue Ridge Parkway,828.298.0398,NC,Laurel Springs
-79.958,35.44,East Morris Mountain, ,NC,Troy
-76.18,36.27,Elizabeth City Lodging Military,252.335.6482,NC,Elizabeth City
-83.868,35.087,Fires Creek Hunt Camp,828.837.5152/828.257.4200,NC,Hayesville
-76.977,35,Fisher Landing,252.638.5628/828.257.4200,NC,New Bern
-83.821,35.433,Fontana Village Resort,800.849.2258,NC,Robbinsville
-77.914,33.981,Fort Fisher Air Force Military,910.458.6549,NC,Wilmington
-81.27,36.13,Fort Hamby Park - W. Kerr Scott Reservoir,336.973.0104,NC,Wilkesboro
-75.598,35.237,Frisco - Cape Hatteras National Seashore,252.473.2111,NC,Frisco
-83.8,35.011,Gibson Cove - Chatuge Reservoir,828.389.3532,NC,Hayesville
-76.897,35.479,Goose Creek State Park,252.923.2191,NC,Washington
-79.736,35.949,Hagan-Stone Park,336.674.0472,NC,Pleasant Garde
-77.139,34.672,Hammocks Beach State Park,910.326.4881,NC,Swansboro
-84.081,35.107,Hanging Dog,828.837.5152/828.257.4200,NC,Murphy
-80.268,36.394,Hanging Rock State Park,336.593.8480,NC,Walnut Cove
-78.345,36.534,Henderson Point State Rec Area - Kerr Lake,252.438.7791,NC,Henderson
-78.371,36.511,Hibernia State Rec Area - Kerr Lake,252.438.7791,NC,Henderson
-78.657,36.013,Holly Point - Falls Lake,919.676.1027,NC,Wake Forest
-83.92,35.365,Horse Cove,828.479.6431/828.257.4200,NC,Robbinsville
-83.772,35.011,Jackrabbit Mountain,828.837.5152/828.257.4200,NC,Hayesville
-81.462,35.278,John H. Moss Lake City Campground,704.482.7926,NC,Shelby
-78.604,34.699,Jones Lake State Park,910.588.4550,NC,Elizabethtown
-81.761,36.132,Julian Price - Blue Ridge Parkway,828.963.5911,NC,Blowing Rock
-78.318,36.541,Kimball Point State Rec Area - Kerr Lake,252.438.7791,NC,Manson
-81.907,35.732,Lake James State Park,828.652.5047,NC,Nebo
-80.944,35.668,Lake Norman State Park,704.528.6350,NC,Statesville
-82.63,35.485,Lake Powhatan,828.877.3265/828.257.4200,NC,Asheville
-79.683,36.295,Lake Reidsville Rec Park,336.349.4738,NC,Reidsville
-81.933,35.966,Linville Falls - Blue Ridge Parkway,828.765.7818,NC,Newland
-81.311,36.103,Marleys Ford - W. Kerr Scott Reservoir, ,NC,Boomer
-81.023,35.101,McDowell Nature Preserve,704.583.1284,NC,Charlotte
-77.888,36.256,Medoc Mt. State Park,252.586.6588,NC,Hollister
-76.684,36.43,Merchants Millpond State Park,252.357.1191,NC,Sunbury
-80.105,35.371,Morrow Mountain State Park,704.982.4402,NC,Albemarle
-81.761,35.991,Mortimer,828.652.2144/828.257.4200,NC,Lenoir
-82.271,35.76,Mount Mitchell State Park,828.675.4611,NC,Asheville
-82.756,35.404,Mount Pisgah - Blue Ridge Parkway,828.648.2644,NC,Canton
-76.949,34.982,Neuse River - Flanner Beach,252.638.5628/828.257.4200,NC,New Bern
-77.587,35.261,Neuseway Nature Park,252.939.3367,NC,Kinston
-81.385,36.415,New River State Park,336.982.2587,NC,Jefferson
-82.646,35.407,North Mills River,828.877.3265/828.257.4200,NC,Mills River
-78.398,36.413,Nutbush Bridge State Rec Area - Kerr Lake,252.438.7791,NC,Henderson
-80.004,36.007,Oak Hollow City Campground,336.883.3492,NC,High Point
-75.906,35.134,Ocracoke Island - Cape Hatteras National Seashore,252.928.6671,NC,Ocracoke
-77.268,34.572,Onslow Beach Military - Camp Lejeune,910.440.7502,NC,Sneads Ferry
-75.544,35.799,Oregon Inlet - Cape Hatteras National Seashore,252.473.2111,NC,
-76.755,34.766,Oyster Point Camp,252.638.5628/828.257.4200,NC,Morehead City
-79.038,35.749,Parkers Creek State Rec Area - Jordan Lake,919.362.0586,NC,Chapel Hill
-82.183,35.885,Patience Park Toe River Campground,828.675.5104,NC,Micaville
-76.421,35.796,Pettigrew State Park,252.797.4475,NC,Creswell
-80.466,36.344,Pilot Mountain State Park,336.325.2355,NC,Pinnacle
-79.016,35.724,Poplar Point State Rec Area - Jordan Lake,919.362.0586,NC,Apex
-79.003,34.39,Princess Ann - Lumber River State Park,910.628.4564,NC,Orrum
-83.154,35.192,Ralph Andrews County Park, ,NC,Glenville
-82.846,35.862,Rocky Bluff,/828.257.4200,NC,Hot Springs
-78.727,36.005,Rolling View - Falls Lake,919.676.1027,NC,Durham
-78.376,36.432,Satterwhite Pt State Rec Area - Kerr Lake,252.438.7791,NC,Henderson
-77.967,35.36,Seymour Johnson AFB Military,919.722.1104,NC,Goldsboro
-78.922,35.136,Smith Lake Army RV Military - Ft Bragg,910.396.5979,NC,Fayetteville
-83.309,35.553,Smokemont - Smoky Mountains National Park,828.497.9270,NC,Bryson City
-83.904,35.288,Snowbird Camping,828.479.6431/828.257.4200,NC,Robbinsville
-81.61,35.597,South Mountains State Park,828.433.4772,NC,Morganton
-83.532,35.075,Standing Indian,/828.257.4200,NC,Franklin
-81.027,36.387,Stone Mountain State Park,336.957.8185,NC,Roaring Gap
-82.942,35.375,Sunburst,828.877.3265/828.257.4200,NC,Canton
-80.412,36.014,Tanglewood Park,336.778.6300,NC,Winston Salem
-83.589,35.408,Tsali,828.479.6431/828.257.4200,NC,Bryson City
-80.02,35.429,Uwharrie Hunt Camp,910.576.6391/828.257.4200,NC,Troy
-83.247,35.076,Van Hook Glade,/828.257.4200,NC,Highlands
-81.294,36.11,Warrior Creek - W. Kerr Scott Reservoir,336.921.2177,NC,Wilkesboro
-79.994,35.428,West Morris Mtn.,910.576.6391/828.257.4200,NC,Troy
-78.744,35.842,William B. Umstead State Park,919.787.3033,NC,Raleigh
-80.044,35.311,Woodrun,910.576.6391/828.257.4200,NC,Mt.Gilead
-94.626,35.832,Adair State Park,918.696.6613,OK,Stilwell
-95.487,35.946,Afton Landing - Chouteau Lake,918.489.5541,OK,Wagoner
-99.148,36.698,Alabaster Caverns State Park,580.621.3381,OK,Freedom
-96.609,33.953,Alberta Creek - Lake Texoma, ,OK,Kingston
-99.29,34.653,Altus AFB Military,580.481.7696,OK,
-96.29,36.187,Appalachia Bay - Keystone Lake,918.865.2621,OK,Sand Springs
-94.824,35.362,Applegate Cove - Kerr Reservoir,918.775.4475,OK,Sallisaw
-97.379,35.653,Arcadia Lake,405.216.7476,OK,Edmond
-95.185,35.607,Arrowhead Point - Webbers Falls Lake, ,OK,Muskogee
-95.635,35.163,Arrowhead State Park,918.339.2204,OK,Canadian
-96.906,36.84,Bear Creek Cove - Kaw Lake,580.762.5611,OK,Newkirk
-100.512,36.836,Beaver Dunes State Park,580.625.3373,OK,Beaver
-99.575,36.55,Beaver Point - Fort Supply Lake,580.766.2701,OK,Woodward
-94.688,34.137,Beavers Bend State Park,580.494.6300,OK,Broken Bow
-96.939,35.731,Bell Cow Lake and Equestrian, ,OK,Chandler
-95.541,35.34,Belle Starr Park - Eufaula Lake,918.799.5843,OK,Eufaula
-94.714,34.941,Below the Dam - Lake Wister State Park,918.655.7212,OK,Wister
-94.904,36.626,Bernice State Park,918.786.9447,OK,Bernice
-98.619,36.116,Big Bend - Canton Lake,580.886.3576,OK,Canton
-95.541,36.73,Big Creek Ramp - Oologah Lake,918.443.2250,OK,Nowata
-94.735,34.687,Billy Creek,918.567.2326/501.321.5202,OK,Muse
-96.166,36.522,Birch Cove - Birch Lake,918.396.3170,OK,Barnsdall
-102.882,36.84,Black Mesa State Park,580.426.2222,OK,Kenton
-95.207,35.676,Blackhawk RV Military - Camp Gruber,918.487.605,OK,Braggs
-98.598,36.08,Blaine Park - Canton Lake,580.886.2989,OK,Canton
-95.389,38.913,Bloomington Pubilc Use Area - Clinton Lake, ,OK,
-95.335,36.043,Blue Bill Point - Fort Gibson Lake,918.476.6638,OK,Wagoner
-95.593,36.454,Blue Creek - Oologah Lake,918.341.4244,OK,Foyil
-96.392,36.647,Bluestem Lake,918.287.3649,OK,Pawhuska
-95.559,36.069,Bluff Landing - Arkansas River,918.489.5541,OK,Broken Arrow
-96.312,34.321,Boggy Depot State Park,580.889.5625,OK,Atoka
-99.304,36.454,Boiling Springs State Park,580.256.7664,OK,Woodward
-95.181,35.576,Brewers Bend - Webbers Falls Lake,918.489.5541,OK,Webbers Falls
-96.862,33.921,Brier Creek - Lake Texoma,903. 465.4990,OK,Madill
-95.391,35.288,Brooken Cove - Eufaula Lake,918.799.5843,OK,Eufaula
-96.248,36.151,Brush Creek - Keystone Lake,918.865.2621,OK,Sand Springs
-94.817,35.542,Brushy Lake State Park,918.775.6507,OK,Sallisaw
-96.994,34.433,Buckhorn - Chickasaw National Rec Area,580.622.3165,OK,Sulphur
-96.219,36.418,Bull Creek Peninsula - Skiatook Lake, ,OK,Skiatook
-96.81,33.897,Buncombe Creek - Lake Texoma,580.564.2901,OK,Madill
-97.09,34.053,Buzzards Roost - Lake Murray State Park,580.223.4044,OK,Ardmore
-98.608,36.09,Canadian - Canton Lake,580.886.3454,OK,Canton
-96.116,36.918,Caney Bend, ,OK,Copan
-96.703,33.927,Caney Creek - Lake Texoma,580.564.2632,OK,Kingston
-94.893,35.798,Carters Landing - Tenkiller Ferry Lake,918.487.5252,OK,Tahlequah
-94.977,35.635,Cato Creek Landing - Tenkiller Ferry Lake,918.487.5252,OK,Vian
-97.097,34.092,Cedar Grove - Lake Murray State Park,580.223.4044,OK,Ardmore
-94.694,34.78,Cedar Lake,918.567.2326/501.321.5202,OK,Heavener
-96.968,34.505,Central - Chickasaw National Rec Area,580.622.3165,OK,Sulphur
-97.377,34.986,Chandler City Park - Purcell,405.527.5114,OK,Purcell
-98.348,36.757,Cherokee City RV Park, ,OK,Cherokee
-94.908,35.763,Cherokee Landing State Park,918.457.5716,OK,Park Hill
-95.013,36.483,Cherokee State Park,918.435.8066,OK,Disney
-94.96,35.683,Chicken Creek - Tenkiller Ferry Lake,918.487.5252,OK,Vian
-98.035,34.25,Chisolm Trail Ridge - Waurika Lake,580.963.2111,OK,Waurika
-95.27,36.186,Chouteau Bend - Fort Gibson Lake,918.682.4314,OK,Chouteau
-95.631,36.315,Claremore Expo RV Park,918.342.5357,OK,Claremore
-95.306,34.54,Clayton Lake State Park,918.569.7981,OK,Clayton
-97.851,34.587,Clear Creek Lake, ,OK,Duncan
-98.442,36.407,Cleo Springs RV Park,580.438.2243,OK,Cleo Springs
-95.617,36.459,Clermont - Oologah Lake,918.443.2250,OK,Foyil
-96.961,34.501,Cold Springs - Chickasaw National Rec Area,580.622.3165,OK,Sulphur
-98.343,34.833,Collier Landing City,580.529.2663,OK,Lawton
-94.96,35.707,Cookson Bend - Tenkiller Ferry Lake,918.487.5252,OK,Cookson
-96.924,36.782,Coon Creek Cove - Kaw Lake,580.762.5611,OK,Ponca City
-98.987,35.297,Cordell Park, ,OK,Cordell
-94.827,35.321,Cowlington Point - Kerr Reservoir,918.775.4475,OK,Sallisaw
-96.364,36.231,Cowskin Bay South - Keystone Lake,918.865.2621,OK,Cleveland
-98.697,35.403,Crowder Lake University State Park,580.343.2443,OK,Weatherford
-95.23,35.865,Dam Site - Fort Gibson Lake,918.683.6618,OK,Fort Gibson
-96.564,33.818,Dam Site - Lake Texoma,903.465.4990,OK,
-95.372,35.3,Dam Site South - Eufaula Lake,918.799.5843,OK,Eufaula
-95.587,35.399,Deep Fork - Lake Eufaula State Park,918.689.5311,OK,Checotah
-99.775,36.828,Doby Springs Park,580.735.2654,OK,Buffalo
-93.833,35.401,Dogwood Drive - Lake Eufaula State Park,918.689.5311,OK,
-98.644,34.718,Doris Campground - Wichita Mts NWR,580.429.3222,OK,Indiahoma
-97.111,34.108,Dukes - Lake Murray State Park,580.223.4044,OK,Overbrook
-96.574,33.851,East Burns Run - Lake Texoma,580.965.4660,OK,Colbert
-98.487,34.751,East Side - Lake Lawtonka,580.529.2663,OK,Lawton
-98.371,34.826,Edgewater Park - Lawton,580.529.2663,OK,Lawton
-97.1,34.092,Elephant Rock - Lake Murray State Park,580.223.4044,OK,Ardmore
-99.416,35.366,Elk City Lake Park,580.225.3990,OK,Elk City
-94.903,35.751,Elk Creek Landing - Tenkiller Ferry Lake,918.487.5252,OK,Cookson
-95.599,35.014,Elm Point - Eufaula Lake,918.484.5135,OK,Mcalester
-96.434,36.279,Feyodi Creek RV Park,918.358.2844,OK,Cleveland
-97.089,34.12,Field Trial Area - Lake Murray State Park,580.223.4044,OK,Ardmore
-95.327,36.046,Flat Rock Creek - Fort Gibson Lake,918.476.6766,OK,Wagoner
-98.476,35.177,Fort Cobb - Area 1,405.643.2249,OK,Fort Cobb
-98.473,35.175,Fort Cobb - Area 2,405.643.2249,OK,Fort Cobb
-98.44,35.174,Fort Cobb - Area 3,405.643.2249,OK,Fort Cobb
-98.446,35.18,Fort Cobb - Area 4,405.643.2249,OK,Fort Cobb
-98.475,35.165,Fort Cobb - Area 5,405.643.2249,OK,Fort Cobb
-95.265,35.909,Fort Gibson - Fort Gibson Lake,918.682.4314,OK,Western Hills Guest Ranch
-99.191,35.53,Foss State Park,580.592.4433,OK,Foss
-97.678,34.597,Fuqua Lake, ,OK,Duncan
-95.665,35.501,Gentry Creek Landing - Eufaula Lake,918.799.5843,OK,Checotah
-95.097,35.523,Gore Landing,918.489.2636,OK,Gore
-98.969,34.746,Great Plains State Park,580.569.2032,OK,Mountain Park
-98.158,36.751,Great Salt Plains State Park,580.626.4731,OK,Jet
-95.171,35.624,Greenleaf State Park,918.487.5196,OK,Braggs
-97.443,35.816,Guthrie Lake,405.282.0496,OK,Guthrie
-97.05,34.447,Guy Sandy - Chickasaw National Rec Area,580 622.7234,OK,Sulphur
-100.514,36.84,Hackberry Bend - Beaver Dunes State Park,580.625.3373,OK,Beaver
-101.159,36.651,Hardesty Park - Optima Lake, ,OK,Hardesty
-95.681,36.432,Hawthorn Bluff - Oologah Lake,918.443.2319,OK,Oologah
-97.453,34.239,Healdton Municipal Lake,580.229.1283,OK,Healdton
-96.938,35.346,Heart of Oklahoma Exposition Center,405.275.7020,OK,Shawnee
-96.307,35.945,Heyburn Park,918.247.6601,OK,Kellyville
-96.995,33.971,Hickory Creek - Lake Texoma, ,OK,Marietta
-96.077,35.603,Hickory Point - Dripping Springs State Park,918.756.5971,OK,Okmulgee
-95.491,35.243,Highway 9 Landing - Eufaula Lake,918.799.5843,OK,Eufaula
-99.093,35.022,Hobart Lions Club RV Park,580.726.2553,OK,Hobart
-94.741,34.177,Hochatown State Park,580.494.6452,OK,Broken Bow
-96.363,35.024,Holdenville Lake, ,OK,Holdenville
-96.426,36.406,Hominy Municipal Lake,918.885.2164,OK,Hominy
-94.783,36.575,Honey Creek State Park,918.786.9447,OK,Grove
-95.408,34.02,Hugo Lake - Kiamichi State Park,580.326.0303,OK,Hugo
-96.687,36.118,Jim Thorpe Park,918.387.2405,OK,Yale
-95.098,35.23,John Wells Park,918.967.2164,OK,Stigler
-96.569,34.001,Johnson Creek - Lake Texoma,580.924.7316,OK,Kingston
-95.972,36.757,Johnstone Park,918.338.4132,OK,Bartlesville
-96.832,33.86,Juniper Point - Lake Texoma,903.465.4990,OK,
-96.265,36.138,Keystone State Park,918.865.4991,OK,Sand Springs
-95.402,34.003,Kiamichi Park - Hugo Lake,580.326.3345,OK,Hugo
-98.087,34.261,Kiowa Park - Waurika Lake,580.963.2111,OK,Waurika
-97.21,36.125,Lake Carl Blackwell,405.744.8504,OK,Stillwater
-98.129,35.147,Lake Chickasha,405 453 7915,OK,Verden
-98.515,34.72,Lake Elmer Thomas Military - Fort Sill,580.442.5854,OK,Medicine Park
-98.89,34.516,Lake Frederick Park,580.397.7551,OK,Manitou
-95.814,35.033,Lake McAlester,918.423.9300,OK,McAlester
-97.177,36.183,Lake McMurtry East,405.747.8085,OK,Stillwater
-97.188,36.17,Lake McMurtry West,405.747.8085,OK,Stillwater
-97.02,36.727,Lake Ponca,580.767.0430,OK,Ponca City
-96.152,36.036,Lake Sahoma,918.227.1534,OK,Sapulpa
-96.638,33.997,Lake Texoma State Park,580.564.2566,OK,Kingston
-97.248,35.232,Lake Thunderbird State Park - North,405.360.3572,OK,Norman
-97.239,35.202,Lake Thunderbird State Park - South,405.360.3572,OK,Norman
-96.554,33.937,Lakeside - Lake Texoma,580.920.0176,OK,Durant
-99.903,36.709,Laverne Municipal Park, ,OK,Laverne
-96.914,33.962,Lebanon - Lake Texoma,903.465.4990,OK,Madill
-97.463,35.802,Liberty Lake,405.282.8400,OK,Guthrie
-96.656,34.019,Little Glasses Resort and Marina,580.795.2068,OK,Madill
-95.123,34.171,Little River - Pine Creek Lake,580.933.4239,OK,New Ringold
-98.88,36.53,Little Sahara State Park,580.824.1472,OK,Waynoka
-95.334,34.879,Lloyd Church Lake, ,OK,Wilburton
-98.582,36.129,Longdale Area - Canton Lake,580.274.3454,OK,Longdale
-95.105,34.179,Lost Rapids - Pine Creek Lake,580.933.4239,OK,New Riingold
-97.05,34.027,Marietta Landing - Lake Murray State Park,580.223.4044,OK,Ardmore
-97.051,34.087,Martins Landing - Lake Murray State Park,580.223.4044,OK,Ardmore
-96.934,36.705,McFadden Cove - Kaw Lake,580.762.5611,OK,Ponca City
-95.871,34.305,McGee Creek State Park,580.889.5822,OK,Atoka
-98.404,34.684,Medicine Creek RV Military - Fort Sill,580.355.8270,OK,Lawton
-96.937,35.493,Meeker Lake,405.279.3321,OK,Meeker
-95.702,35.258,Mill Creek Bay, ,OK,Eufaula
-98.047,34.231,Moneka Park - Waurika Lake,580.963.2111,OK,Waurika
-97.286,34.366,Mountain Lake, ,OK,Ardmore
-95.865,34.839,Murphys Meadow Military - McAlester,918.420.7484,OK,Mcalester
-94.67,36.176,Natural Falls State Park,918.422.5802,OK,Colcord
-96.391,36.152,New Mannford Ramp - Keystone Lake,918.865.2096,OK,Mannford
-96.563,34.015,Newberry Creek Resort and Marina,580.924.0787,OK,Mead
-95.536,36.059,Newt Graham Lock and Dam - Arkansas River,918.489.5541,OK,Broken Arrow
-95.979,35.407,Nichols Park,918.652.3348,OK,Henryetta
-95.603,35.215,Oak Ridge - Eufaula Lake,918.484.5135,OK,Eufaula
-96.321,35.518,Okemah Lake,918.623.1539,OK,Okemah
-96.069,35.619,Okmulgee - Dripping Springs  State Park,918.756.5971,OK,Okmulgee
-96.888,36.713,Osage Cove - Kaw Lake,580.762.5611,OK,Ponca City
-96.185,36.738,Osage Hills State Park,918.336.4141,OK,Pawhuska
-97.207,34.77,Pauls Valley City Lake,405.238.5134,OK,Pauls Valley
-96.797,36.371,Pawnee Lake, ,OK,Pawnee
-95.384,35.865,Pecan Park,918.366.8882,OK,Wagoner
-96.683,34.233,Pennington Creek Park,580.371.2369,OK,Tishomingo
-97.276,36.266,Perry Lake,580.336.4241,OK,Perry
-94.937,35.747,Petit Bay - Tenkiller Ferry Lake,918.487.5252,OK,Keys
-95.091,34.113,Pine Creek Cove - Pine Creek Lake,580.933.4239,OK,Valliant
-100.516,36.836,Pioneer - Beaver Dunes State Park,580.625.3373,OK,Beaver
-96.553,33.924,Platter Flats - Lake Texoma,580.434.5864,OK,Platter
-95.391,35.358,Porum Landing - Eufaula Lake,918.799.5843,OK,Porum
-95.963,36.909,Post Oak Park - Copan Lake,918.532.4334,OK,Copan
-95.323,34.671,Potato Hills Central,918.569.4131,OK,Clayton
-96.724,35.522,Prague City Lake,405.567.2805,OK,Prague
-96.649,33.884,Preston Bend - Lake Texoma,903.465.4990,OK,
-94.723,34.944,Quarry Island - Lake Wister State Park,918.655.7212,OK,Wister
-97.055,34.759,R.C. Longmire Lake, ,OK,Pauls Valley
-98.261,35.073,Randlett Park,405.247.6484,OK,Anadarko
-95.483,34.197,Rattan Landing -  Hugo Lake,580.326.3345,OK,Rattan
-95.256,33.994,Raymond Gary State Park,580.873.2307,OK,Fort Towson
-96.074,35.61,Red Oak - Dripping Springs  State Park,918.756.5971,OK,Okmulgee
-98.359,35.456,Red Rock Canyon State Park,405.542.6344,OK,Hinton
-95.662,36.419,Redbud Bay - Oologah Lake,918.443.2250,OK,Oologah
-95.357,34.985,Robbers Cave State Park,918.465.2565,OK,Wilburton
-98.531,34.777,Robinsons Landing  - Lake Lawtonka,580.529.2663,OK,Lawton
-96.986,34.498,Rock Creek - Chickasaw National Rec Area,580.622.3165,OK,Sulphur
-97.055,34.063,Rock Tower - Lake Murray State Park,580.223.4044,OK,Ardmore
-95.316,36.034,Rocky Point - Fort Gibson Lake,918.682.4314,OK,Wagoner
-98.429,35.932,Roman Nose State Park,580.623.4218,OK,Watonga
-96.322,36.131,Salt Creek Cove - Keystone Lake,918.865.2845,OK,Mannford
-98.568,36.104,Sandy Cove - Canton Lake,580.274.3576,OK,Longdale
-95.445,34.643,Sardis Cove,918.569.4637,OK,Clayton
-96.808,36.767,Sarge Creek - Kaw Lake,580.762.5611,OK,Ponca City
-99.641,35.275,Sayre City Park, ,OK,Sayre
-97.827,35.289,Schrock Park,405.596.7644,OK,Tuttle
-97.059,35.347,Shawnee Twin Lakes,405.878.1529,OK,Shawnee
-96.307,35.956,Sheppard Point,918.247.4551,OK,Salpupa
-94.787,35.325,Short Mountain Cove - Kerr Reservoir,918.775.4475,OK,Sallisaw
-94.968,35.724,Sizemore Landing - Tenkiller Ferry Lake,918.487.5252,OK,Keys
-99.881,35.639,Skipout,580.497.2143/505.346.3804,OK,Cheyenne
-94.973,35.648,Snake Creek Cove - Tenkiller Ferry Lake,918.487.5252,OK,Vian
-95.184,36.301,Snowdale State Park,918.434.2651,OK,Salina
-96.675,33.927,Soldier Creek - Lake Texoma, ,OK,Kingston
-95.267,35.599,Spaniard Creek - Webbers Falls Lake,918.489.5541,OK,Muskogee
-95.055,36.387,Spavinaw State Park,918.435.8066,OK,Spavinaw
-95.566,36.518,Spencer Creek Cove - Oologah Lake,918.341.3690,OK,Foyil
-96.555,35.209,Sportsmans Lake,405.257.3600,OK,Seminole
-99.839,35.773,Spring Creek,580.497.2143/505.346.3804,OK,Cheyenne
-94.922,35.749,Standing Rock - Tenkiller Ferry Lake, ,OK,Cookson
-95.066,35.616,Strayhorn Landing - Tenkiller Ferry Lake,918.487.5252,OK,Gore
-96.606,35.799,Stroud Municipal Lake, ,OK,Stroud
-95.122,35.523,Summers Ferry, ,OK,Gore
-96.291,35.952,Sunset Bay,918.247.6391,OK,Kellyville
-99.565,36.558,Supply  Park - Fort Supply Lake,580.766.2701,OK,Woodward
-94.952,34.783,Talimena State Park,918.567.2052,OK,Talihina
-96.103,36.324,Tall Chief Cove - Skiatook Lake,918.288.6820,OK,Skiatook
-95.282,35.931,Taylor Ferry - Fort Gibson Lake,918.485.4792,OK,Wagoner
-97.928,34.753,Taylor Lake,580.658.5401,OK,Marlow
-95.034,35.608,Tenkiller State Park,918.489.5641,OK,Vian
-97.02,34.461,The Point - Chickasaw National Rec Area,580.622.3165,OK,Sulphur
-97.399,35.407,Tinker AFB Military,405.734.2847,OK,
-97.094,34.079,Tipps Point - Lake Murray State Park,580.223.4044,OK,Ardmore
-95.124,34.215,Turkey Creek - Pine Creek Lake,580.933.4239,OK,Ringold
-97.144,34.429,Turner Falls  Park,580.369.2988,OK,Davis
-94.757,36.803,Twin Bridges State Park,918.542.6969,OK,Fairland
-96.172,36.538,Twin Cove Point - Birch Lake,918.396.3170,OK,Barnsdall
-96.234,36.394,Twin Points - Skiatook Lake,918.396.1376,OK,Skiatook
-95.683,36.422,Verdigris River - Oologah Lake,918.443.2250,OK,Oologah
-94.775,34.936,Victor Area - Lake Wister State Park,918.655.7212,OK,Wister
-95.379,34.049,Virgil Point - Hugo Lake,580.326.3345,OK,Hugo
-96.096,36.924,Wah - Sha - She State Park,918.336.5635,OK,Copan
-95.273,35.879,Wahoo Bay - Fort Gibson Lake,918.682.4314,OK,Muskogee
-96.281,36.249,Walnut Creek State Park,918.865.4991,OK,Prue
-94.746,34.943,Wards Landing - Lake Wister State Park,918.655.7212,OK,Wister
-95.935,36.907,Washington Cove - Copan Lake,918.532.4129,OK,Copan
-96.258,36.198,Washington Irving Cove - Keystone Lake,918.865.2621,OK,
-96.836,36.792,Washunga Bay - Kaw Lake,580.762.5611,OK,Ponca City
-97.114,35.411,Wes Watkins Reservoir,405.964.4507,OK,McLoud
-96.591,33.864,West Burns Run - Lake Texoma,580.965.4922,OK,Colbert
-96.522,35.183,Wewoka Lake, ,OK,Wewoka
-98.108,34.291,Wichita Ridge - Waurika Lake,580.963.2111,OK,Hastings
-96.572,33.896,Willafa Woods - Lake Texoma, ,OK,Cartwright
-96.572,33.983,Willow Springs - Lake Texoma, ,OK,Mead
-94.678,34.714,Winding Stair,918.567.2326/501.321.5202,OK,Heavener
-95.562,36.528,Winganon Ramp - Oologah Lake,918.443.2250,OK,Chelsea
-81.489,33.55,Aiken State Park,803.649.2857,SC,Windsor
-80.81,34.843,Andrew Jackson State Park,803. 285.3344,SC,Lancaster
-82.357,33.889,Baker Creek State Park,864.443.2457,SC,Abbeville
-81.301,33.329,Barnwell State Park,803.284.2212,SC,Blackville
-81.707,34.448,Brick House,803.276.4810/803.561.4000,SC,Whitmire
-79.561,33.039,Buckhall,/803.561.4000,SC,Mcclellanville
-83.118,34.969,Burrells Ford,864.638.9568/803.561.4000,SC,Mountain Rest
-82.616,34.108,Calhoun Falls State Rec Area,864.447.8267,SC,Calhoun Falls
-80.057,32.909,Charleston AFB RV Military,843.963.1672,SC,
-83.145,34.681,Chau Ram County Park,864.647.9286,SC,Walhalla
-79.911,34.638,Cheraw State Park,843.537.9656,SC,Cheraw
-83.088,34.942,Cherry Hill,864.638.9568/803.561.4000,SC,Mountain Rest
-81.249,34.684,Chester State Park,803.385.2680,SC,Chester
-82.271,33.787,Clarks Hill Military,864.443.2507,SC,Plum Branch
-80.616,33.061,Colleton State Park,843.538.8206,SC,Walterboro
-82.892,34.593,Coneross - Hartwell Lake,706.856.0300,SC,Townville
-81.871,34.892,Croft State Natural Area,864.585.1283,SC,Spartanburg
-82.115,33.849,Cyper Creek, ,SC,Edgefield
-82.951,34.952,Devils Fork State Park,864.944.2639,SC,Salem
-81.404,34.085,Dreher Island State Rec Area,803.364.4152,SC,Prosperity
-81.044,35.025,Ebenezer County Park,803.366.6620,SC,Fort Mill
-80.297,32.504,Edisto Beach State Park,843.869.2756,SC,Edisto Island
-79.47,33.199,Elmwood,/803.561.4000,SC,Jamestown
-80.455,33.965,Falcons Nest Military - Shaw AFB,803.895.0449,SC,
-79.983,32.977,Foster Creek RV Military,843.764.2120,SC,Goose Creek
-80.385,33.027,Givhans Ferry State Park,843.873.0692,SC,Ridgeville
-79.619,33.285,Guilliard Lake,/803.561.4000,SC,Jamestown
-79.928,34.562,H. Cooper Black,843.378.1555,SC,Society Hill
-82.203,33.754,Hamilton Branch State Park,864.333.2223,SC,Modoc
-82.338,33.837,Hawe Creek - Strom Thurmond Lake,864.443.5441,SC,McCormick
-82.411,33.882,Hickory Knob State Resort Park,800.491.1764,SC,Mccormick
-82.929,34.798,High Falls County Park,864.888.1488,SC,Walhalla
-79.562,33.174,Honey Hill,/803.561.4000,SC,McClellanville
-80.444,32.381,Hunting Island State Park,843.838.2011,SC,Saint Helena Island
-79.069,33.503,Huntington Beach State Park,843.237.4440,SC,Murrels Inlet
-79.982,32.736,James Island,843.795.7275,SC,Charleston
-82.887,34.931,Keowee - Toxaway State Natural Area,864.868.2605,SC,Sunset
-81.335,35.149,Kings Mountain State Park,803.222.3209,SC,Clover
-81.951,34.195,Lake Greenwood State Park,864.543.3535,SC,Ninety Six
-83.028,34.493,Lake Hartwell State Park,864.972.3352,SC,
-80.87,34.431,Lake Wateree State Rec Area,803.482.6401,SC,Winnsboro
-80.175,34.204,Lee State Natural Area,803.428.5307,SC,Bishopville
-82.49,33.921,Leroys Ferry - Strom Thurmond Lake, ,SC,Willington
-82.037,33.732,Lick Fork Lake,803.637.5396/803.561.4000,SC,Edgefield
-79.284,34.329,Little Pee Dee State Park,843.774.8872,SC,Dillon
-83.187,34.898,Long Bottom Ford,864.638.9568/803.561.4000,SC,Mountain Rest
-79.79,34.039,Lynches River County Park,843.667.0920.,SC,Coward
-82.891,34.852,Mile Creek County Park,864.868.2196,SC,Liberty
-82.217,33.722,Modoc - Strom Thurmond Lake,864.333.2272,SC,Modoc
-82.54,33.959,Mount Carmel - Strom Thurmond Lake,864.391.2711,SC,Mount Carmel
-78.928,33.657,Myrtle Beach State Park,843.238.5325,SC,Myrtle Beach
-82.871,34.601,Oconee Point - Hartwell Lake,888.893.0678,SC,Townville
-83.103,34.868,Oconee State Park,864.638.5353,SC,Mountain Rest
-82.365,34.925,Paris Mountain State Park,864.244.5565,SC,Greenville
-80.696,32.327,Parris Island RV Military,843.228.7472,SC,Beaufort
-82.362,34.109,Parsons Mountain Lake,803.637.5396/803.561.4000,SC,Abbeville
-82.482,35.092,Pleasant Ridge County Park,864.288.6470,SC,Cleveland
-80.534,33.801,Poinsett State Park,803.494.8177,SC,Wedgefield
-82.817,34.421,Sadlers Creek State Park,864.226.8950,SC,Anderson
-80.497,33.521,Santee State Park,803.854.2408,SC,Santee
-81.737,34.632,Sedalia,803.276.4810/803.561.4000,SC,Union
-80.911,34.102,Sesquicentennial State Park,803.788.2706,SC,Columbia
-79.987,33.257,Short Stay Navy Military,843.761.8353,SC,Moncks Corner
-82.962,34.715,South Cove County Park,864.888.1488,SC,Seneca
-82.823,34.447,Springfield - Hartwell Lake,888.893.0678,SC,Anderson
-80.127,34.59,Sugarloaf Mountain Rec Area - Sand Hills State Forest,843.498.6478,SC,Patrick
-82.705,35.023,Table Rock State Park,864.878.9813,SC,Pickens
-82.848,34.628,Twin Lakes - Hartwell Lake,888.893.0678,SC,Clemson
-80.729,34.383,Wateree Military,877.928.8373,SC,Camden
-80.828,34.007,Weston Lake Military - Fort Jackson,803.751.5253,SC,Hopkins
-81.452,34.701,Woods Ferry,803.276.4810/803.561.4000,SC,Carlisle
-83.934,35.611,Abrams Creek - Great Smoky Mountains National Park,423.436.1200,TN,Chilhowee
-89.801,35.127,Agricenter RV Park,901.355.1977,TN,Memphis
-84.03,36.288,Anderson County Park,865.494.9352,TN,Andersonville
-86.603,36.105,Anderson Road,615.361.1980,TN,Nashville
-86.068,35.324,Arnold AFB Military,931.454.6084,TN,Tullahoma
-81.814,36.594,Backbone Rock Rec Area,423.735.1500/423.476.9700,TN,Bristol
-84.691,36.488,Bandy Creek - Big South Fork Area,423.286.8368,TN,Oneida
-86.222,35.455,Barton Springs,931.857.9222,TN,Normandy
-88.041,35.614,Beech Bend,731.847.4252,TN,Decaturville
-88.72,35.062,Big Hill Pond State Park,901.645.7967,TN,Pocahontas
-84.468,35.16,Big Lost Creek,423.338.3300/423.476.9700,TN,Reliance
-84.087,35.264,Big Oak Cove,423.253.8400/423.476.9700,TN,Tellico Plains
-83.928,36.243,Big Ridge State Park,865.992.5523,TN,Maynardville
-86.355,36.378,Bledsoe Creek State Park,615.452.3706,TN,Gallatin
-88.025,36.518,Boswell Landing,270.924.2000/270.924.2000,TN,Dover
-88.181,35.06,Bruton Branch Rec Area,731.689.3129,TN,Savannah
-87.878,36.619,Bumpus Mills - Lake Barkley,270.362.4236,TN,Clarksville
-83.777,35.604,Cades Cove  - Great Smoky Mountains National Park,865.448.2472,TN,Townsend
-86.515,36.304,Cages Bend,615.824.4989,TN,Old Hickory
-82.116,36.312,Cardens Bluff,423.735.1500/423.476.9700,TN,Hampton
-86.513,36.277,Cedar Creek,615.822.4846,TN,Old Hickory
-86.227,35.474,Cedar Point, ,TN,Tullahoma
-86.336,36.094,Cedars of Lebanon State Park,615.443.2769,TN,Lebanon
-83.516,36.155,Cherokee Dam,800.882.5263,TN,Jefferson City
-83.276,36.262,Cherokee Lake County Park,423.586.0325,TN,Morristown
-85.153,35.179,Chester Frost Park,423.842.3306,TN,Hixson
-88.772,35.394,Chickasaw State Rustic Park,901.989.5141,TN,Henderson
-84.609,35.154,Chilhowee Rec Area,423.338.3300/423.476.9700,TN,Benton
-86.595,36.14,Cook - J. Percy Priest Reservoir,877.444.6777,TN,Hermitage
-83.21,35.752,Cosby - Great Smoky Mountains National Park,865.436.1261,TN,Gatlinburg
-85.212,36.547,Cove Creek,423.988.2440,TN,Celina
-85.854,36.079,Cove Hollow - Center Hill Lake, ,TN,Liberty
-84.211,36.309,Cove Lake State Park,423.566.9701,TN,Caryville
-84.993,35.898,Cumberland Mountain State Rustic Park,931.484.6138,TN,Crossville
-85.462,36.541,Dale Hollow Dam,931.243.3554,TN,Celina
-84.122,35.31,Dam Creek,423.253.8400/423.476.9700,TN,Tellico Plains
-83.415,36.007,Dandridge Municipal Park - Douglas Reservoir, ,TN,Dandridge
-87.362,35.263,David Crockett State Park,931.762.9408,TN,
-84.096,35.279,Davis Branch,423.253.8400/423.476.9700,TN,Tellico Plains
-82.657,36.21,Davy Crockett Birthplace,423.257.2167,TN,Limestone
-85.91,36.299,Defeated Creek,615.774.3141,TN,Carthage
-82.11,36.257,Dennis Cove Rec Area,423.735.1500/423.476.9700,TN,Hampton
-84.089,35.419,Double Camp/Citgo Creek,423.253.8400/423.476.9700,TN,Vonore
-83.536,35.957,Douglas Dam Headwater,865.632.3791,TN,Sevierville
-83.552,35.955,Douglas Dam Tailwater,865.632.3791,TN,Sevierville
-85.832,36.08,Edgar Evins State Park,931.858.2446,TN,Silver Point
-83.586,35.659,Elkmont - Great Smoky Mountains National Park,865.436.1271,TN,Gatlinburg
-85.357,35.655,Fall Creek Falls State Park,800.250.8611,TN,Pikeville
-85.752,36.049,Floating Mill - Center Hill Lake,931.858.3125,TN,Silver Point
-84.756,35.66,Fooshee Pass,423.334.4842,TN,Ten Mile
-85.676,35.185,Foster Falls,423.942.5759,TN,Tracy City
-84.509,36.123,Frozen Head State Park,423.346.3318,TN,Wartburg
-89.854,35.626,Ft. Pillow State Historic Area,901.738.5581,TN,Henning
-87.904,36.557,Gatlin Point,270.924.2000/270.924.2000,TN,Dover
-84.549,35.234,Gee Creek,423.263.0050,TN,Delano
-87.145,36.284,Harpeth River Bridge,615.792.4195,TN,Ashland City
-85.112,35.168,Harrison Bay State Park,423.344.6214,TN,Harrison
-86.695,35.59,Henry Horton State Park,931.364.2225,TN,Chapel Hill
-84.178,35.285,Holly Flats,423.253.8400/423.476.9700,TN,Tellico Plains
-85.821,36.022,Holmes Creek - Center Hill Lake,615.597.7191,TN,Smithville
-84.708,35.693,Hornsby Hollow, ,TN,Ten Mile
-82.657,36.109,Horse Creek Rec Area,423.638.4109/423.476.9700,TN,Chuckey
-82.945,35.964,Houston Valley, ,TN,Greeneville
-84.107,35.4,Indian Boundary Rec Area,423.253.8400/423.476.9700,TN,Tellico Plains
-84.142,36.591,Indian Mountain State Park,423.784.7958,TN,Jellico
-82.009,36.566,Jacobs Creek Rec Area,423.735.1500/423.476.9700,TN,Bristol
-84.112,35.447,Jake Best,423.253.8400/423.476.9700,TN,Vonore
-82.848,36.088,Kinser Park,423.639.5912,TN,Greeneville
-85.3,36.604,Lillydale,931.823.4155,TN,Celina
-82.062,36.52,Little Oak,423.735.1500/423.476.9700,TN,Elizabethton
-85.864,36.077,Long Branch - Center Hill Lake,615.548.8002,TN,Lancaster
-83.934,35.639,Look Rock - Great Smoky Mountains National Park,865.436.1200,TN,Chilhowee
-84.236,35.669,Lotterdale Cove,865.856.3832,TN,Greenback
-82.126,36.441,Low Gap Camp,423.735.1500/423.476.9700,TN,Elizabethton
-83.969,36.267,Loyston Point,865.494.9369,TN,Andersonville
-85.561,35.031,Marion County Park,423.942.6653,TN,Jasper
-83.461,36.212,May Springs,865.632.3791,TN,Rutledge
-85.092,35.903,Meadow Lake City Park,931.788.2034,TN,Crossville
-90.045,35.345,Meeman Shelby Forest State Park,800.471.5293,TN,Millington
-84.298,35.881,Melton Hill Dam,865.988.2440,TN,Lenoir City
-87.461,35.512,Meriwether Lewis,662.680.4027,TN,Hohenwald
-89.866,35.328,Midway RV Military,901.874.5496,TN,Millington
-87.286,36.096,Montgomery Bell State Park,615.797.9052,TN,Burns
-88.015,35.667,Mousetail Landing State Park,901.847.0841,TN,Linden
-88.266,35.794,Natchez Trace State Park,901.968.8176,TN,Wildersville
-87.978,36.089,Nathan Bedford Forrest State Park,731.584.6356,TN,
-89.853,35.367,Navy Lake Military,901.872.3660,TN,Millington
-84.134,36.239,Norris Dam State Park,865.426.7461,TN,Lake City
-84.127,35.319,North River Composite,423.253.8400/423.476.9700,TN,Tellico Plains
-84.231,35.523,Notchy Creek - Tellico Lake,865.856.3832,TN,Madisonville
-85.17,36.53,Obey River,931.864.6388,TN,Livingston
-82.68,36.091,Old Forge,423.638.4109/423.476.9700,TN,
-86.102,35.494,Old Stone Fort State Park,931.723.5073,TN,Manchester
-82.845,35.987,Paint Creek,423.638.4109/423.476.9700,TN,Greeneville
-83.405,36.204,Panther Creek State Park,423.587.7046,TN,Morristown
-88.086,36.438,Paris Landing State Park,731.644.7359,TN,Buchanan
-84.575,35.117,Parksville,423.338.3300/423.476.9700,TN,Benton
-82.499,36.291,Persimmon Ridge City Park,423.753.2036,TN,Jonesborough
-84.797,36.551,Pickett State Rustic Park,931.879.5821,TN,Jamestown
-88.26,35.067,Pickwick Dam Tailwater,800.882.5263,TN,Savannah
-88.24,35.055,Pickwick Landing State Park,901.689.3129,TN,Pickwick Dam
-88.035,36.487,Piney,270.924.2000/270.924.2000,TN,Dover
-84.099,35.827,Poland Creek, ,TN,Louisville
-86.512,36.053,Poole Knobs,615.459.6948,TN,Lavergne
-85.086,35.303,Possum Creek RV Park,423.332.8468,TN,Soddy Daisy
-84.548,35.229,Quinn Springs Rec Area,423.338.3300/423.476.9700,TN,Benton
-85.703,35.975,Ragland Bottom,931.761.3616,TN,Smithville
-89.413,36.354,Reelfoot Lake State Park,800.250.8617,TN,Tiptonville
-84.526,35.828,Riley Creek,865.376.2299,TN,Kingston
-82.087,36.172,Roan Mountain State Park,423.772.0190,TN,Roan Mountain
-84.666,36.07,Rock Creek - Obed River,423.346.6294,TN,Wartburg
-82.348,36.138,Rock Creek Rec Area,423.638.4109/423.476.9700,TN,Erwin
-85.65,35.807,Rock Island State Park,800.713.6065,TN,Rock Island
-82.956,35.838,Round Mountain,423.638.4109/423.476.9700,TN,Greeneville
-88.05,36.669,Rushing Creek-Lake Access,270.924.2000/270.924.2000,TN,Canton
-85.069,35.372,Sale Creek, ,TN,Sale Creek
-85.789,36.322,Salt Lick Creek,931.678.4718,TN,Carthage
-86.57,36.134,Seven Points,615.889.1975,TN,Hermitage
-83.534,35.947,Sevier County Park - Douglas Reservoir,865.654.5313,TN,Sevierville
-85.609,35.008,Shellmound - Nickajack Dam Reservation, ,TN,Jasper
-86.569,36.247,Shutes Branch,615.754.4847,TN,Old Hickory
-85.073,35.242,Skull Island,423.344.7722,TN,Harrison
-84.113,35.304,Spivey Cove,423.253.8400/423.476.9700,TN,Tellico Plains
-85.413,36.476,Standing Stone State Rustic Park,931.823.6347,TN,Hilham
-84.081,35.262,State Line,423.253.8400/423.476.9700,TN,Murphy
-84.603,35.028,Sylco,423.338.3300/423.476.9700,TN,Parksville
-90.118,35.064,T.O. Fuller State Park,901.543.7581,TN,Memphis
-84.485,35.076,Thunder Rock,423.338.3300/423.476.9700,TN,Ducktown
-86.253,35.222,Tims Ford State Park,931.962.1183,TN,Winchester
-84.191,35.564,Toqua Beach - Tellico Lake,423.884.3317,TN,Vonore
-84.467,35.017,Tumbling Creek,423.338.3300/423.476.9700,TN,Copperhill
-82.487,36.499,Warriors Path State Park,423.239.8531,TN,Kingsport
-82.134,36.347,Watauga Dam Tailwater,423.542.3533,TN,Elizabethton
-85.344,36.587,Willow Grove - Dale Hollow Lake,931.243.3136,TN,
-84.216,35.771,Yarberry Peninsula,865.986.7420,TN,
-100.904,29.516,277 North - Amistad National Rec Area,830.775.7491,TX,Del Rio
-99.879,32.241,Abilene State Park,325.572.3204,TX,Tuscola
-97.388,26.28,Adolph Thomae Jr. County Park,956.748.2044,TX,Arroyo City
-97.237,31.61,Airport - Lake Waco,254.756.5359,TX,Waco
-94.59,32.802,Alley Creek - Lake Of The Pines,903.755.2637,TX,Jefferson
-101.909,30.917,Alley Oop Trailer Park,432.639.2301,TX,Iraan
-97.172,26.148,Andy Bowie County Park,956.761.3704,TX,South Padre Is
-97.953,30.402,Arkansas Bend - Lake Travis, ,TX,Austin
-94.25,33.231,Atlanta State Park,903.796.6476,TX,Atlanta
-96.847,28.39,Austwell City Park, ,TX,Austwell
-98.677,30.755,Badu Park,325.247.6961,TX,Llano
-99.945,31.749,Ballinger City Park,325.365.3511,TX,Ballinger
-100.036,31.739,Ballinger Lake Park, ,TX,Ballinger
-103.787,30.946,Balmorhea State Park,432.375.2370,TX,Toyahvale
-97.287,30.11,Bastrop State Park,512.321.2101,TX,Bastrop
-97.544,31.136,Belton Lake Military - Fort Hood,254.287.2523,TX,Belton
-98.383,26.173,Bentsen - Rio Grande Valley State Park,512.389.8900,TX,Mission
-97.635,30.686,Berry Springs Park and Preserve,512.930.0040,TX,Georgetown
-96.569,30.329,Big Creek Park and Marina,979.596.1616,TX,Somerville
-96.635,30.309,Birch Creek - Lake Somerville State Park,979.535.7763,TX,Somerville
-97.313,27.466,Bird Island - Padre Island National Seashore,361.949.8068,TX,Corpus Christi
-97.593,33.342,Black Creek Lake,940.627.5475/936.639.8501,TX,Decatur
-98.454,30.765,Black Rock Park,512.389.8900,TX,Honey Creek
-98.427,30.09,Blanco State Park,830.833.4333,TX,Blanco
-101.631,35.681,Blue West - Lake Meredith National Rec Area,806.857.3151,TX,Sanford
-97.151,25.997,Boca Chica Beach, ,TX,Brownsville
-93.96,31.772,Boles Field,409.787.3870/936.639.8501,TX,Shelbyville
-96.137,33.643,Bonham Lake City Rec Area,903.583.7555,TX,Bonham
-96.146,33.547,Bonham State Park,903.583.5022,TX,Bonham
-97.658,33.882,Boone Park - Lake Nocona,940.825.3282,TX,Nocona
-94.318,31.029,Bouton Lake,936.897.1068/936.639.8501,TX,Zavalla
-94.278,31.059,Boykin Spring,936.897.1068/936.639.8501,TX,Zavalla
-96.538,28.946,Brackenridge Plantation, ,TX,Edna
-99.383,31.129,Brady Lake City Park,325.597.1073,TX,Brady
-98.392,29.253,Braunig Lake Park,210.302.4270,TX,Elmendorf
-95.632,29.371,Brazos Bend State Park,972.553.5101,TX,Needville
-96.55,33.081,Brockdale Park, ,TX,Allen
-98.435,29.334,Brooks AFB Military,210.536.2881,TX,San Antonio
-94.543,32.738,Brushy Creek - Lake Of The Pines,903.777.3491,TX,Jefferson
-95.336,28.912,Bryan Beach,979.233.3526,TX,Brazosport
-94.492,32.754,Buckhorn Creek - Lake Of The Pines,903.665.8261,TX,Jefferson
-97.158,30.039,Buescher State Park,512.237.2241,TX,Smithville
-101.727,33.526,Buffalo Springs Lake,806.747.3353,TX,Lubbock
-101.592,35.725,Bugbee - Lake Meredith National Rec Area,806.857.3151,TX,Sanford
-101.173,32.594,Bull Creek Park - Lake J. B. Thomas, ,TX,
-94.176,32.68,Caddo Lake State Park,903.679.3351,TX,Karnack
-95.587,30.527,Cagle Rec Area,936.344.6205/936.639.8501,TX,New Waverly
-98.294,29.307,Calaveras Lake Park,210.635.8359,TX,San Antonio
-98.354,28.466,Calliham - Choke Canyon State Park,361.786.3868,TX,Calliham
-98.192,30.564,Camp Creek - Lake Travis,800.776.5272,TX,
-97.758,30.319,Camp Mabry Military,512.782.5500,TX,Austin
-95.289,29.337,Camp Mohawk County Park, ,TX,Alvin
-94.202,30.823,Campers Cove - Town Bluff Reservoir,409.429.3491,TX,Woodville
-100.375,35.923,Canadian City Park, ,TX,Canadian
-94.257,31.137,Caney Creek,936.897.1068/936.639.8501,TX,Zavalla
-98.234,29.896,Canyon - Canyon Lake,830.964.3341,TX,New Braunfels
-98.216,29.883,Canyon Lake Military - Randolph AFB,830.226.5465,TX,Canyon Lake
-98.437,30.879,Canyon of the Eagles Nature Park,512.715.0290,TX,
-101.06,34.413,Caprock Canyons State Park,806.455.1492,TX,Quitaque
-96.15,28.786,Carl Park, ,TX,Palacios
-94.189,33.261,Cass County Park, ,TX,Queen City
-94.36,31.193,Cassells - Boykin County Park,936.634.6644,TX,Zavalla
-98.885,29.342,Castroville Regional Park,830.931.0033,TX,Castroville
-96.85,33.842,Cedar Bayou Marina - Lake Texoma,903.523.4248,TX,
-97.737,30.674,Cedar Breaks - Lake Georgetown,512.930.5253,TX,Georgetown
-101.565,35.693,Cedar Canyon - Lake Meredith National Rec Area,806.857.3151,TX,
-97.373,31.99,Cedar Creek - Lake Whitney,254.622.3332,TX,Whitney
-96.98,32.622,Cedar Hill State Park,972.291.3900,TX,Cedar Hill
-98.454,30.87,Cedar Point Rec Area, ,TX,
-97.443,31.17,Cedar Ridge - Belton Lake,254.986.1404,TX,Temple
-94.697,32.841,Cedar Springs - Lake Of The Pines,903.665.2336,TX,Ore City
-97.414,31.962,Cedron Creek,254.694.3189,TX,Whitney
-102.555,32.318,Chamber of Commerce Park - Andrews,432.523.2695,TX,Andrews
-102.559,32.942,Chamber of Commerce RV Park - Seagraves, ,TX,Seagraves
-95.615,28.771,Chamber Park, ,TX,Sargent
-101.653,35.695,Chimney Hollow - Lake Meredith NRA,806.857.3151,TX,Sanford
-103.303,29.276,Chisos Basin - Big Bend National Park,432.477.1121,TX,
-100.203,34.432,City Fair Park - Childress, ,TX,Childress
-94.986,32.272,City Park Camp - Overton,903/834.3171,TX,Overton
-99.177,33.17,City RV Park - Throckmorton, ,TX,Throckmorton
-93.921,30.134,Claiborne West Park,409.745.2255,TX,Vidor
-96.488,33.059,Clear Lake Park - Lavon Lake,972.442.3014,TX,Princeton
-94.186,33.358,Clear Springs - Wright Patman Lake,903.838.8781,TX,Texarkana
-97.55,32.252,Cleburne State Park,817.645.4215,TX,Cleburne
-95.974,33.737,Coffeemill,940.627.5475/936.639.8501,TX,Honey Grove
-102.274,33.171,Coleman City RV Park, ,TX,Brownfield
-97.176,28.714,Coleto Creek Park,361.575.6366,TX,Victoria
-98.505,31.059,Colorado Bend State Park,325.628.3240,TX,San Saba
-99.741,31.558,Concho Park - O.H. Ivie Reservoir, ,TX,
-99.743,34.113,Copper Breaks State Park,940.839.4331,TX,Quanah
-98.503,31.963,Copperas Creek - Proctor Lake,254.879.2498,TX,Comanche
-103.523,29.137,Cottonwood - Big Bend National Park,432.477.1121,TX,
-102.36,31.397,Crane 4-H RV Park,432.558.3522,TX,Crane
-98.292,29.89,Cranes Mill Park - Canyon Lake,830.964.3341,TX,Sattler
-101.232,33.657,Crosbyton City RV Park, ,TX,Crosbyton
-97.274,29.085,Cuero City Park, ,TX,Cuero
-97.873,30.431,Cypress Creek - Lake Travis,512.854.7275,TX,Austin
-94.691,33.013,Daingerfield State Park,903.645.2921,TX,Daingerfield
-98.676,32.364,Dam  - Leon Reservoir,254.647.1976,TX,Eastland
-96.564,33.818,Dam Site,903.465.4490,TX,Denison
-97.609,31.017,Dana Peak - Stillhouse Hollow Lake,254.698.4282,TX,Belton
-103.929,30.599,Davis Mountains State Park,432.426.3337,TX,Fort Davis
-97.691,32.378,De Cordova Bend - Lake Granbury,817.573.3212,TX,Granbury
-98.524,32.118,De Leon Community Park,254.893.2065,TX,De Leon
-94.475,32.045,Decker Hill Park - Lake Murvaul,903.693.6562,TX,
-94.872,29.243,Dellanera City RV Park,409.797.5102,TX,Galveston
-97.814,32.246,Dinosaur Valley State Park,254.897.4588,TX,Glen Rose
-95.664,33.348,Doctors Creek - Cooper Lake State Park,903.395.3100,TX,Cooper
-104.834,31.994,Dog Canyon  - Guadalupe Mountains National Park,505.981.2418,TX,Pine Springs
-95.143,33.051,Dogwood Park, ,TX,Mount Vernon
-94.631,29.679,Double Bayou County Park,409.267.8345,TX,Anahuac
-95.133,30.553,Double Lake,936.344.6205/936.639.8501,TX,Coldspring
-98.344,32.086,Dublin City Park, ,TX,Dublin
-99.812,32.434,Dyess Military - Dyess AFB,325.696.2402,TX,Abilene
-100.864,35.212,East Bluff - Lake McClellan,580.497.2143/505.346.3804,TX,
-95.922,33.735,East Lake Davy Crockett,940.627.5475/936.639.8501,TX,
-96.893,33.114,Eastvale Park - Colony,972.625.1106,TX,The Colony
-94.126,31.07,Ebenezer - Sam Rayburn Reservoir,409.384.5716,TX,Jasper
-96.6,33.81,Eisenhower State Park,903.465.1956,TX,Denison
-94.317,33.405,Elliott Lake Military - Red River,903.334.2254,TX,Maud
-97.841,30.327,Emma Long Metropolitan Park,512.346.1831,TX,Austin
-98.814,30.501,Enchanted Rock State Natural Area,325.247.3903,TX,Fredericksburg
-100.517,31.342,Equalization Channel  - Twin Buttes Reservoir,325.277.8766,TX,San Angelo
-96.655,33.255,Erwin Park - McKinney,972.547.2690,TX,McKinney
-98.725,28.114,Escondido Ranch Military - Kingsville NAS,830.373.4419,TX,Tilden
-100.203,34.432,Fair Park - Childress, ,TX,Childress
-96.072,31.765,Fairfield Lake State Park,903.389.4514,TX,Fairfield
-99.128,26.565,Falcon County Park, ,TX,Falcon Heights
-99.143,26.583,Falcon State Park,956.848.5327,TX,Falcon Heights
-96.92,31.25,Falls on the Brazos Park, ,TX,Marlin
-97.749,31.425,Faunt Leroy City Park, ,TX,Gatesville
-97.749,31.425,Fauntleroy City Park, ,TX,Gatesville
-98.596,33.113,Firemans City Park - Graham,940.549.3322,TX,Graham
-95.252,32.62,Fish Hawke Point, ,TX,Mineola
-99.57,31.829,Flatrock Park - Hords Creek Lake,325.625.2322,TX,Coleman
-102.571,32.455,Florey City Park, ,TX,Andrews
-95.996,28.788,FM 521 River Park,361.972.2719,TX,Wadsworth
-101.955,32.723,Forrest Park - Lamesa, ,TX,Lamesa
-94.688,29.756,Fort Anahuac County Park,409.267.8345,TX,Anahuac
-98.741,33.15,Fort Belknap County Park, ,TX,Newcastle
-106.443,31.841,Fort Bliss RV Military,915.568.4693,TX,El Paso
-99.225,32.923,Fort Griffin State Historic Site,325.762.3592,TX,Albany
-99.212,30.737,Fort Mason City Park, ,TX,Mason
-96.527,31.592,Fort Parker State Park,254.562.5751,TX,Mexia
-103.287,30.152,Fort Pena Colorada Park, ,TX,Marathon
-98.419,29.465,Fort Sam Houston Army RV Military, ,TX,San Antonio
-106.498,31.905,Franklin Mt. State Park - Tom Mays Unit,915.566.6441,TX,El Paso
-101.593,35.683,Fritch Fortress - Lake Meredith National Rec Area,806.857.3151,TX,Sanford
-102.642,32.831,Gaines County Park,432.758.4002,TX,Seminole
-94.957,29.198,Galveston Island State Park,409.737.1222,TX,Galveston
-99.738,29.587,Garner State Park,830.232.6132,TX,Concan
-96.053,30.616,Gibbons Creek Reservoir,936.873.2424,TX,Carlos
-102.617,31.989,Goldsmith City Park, ,TX,Goldsmith
-97.389,28.653,Goliad State Park,361.645.3405,TX,Goliad
-100.487,31.377,Goodfellow AFB Military,325.944.1012,TX,San Angelo
-96.984,28.133,Goose Island State Park,361.729.2858,TX,Rockport
-95.454,32.792,Governor Jim Hogg RV Park - Quitman, ,TX,Quitman
-101.029,29.479,Governors Landing - Amistad National Rec Area,830.775.7491,TX,Del Rio
-95.035,29.482,Green Caye County RV Park,281.337.0289,TX,Dickinson
-97.183,29.45,Green Dickson Park,361.594.3362,TX,Shriner
-98.142,30.481,Grelle - Lake Travis,800.776.5272,TX,
-98.504,29.853,Guadalupe River State Park,830.438.2656,TX,Spring Branch
-96.943,29.452,Hallettsville City Park, ,TX,Hallettsville
-100.131,32.875,Hamlin City Park, ,TX,Hamlin
-97.483,32.174,Hamm Creek County Park,817.556.9311,TX,Rio Vista
-94.405,31.273,Hanks Creek - Sam Rayburn Reservoir,409.384.5716,TX,Huntington
-98.18,33.8,Hapgood RV Park, ,TX,Henrietta
-101.628,35.646,Harbor Bay - Lake Meredith National Rec Area,806.857.3151,TX,Sanford
-94.267,31.213,Harvey Creek,936.897.1068/936.639.8501,TX,Broaddus
-99.731,33.153,Haskell City Park,940.864.2333,TX,Haskell
-102.398,34.835,Hereford City RV Park, ,TX,Hereford
-94.331,33.292,Herron Creek - Wright Patman Reservoir, ,TX,Maud
-97.039,33.115,Hickory Creek - Lewisville Lake,469.645.9100,TX,Lewisville
-98.032,31.976,Hico City Park, ,TX,Hico
-96.664,32.268,Highview - Bardwell Lake,972.875.5711,TX,Ennis
-100.972,35.528,Hobart Street Park,806.669.5770,TX,Pampa
-97.497,32.618,Holiday Park - Benbrook Lake,817.292.2400,TX,Fort Worth
-96.045,29.162,Hollywood Bottom Park, ,TX,
-97.135,29.304,Hub City RV Park,361.293.5682,TX,Yoakum
-101.398,35.654,Huber City Park,806.273.2883,TX,Borger
-106.043,31.927,Hueco Tanks State Historic Site,915.849.6684,TX,El Paso
-94.799,29.812,Hugo Point County Park,409.267.8345,TX,Cove
-97.794,32.478,Hunter Park - Lake Granbury,817.573.3212,TX,Granbury
-95.528,30.626,Huntsville State Park,936.295.5644,TX,Huntsville
-94.515,32.784,Hurricane Creek - Lake of the Pines, ,TX,Jefferson
-97.05,27.832,IB Magee Beach County Park,361.749.6117,TX,Port Aransas
-97.45,29.484,Independence City Park, ,TX,Gonzales
-93.695,31.309,Indian Mounds,409.787.3870/936.639.8501,TX,Hemphill
-96.488,28.512,Indianola County Historic Park,361.553.4689,TX,Port Lavaca
-98.369,30.737,Inks Lake State Park,512.793.2223,TX,Burnet
-94.171,33.347,Intake Hill Park- Wright Patman Lake, ,TX,Texarkana
-104.041,29.481,Interior - Big Bend Ranch State Park,432.358.4444,TX,Redford
-97.479,31.284,Iron Bridge - Belton Lake,254.939.2461,TX,Temple
-97.16,26.073,Isla Blanca County Park,956.761.5494,TX,South Padre Is
-97.013,33.366,Isle du Bois - Roberts Lake State Park,940.686.2148,TX,Pilot Point
-95.139,33.067,Jack Guthrie Park - Monticello Reservoir,903.537.4536,TX,
-94.302,33.221,Jackson Creek Park - Lake Texarkana,903.838.8781,TX,Atlanta
-94.322,31.271,Jackson Hill - Sam Rayburn Reservoir,409.384.5716,TX,Broaddus
-94.784,29.544,James H. Robbins Memorial Park, ,TX,Anahuac
-100.574,33.254,Jayton RV Park, ,TX,Jayton
-95.977,28.598,Jetty County Park - Matagorda, ,TX,Matagorda
-97.747,30.687,Jim Hogg - Lake Georgetown,512.930.5253,TX,
-94.692,29.656,Job Beason County Park,409.267.8345,TX,Anahuac
-97.644,33.885,Joe Benton Park - Lake Nocona,940.825.3282,TX,Nocona
-98.714,31.194,Joe Ragsdale RV Park, ,TX,San Saba
-97.82,27.798,John J. Sablatura Park,800.766.2322,TX,Banquete
-97.057,33.43,Johnson Branch - Roberts Lake State Park,940.637.2294,TX,Valley View
-94.553,32.79,Johnson Creek - Lake Of The Pines,903.755.2435,TX,
-99.761,30.487,Junction City Park, ,TX,Junction
-96.832,33.86,Juniper Point - Lake Texoma,903.523.4022,TX,Whitesboro
-97.681,27.316,Kaufer - Hubert - SeaWind RV Park,361.297.5738,TX,Riviera
-94.25,33.29,Kelly Creek Park - Lake Wright Patman, ,TX,Maud
-95.662,30.511,Kellys Pond,936.344.6205/936.639.8501,TX,Montgomery
-99.648,31.514,Kennedy Park - O.H. Ivie Reservoir, ,TX,Coleman
-99.121,30.01,Kerrville - Schreiner City Park,830.257.5392,TX,Kerrville
-100.432,29.613,Kickapoo Cavern State Park,830.563.2342,TX,Bracketville
-97.498,32.123,Kimball Bend -  Lake Whitney,254.622.3332,TX,
-100.897,35.011,Kincaid City Park, ,TX,
-98.648,33.194,Kindley City Park, ,TX,Graham
-97.631,27.894,Labonte Park, ,TX,Corpus Christi
-98.614,29.399,Lackland AFB Military,210.671.5179,TX,Lackland Afb
-98.911,30.242,Lady Bird Johnson City Park,830.997.4202,TX,Fredericksburg
-98.395,33.758,Lake Arrowhead State Park,940.528.2211,TX,Wichita Falls
-95.099,33.054,Lake Bob Sandlin State Park,903.572.5531,TX,
-99.029,31.857,Lake Brownwood State Park,325.784.5223,TX,
-99.451,27.539,Lake Casablanca State Park,956.725.3826,TX,
-100.935,32.316,Lake Colorado City State Park,325.728.3931,TX,Colorado City
-97.868,28.055,Lake Corpus Christi State Park,361.547.2635,TX,Mathis
-98.872,32.648,Lake Daniel City Park, ,TX,
-98.597,33.138,Lake Eddleman City Park, ,TX,Graham
-97.788,32.417,Lake Granbury Marina and RV Park,817.573.3212,TX,Granbury
-95.256,32.612,Lake Hawkins County RV Park, ,TX,Hawkins
-95.547,32.688,Lake Holbrook Park - South, ,TX,Mineola
-95.557,32.7,Lake Holbrook Park - West,903.569.6351,TX,Mineola
-95.158,30.142,Lake Houston Wilderness Park,832.395.7000,TX,New Caney
-95.29,31.92,Lake Jacksonville Campground,903.586.8268,TX,Jacksonville
-100.283,31.883,Lake Knifrim County Park, ,TX,Bronte
-95.001,30.657,Lake Livingston State Park,936.365.2201,TX,Livingston
-101.437,34.55,Lake Mackenzie Park, ,TX,Silverton
-100.181,35.886,Lake Marvin,580.497.2143/505.346.3804,TX,Canadian
-96.592,31.656,Lake Mexia Rec Area, ,TX,Mexia
-98.042,32.815,Lake Mineral Wells State Park,940.328.1171,TX,Mineral Wells
-94.696,32.842,Lake Of The Pines,903.665.2336,TX,Ore City
-101.167,36.347,Lake Palo Duro,806.882.4401,TX,Spearman
-97.021,33.084,Lake Park - Lewisville,972.219.3742,TX,Lewisville
-95.447,32.858,Lake Quitman Park, ,TX,Quitman
-100.303,32.441,Lake Sweetwater Park, ,TX,Sweetwater
-95.994,32.842,Lake Tawakoni State Park,903.560.7123,TX,Wills Point
-94.406,30.903,Lake Tejas City Park,409.837.5757,TX,Colmesneil
-96.547,28.955,Lake Texana State Park,361.782.5718,TX,Edna
-100.433,32.365,Lake Trammell Park,325.235.5191,TX,Sweetwater
-97.358,31.93,Lake Whitney State Park,254.694.3793,TX,Whitney
-95.356,32.918,Lake Winnsboro North Park,903.763.2716,TX,Winnsboro
-97.496,29.472,Lake Wood Rec Area,830.672.2779,TX,Gonzales
-96.444,33.103,Lakeland - Lavon Lake,972.442.3141,TX,Wylie
-99.592,31.838,Lakeside - Hords Creek Lake,325.625.2322,TX,Coleman
-93.679,31.262,Lakeview,409.787.3870/936.639.8501,TX,
-95.628,33.825,Lamar Point - Pat Mayse Lake,903.732.3020,TX,Paris
-101.958,32.723,Lamesa RV Park,806.872.4342,TX,Lamesa
-101.56,29.809,Langtry Wagon Wheel,432.291.3227,TX,Langtry
-100.783,29.352,Laughlin AFB Military,830.298.5830,TX,Laughlin Afb
-96.451,33.033,Lavonia - Lavon Lake,972.442.3141,TX,Wylie
-102.375,33.554,Levelland City RV Park,806.894.4161,TX,Levellnd
-96.716,31.946,Liberty Hill - Navarro Mills Reservoir,254.578.1431,TX,Dawson
-96.614,28.638,Lighthouse Beach RV Park,361.552.5311,TX,Port Lavaca
-96.664,33.861,Lighthouse Resort,972.838.4600,TX,Pottsboro
-101.387,33.67,Lions Park - Ralls, ,TX,Ralls
-96.945,33.158,Little Elm Park,972.731.3296,TX,Little Elm
-97.476,31.115,Live Oak Ridge Park - Belton Lake,254.780.1738,TX,Belton
-97.698,29.855,Lockhart State Park,512.398.3479,TX,
-97.353,31.89,Lofers Bend East - Lake Whitney,254.694.3189,TX,
-97.367,31.883,Lofers Bend West - Lake Whitney,254.694.3189,TX,Whitney
-98.388,31.203,Lometa Regional Park, ,TX,Lometa
-99.571,29.808,Lost Maples State Natural Area,830.966.3413,TX,Vanderpool
-97.061,32.616,Loyd County Park,817.467.2104,TX,Grand Prairie
-96.528,28.557,Magnolia Beach, ,TX,Magnolia Beach
-94.232,30.88,Magnolia Ridge - Town Bluff Reservoir,409.429.3491,TX,Jasper
-97.301,27.426,Malaquite - Padre Island National Seashore,361.949.8068,TX,
-94.348,33.267,Malden Lake - Wright Pattman Lake,903.838.8781,TX,Maud
-101.093,33.46,Marina  - White River Reservoir,806.263.4244,TX,Crosbyton
-94.566,32.278,Martin Creek Lake State Park,903.836.4336,TX,
-94.172,30.853,Martin Dies State Park,409.384.5231,TX,Jasper
-95.978,28.599,Matagorda Bay Nature Park,979.863.7120,TX,Matagorda
-101.734,35.544,McBride Canyon/Mullinaw Creek - Lake Meredith NRA,806.857.3151,TX,Sanford
-100.875,35.211,McClellan - Lake McClellan,580.497.2143/505.346.3804,TX,
-94.828,29.747,McCollum County Park,409.267.8345,TX,Baytown
-97.406,31.945,McCown Valley - Lake Whitney,254.694.3189,TX,Whitney
-100.868,35.215,McDowell - Lake McClellan,580.497.2143/505.346.3804,TX,Groom
-97.721,30.179,McKinney Falls State Park,512.243.1643,TX,Austin
-97.702,31.891,Meridian State Park,254.435.2536,TX,Meridian
-100.52,31.379,Middle Concho Park,325.481.2617,TX,San Angelo
-97.227,31.526,Midway - Lake Waco,254.756.5359,TX,Waco
-94.003,31.151,Mill Creek - Sam Rayburn Reservoir,409.384.5716,TX,Brookeland
-99.391,33.409,Millers Creek Reservoir, ,TX,Goree
-94.115,31.521,Mission Dolores City RV Park,936.275.3815,TX,San Augustine
-95.232,31.543,Mission Tejas State Park,936.687.2394,TX,Grapeland
-102.812,31.619,Monahans Sandhills State Park,432.943.2092,TX,Monahans
-95.072,33.089,Monticello Park - Monticello Reservoir, ,TX,Mount Pleasant
-101.318,32.24,Moss Creek Lake Park, ,TX,Big Spring
-97.468,31.327,Mother Neff State Park,254.853.2389,TX,Moody
-96.667,32.255,Mott - Bardwell Lake,972.875.5711,TX,Ennis
-98.099,30.487,Muleshoe Bend - Lake Travis,800.776.5272,TX,Spicewood
-102.554,32.319,Municipal Trailer Park - Andrews, ,TX,Andrews
-97.087,32.992,Murrel Park - Grapevine Reservoir,817.865.2600,TX,Flower Mound
-97.175,27.673,Mustang Island State Park,361.749.5246,TX,Port Aransas
-97.489,32.607,Mustang Park/Bear Creek  - Benbrook Lake,817.292.2400,TX,Fort Worth
-96.667,30.291,Nails Creek - Lake Somerville State Park,979.289.2392,TX,
-97.821,27.499,Nasking Rec Military - Kingsville NAS,361.516.6191,TX,Kingsville
-96.116,30.376,Navasota RV Park, ,TX,Navasota
-100.411,32.485,Newman Park,325.236.6313,TX,Sweetwater
-97.275,27.478,North Beach - Padre Island National Seashore,361.949.8068,TX,Corpus Christi
-98.206,29.874,North Park - Canyon Lake,830.964.3341,TX,New Braunfels
-97.28,30.166,North Shore Park - Lake Bastrop,800.776.5272,TX,Bastrop
-96.689,31.964,Oak Park - Navarro Mills Reservoir,254.578.1431,TX,Dawson
-96.725,29.95,Oak Thicket Park - Fayette Lake,512.389.8900,TX,
-97.395,32.009,Old Fort Park, ,TX,Whitney
-101.708,34.161,Ollie Liner RV Park,806.293.2183,TX,Plainview
-96.512,30.305,Overlook - Lake Somerville,409.596.1622,TX,Brenham
-95.169,33.065,Overlook Park - Lake Cypress Springs,903.537.4536,TX,Mount Vernon
-97.51,31.216,Owl Creek - Belton Lake,254.939.9828,TX,
-96.214,28.61,Oyster Lake County Park, ,TX,Palacios
-98.011,30.466,Pace Bend Park - Lake Travis,512.854.7275,TX,Spicewood
-99.661,31.571,Padgitt Park - O.H. Ivie Reservoir, ,TX,Coleman
-97.221,27.583,Padre Balli County Park,361.949.8121,TX,Corpus Christi
-100.58,31.902,Paint Creek Park - Spence Reservoir,325.453.2982,TX,Robert Lee
-97.585,29.597,Palmetto State Park,830.672.3266,TX,
-101.702,34.985,Palo Duro Canyon State Park,806.488.2227,TX,Canyon
-96.749,29.945,Park Prarie - Lake Fayette,979.249.3504,TX,La Grange
-95.587,33.844,Pat Mayse East - Pat Mayse Lake,903.732.3020,TX,Paris
-95.606,33.845,Pat Mayse West - Pat Mayse Lake,903.732.3020,TX,Paris
-96.742,31.967,Pecan Point - Navarro Mills Reservoir,254.578.1431,TX,
-98.258,30.308,Pedernales Falls State Park,830.868.7304,TX,Johnson City
-97.834,33.549,Pelham City Park, ,TX,Bowie
-97.07,33.103,Pilot Knoll Park - Lake Lewisville, ,TX,Highland Villa
-104.827,31.896,Pine Springs - Guadalupe Mountains National Park,915.828.3251,TX,Pine Springs
-94.168,33.299,Piney Point - Wright Patman Lake,903.838.8781,TX,Texarkana
-100.222,34.958,Pioneer County Park,806 447 5408,TX,Wellington
-97.494,32.064,Plowman Creek - Lake Whitney,254.694.3189,TX,Whitney
-101.75,35.612,Plum Creek - Lake Meredith National Rec Area,806.857.3151,TX,Sanford
-97.065,27.816,Port Aransas Beach, ,TX,Aransas Pass
-98.559,32.874,Possum Kingdom State Park,940.549.1803,TX,
-98.263,29.908,Potters Creek - Canyon Lake,830.964.3341,TX,Fredericksburg
-99.463,32.037,Press Morris Park, ,TX,Coleman
-96.649,33.884,Preston Bend - Lake Texoma,903.786.8408,TX,
-98.491,31.982,Promontory - Proctor Lake,254.893.7545,TX,
-96.39,31.425,Public Use Area 2 - Groesbeck,254.729.3810,TX,Groesbeck
-96.378,31.448,Public Use Area 3 - Groesbeck,254.729.3810,TX,Groesbeck
-96.308,31.331,Public Use Area 5 - Thornton,254.729.3810,TX,Thornton
-95.994,32.354,Purtis Creek State Park,903.425.2332,TX,Eustace
-95.304,28.933,Quintana Beach City Park,979.233.1461,TX,Freeport
-93.825,31.682,Ragtown,409.787.3870/936.639.8501,TX,
-95.15,31.391,Ratcliff Lake,936.655.2299/936.639.8501,TX,
-94.088,31.133,Rayburn - Sam Rayburn Reservoir,409.384.5716,TX,
-101.456,31.202,Reagan County Park, ,TX,Big Lake
-100.933,35.534,Recreation RV Park - Pampa,806.669.5790,TX,Pampa
-93.833,31.474,Red Hills Lake,409.787.3870/936.639.8501,TX,
-97.279,28.296,Refugio City Park, ,TX,Refugio
-97.235,31.563,Reynolds Creek - Lake Waco,254.756.5359,TX,
-99.35,31.134,Richards City Park,325.597.2152,TX,Brady
-98.157,33.206,Richardson State Park,940.567.3506,TX,Jacksboro
-98.831,32.426,Ringling Lake City Park,254.629.2294,TX,Eastland
-102.956,29.181,Rio Grande Village - Big Bend National Park,432.477.1121,TX,
-102.496,36.035,Rita Blanca Lake Park, ,TX,Dalhart
-103.915,29.295,River Road - Big Bend Ranch State Park,432.358.4444,TX,Redford
-101.081,33.463,Rivercrest Rd - White River Reservoir,806.263.4240,TX,Crosbyton
-96.014,28.921,Riverside Park - Bay City,979.245.0340,TX,Bay City
-98.976,31.736,Riverside Park - Brownwood,979.245.0340,TX,Brownwood
-100.479,31.899,Robert Lee City Park, ,TX,Robert Lee
-98.71,30.749,Robinson City Park, ,TX,Llano
-96.572,30.285,Rocky Creek - Lake Somerville,979.596.1622,TX,Somerville
-97.457,32.603,Rocky Creek Park - Benbrook Reservoir,817.292.2400,TX,Fort Worth
-94.171,33.288,Rocky Point - Wright Patman Lake,903.838.8781,TX,Texarkana
-101.893,30.911,Rocky Top RV Park,432.639.2301,TX,Iraan
-101.909,30.918,Rocky Top RV Park - Iraan, ,TX,Iraan
-94.5,29.509,Rollover Pass, ,TX,Gilchrist
-94.475,32.045,Rosie Jones Park - Lake Murvaul,903.693.6562,TX,Long Branch
-100.973,29.578,Rough Canyon - Amistad National Rec Area,830.775.7491,TX,Del Rio
-97.792,32.433,Rough Creek - Lake Granbury,817.573.3212,TX,Granbury
-100.587,31.983,Rough Creek Park - Spence Reservoir, ,TX,Robert Lee
-100.848,32.395,Ruddick City Park, ,TX,Colorado City
-95.195,31.805,Rusk - Palestine Park,903.683.5126,TX,Rusk
-97.759,30.678,Russell Park - Georgetown Lake,512.930.2283,TX,Georgetown
-101.083,33.049,Samuel W. Wahl Rec Area, ,TX,
-100.546,31.492,San Angelo State Park,325.949.4757,TX,
-94.069,31.203,San Augustine - Sam Rayburn Reservoir,409.384.5716,TX,
-95.131,29.08,San Luis Pass County Park,979.233.6126,TX,Freeport
-100.95,29.468,San Pedro - Amistad National Rec Area,830.775.7491,TX,
-98.695,31.203,San Saba Golf RV Park,325.372.3212,TX,San Saba
-95.537,33.841,Sanders Cove - Pat Mayse Lake,903.732.3020,TX,Paris
-100.897,35.011,Sandy Beach City Park - Clarendon,806.874.5111,TX,Clarendon
-101.159,32.603,Sandy Beach Park - Lake J. B. Thomas, ,TX,
-94.204,31.096,Sandy Creek,936.897.1068/936.639.8501,TX,Zavalla
-97.907,30.468,Sandy Creek - Lake Travis,512.854.7275,TX,Austin
-94.151,30.832,Sandy Creek - Town Bluff Reservoir,409.429.3491,TX,Jasper
-101.564,35.707,Sanford - Yake  - Lake Meredith National Rec Area,806.857.3151,TX,Sanford
-102.217,31.138,Santa Fe Park - McCamey, ,TX,McCamey
-99.761,30.491,Schreiner City Park - Junction,325.446.3880,TX,Junction
-97.888,33.484,Selma City Park - Lake Amon Carter,940.872.1114,TX,Bowie
-101.319,29.694,Seminole Canyon State Park,432.292.4464,TX,Comstock
-102.649,32.721,Seminole City Park,432.758.9871,TX,Seminole
-98.173,30.541,Shaffer Bend  - Lake Travis,800.776.5272,TX,Marble Falls
-96.899,33.88,Sheppard AFB Military - Lake Texoma,903.523.4613,TX,Whitesboro
-97.256,27.694,Shields Park NAS Military - Corpus Christi NAS,361.961.1293,TX,Corpus Christi
-94.375,31.309,Shirley Creek - Sam Rayburn Reservoir,409.384.5716,TX,Lufkin
-101.307,34.474,Silverton Municipal Park, ,TX,Silverton
-101.652,33.438,Slaton City Park, ,TX,Slaton
-97.313,27.391,South Beach  - Padre Island National Seashore,361.949.8068,TX,
-99.804,30.446,South Llano River State Park,325.446.3994,TX,
-100.081,32.82,South Park - Hamlin,325.576.2711,TX,Hamlin
-97.286,30.142,South Shore Park - Lake Bastrop,800.776.5272,TX,
-101.143,32.575,South Side Park - Lake J. B. Thomas, ,TX,Snyder
-95.657,33.287,South Sulphur - Cooper Lake State Park,903.945.5256,TX,
-101.038,29.473,Southwinds Marina Lake Amistad Military,830.775.7800,TX,
-98.456,31.991,Sowell Creek - Proctor Lake,254.879.2322,TX,Proctor
-97.239,31.553,Speegleville - Lake Waco,254.756.5359,TX,Waco
-100.507,31.377,Spring Creek Marina & RV Park - San Angelo,325.944.3850,TX,San Angelo
-95.653,30.105,Spring Creek Park,281.353.4196,TX,Tomball
-101.019,29.548,Spur 406 - Amistad National Rec Area,830.775.7491,TX,
-97.452,32.006,Steele Creek - Lake Whitney,254.622.3332,TX,Whitney
-96.108,29.812,Stephen Austin State Park,979.885.3613,TX,San Felipe
-98.197,32.213,Stephenville City Park,254.918.1260,TX,Stephenville
-96.917,33.083,Stewart Creek Park - Lake Lewisville,972.625.1106,TX,The Colony
-101.444,35.827,Stinnett City Park, ,TX,Stinnett
-99.797,30.919,Stock Pen Crossing RV Park - Menard,325.396.2780,TX,Menard
-95.638,30.56,Stubblefield Lake,936.344.6205/936.639.8501,TX,New Waverly
-97.572,33.382,Tadra Point,940.627.5475/936.639.8501,TX,Decatur
-97.361,30.682,Taylor - Granger Lake,512.859.2668,TX,Georgetown
-101.979,35.865,Texoma City Park - Dumas, ,TX,Dumas
-96.895,33.867,Texoma Marina,903.523.4308,TX,Whitesboro
-101.895,30.91,The Landing RV Park,432.639.2301,TX,Iraan
-94.471,33.267,Thomas Lake Park, ,TX,
-97.815,32.474,Thorp Spring - Lake Granbury,817.573.3212,TX,Granbury
-94.431,32.043,Tinkle Park - Lake Murvaul,903.693.6562,TX,
-98.191,28.463,Tips Park - Three Rivers,316.786.2528,TX,Three Rivers
-95.059,33.08,Titus County Park, ,TX,Mount Pleasant
-94.675,30.71,Tombigbee Lake  -  AC Indian Reservation,936.563.1221,TX,Livingston
-96.676,29.904,Town Square - Fayetteville, ,TX,Fayetteville
-94.314,31.352,Townsend,936.897.1068/936.639.8501,TX,Zavalla
-98.114,30.494,Turkey Bend - Lake Travis,800.776.5272,TX,Lago Vista
-100.555,31.377,Twin Buttes Park, ,TX,San Angelo
-97.104,33.006,Twin Coves - Grapevine Reservoir,972.539.1030,TX,Flower Mound
-94.055,31.071,Twin Dikes - Sam Rayburn Reservior,409.384.5716,TX,Jasper
-95.142,33.07,Twin Oaks Park - Lake Cypress Springs,903.537.4536,TX,Mount Vernon
-95.281,32.482,Tyler State Park,903.597.5338,TX,
-97.621,31.011,Union Grove  - Stillhouse Hollow Lake,254.947.0072,TX,
-97.146,30.017,Vernon L Richards Riverbend Park,512.237.3282,TX,Smithville
-94.174,30.252,Village Creek State Park,409.755.7322,TX,
-97.073,32.956,Vineyards - Grapevine Lake,817.329.8993,TX,Grapevine
-99.863,31.94,W. Lee Colburn Park,325.723.2081,TX,Winters
-95.158,33.076,Walleye Park - Lake Cypress Springs,903.537.4536,TX,
-97.384,31.898,Walling Bend - Lake Whitney,254.694.3189,TX,Whitney
-96.835,33.81,Walnut Creek Resort,903.523.4211,TX,Whitesboro
-100.74,31.661,Water Valley County Park, ,TX,Water Valley
-96.691,32.293,Waxahachie - Bardwell Lake,972.875.5711,TX,Ennis
-102.327,33.911,Waylon Jennings,806.385.5161,TX,Littlefield
-101.342,33.994,Wayne Russell RV Park,806.983.2834,TX,Floydada
-99.303,32.73,Webb City Park, ,TX,Albany
-98.351,32.091,Weiser Community Park,254.445.3331,TX,Dublin
-96.55,30.339,Welch Park - Somerville, ,TX,Somerville
-97.663,33.862,Weldon Rob Memorial Park - Lake Nocona, ,TX,
-100.008,29.62,Wes Cooksey County Park,830.597.3223,TX,Camp Wood
-97.839,31.117,West Fort Hood RV Military,254.288.9926,TX,Fort Hood
-95.929,33.737,West Lake Davy Crockett,940.627.5475/936.639.8501,TX,Honey Grove
-95.63,28.764,West Moring Dock County Park, ,TX,Sargent
-97.516,31.116,Westcliff - Belton Lake,254.939.9828,TX,Temple
-100.802,36.39,Whigham Park - Perryton, ,TX,Perryton
-97.472,31.231,White Flint - Belton Lake,254.986.3419,TX,Temple
-101.169,32.574,White Island Park - Lake J. B. Thomas, ,TX,
-94.651,29.835,White Memorial County Park, ,TX,Anahuac
-103.001,31.57,Wickett City Campground, ,TX,Wickett
-100.533,31.874,Wildcat Park - Spence Reservoir,325.453.2801,TX,
-97.385,30.696,Willis Creek - Granger Lake,512.859.2668,TX,Granger
-93.732,31.205,Willow Oak,409.787.3870/936.639.8501,TX,
-97.349,30.685,Wilson Fox - Granger Lake,512.859.2668,TX,Granger
-95.994,32.959,Wind Point Park,903.662.5134,TX,Lone Oak
-103.078,31.855,Winkler County Park, ,TX,Kermit
-97.47,31.247,Winkler Park - Lake Belton,254.986.1579,TX,Temple
-94.38,29.812,Winnie - Stowell County Park, ,TX,Anahuac
-95.276,32.953,Winnsboro City RV Park,903.342.3400,TX,Winnsboro
-97.845,33.278,Wise County Park,940.627.6655,TX,Bridgeport
-96.724,31.975,Wolf Creek - Navarro Mills Reservoir,254.578.1431,TX,Dawson
-95.151,30.665,Wolf Creek Park - Lake Livingston,936.653.4312,TX,
-100.646,36.227,Wolf Creek Park - Perryton,806.435.4559,TX,Perryton
-96.535,30.295,Yegua Creek - Lake Somerville,979.596.1622,TX,Somerville
-97.129,29.305,Yoakum City Park, ,TX,Yoakum
-102.818,33.049,Yoakum County Park,806.592.3166,TX,Denver City